G0 Z20
G21
G90
G94
F50.00
G00 Z3.0000
M03 S45
G4 P1
G00 X37.5000Y4.7800
G01 Z-2.0000
G01 Z0
G00 Z3.0000
G00 X107.0000Y4.7800
G01 Z-2.0000
G01 Z0
G00 Z3.0000
G00 X60.5000Y4.7800
G01 Z-2.0000
G01 Z0
G00 Z3.0000
G00 X83.5000Y4.7800
G01 Z-2.0000
G01 Z0
G00 Z3.0000
G00 X130.5000Y10.9800
G01 Z-2.0000
G01 Z0
G00 Z3.0000
G00 X143.5000Y11.2000
G01 Z-2.0000
G01 Z0
G00 Z3.0000
G00 X142.5000Y11.2000
G01 Z-2.0000
G01 Z0
G00 Z3.0000
G00 X137.5000Y11.2000
G01 Z-2.0000
G01 Z0
G00 Z3.0000
G00 X136.5000Y11.2000
G01 Z-2.0000
G01 Z0
G00 Z3.0000
G00 X83.5000Y12.4000
G01 Z-2.0000
G01 Z0
G00 Z3.0000
G00 X60.5000Y12.4000
G01 Z-2.0000
G01 Z0
G00 Z3.0000
G00 X107.0000Y12.4000
G01 Z-2.0000
G01 Z0
G00 Z3.0000
G00 X37.5000Y12.4000
G01 Z-2.0000
G01 Z0
G00 Z3.0000
G00 X140.0000Y16.2000
G01 Z-2.0000
G01 Z0
G00 Z3.0000
G00 X140.0000Y17.2000
G01 Z-2.0000
G01 Z0
G00 Z3.0000
G00 X130.5000Y18.6000
G01 Z-2.0000
G01 Z0
G00 Z3.0000
G00 X98.5000Y31.9000
G01 Z-2.0000
G01 Z0
G00 Z3.0000
G00 X76.4000Y32.0000
G01 Z-2.0000
G01 Z0
G00 Z3.0000
G00 X54.7000Y35.0000
G01 Z-2.0000
G01 Z0
G00 Z3.0000
G00 X67.5100Y35.0000
G01 Z-2.0000
G01 Z0
G00 Z3.0000
G00 X72.5700Y35.0000
G01 Z-2.0000
G01 Z0
G00 Z3.0000
G00 X132.5900Y36.1800
G01 Z-2.0000
G01 Z0
G00 Z3.0000
G00 X130.0500Y36.1800
G01 Z-2.0000
G01 Z0
G00 Z3.0000
G00 X127.5100Y36.1800
G01 Z-2.0000
G01 Z0
G00 Z3.0000
G00 X124.9700Y36.1800
G01 Z-2.0000
G01 Z0
G00 Z3.0000
G00 X122.4300Y36.1800
G01 Z-2.0000
G01 Z0
G00 Z3.0000
G00 X18.0800Y36.2000
G01 Z-2.0000
G01 Z0
G00 Z3.0000
G00 X25.7000Y36.2000
G01 Z-2.0000
G01 Z0
G00 Z3.0000
G00 X41.0000Y40.7000
G01 Z-2.0000
G01 Z0
G00 Z3.0000
G00 X30.8000Y40.7000
G01 Z-2.0000
G01 Z0
G00 Z3.0000
G00 X111.0000Y41.2600
G01 Z-2.0000
G01 Z0
G00 Z3.0000
G00 X113.5400Y41.2600
G01 Z-2.0000
G01 Z0
G00 Z3.0000
G00 X116.0800Y41.2600
G01 Z-2.0000
G01 Z0
G00 Z3.0000
G00 X118.6200Y41.2600
G01 Z-2.0000
G01 Z0
G00 Z3.0000
G00 X121.1600Y41.2600
G01 Z-2.0000
G01 Z0
G00 Z3.0000
G00 X123.7000Y41.2600
G01 Z-2.0000
G01 Z0
G00 Z3.0000
G00 X126.2400Y41.2600
G01 Z-2.0000
G01 Z0
G00 Z3.0000
G00 X128.7800Y41.2600
G01 Z-2.0000
G01 Z0
G00 Z3.0000
G00 X131.3200Y41.2600
G01 Z-2.0000
G01 Z0
G00 Z3.0000
G00 X133.8600Y41.2600
G01 Z-2.0000
G01 Z0
G00 Z3.0000
G00 X136.4000Y41.2600
G01 Z-2.0000
G01 Z0
G00 Z3.0000
G00 X138.9400Y41.2600
G01 Z-2.0000
G01 Z0
G00 Z3.0000
G00 X141.4800Y41.2600
G01 Z-2.0000
G01 Z0
G00 Z3.0000
G00 X144.0200Y41.2600
G01 Z-2.0000
G01 Z0
G00 Z3.0000
G00 X66.7100Y41.3200
G01 Z-2.0000
G01 Z0
G00 Z3.0000
G00 X69.1300Y42.8400
G01 Z-2.0000
G01 Z0
G00 Z3.0000
G00 X98.5700Y43.2700
G01 Z-2.0000
G01 Z0
G00 Z3.0000
G00 X94.0000Y43.3000
G01 Z-2.0000
G01 Z0
G00 Z3.0000
G00 X96.3000Y43.3000
G01 Z-2.0000
G01 Z0
G00 Z3.0000
G00 X100.8000Y43.3000
G01 Z-2.0000
G01 Z0
G00 Z3.0000
G00 X63.8200Y44.3300
G01 Z-2.0000
G01 Z0
G00 Z3.0000
G00 X61.2800Y44.3300
G01 Z-2.0000
G01 Z0
G00 Z3.0000
G00 X58.7400Y44.3300
G01 Z-2.0000
G01 Z0
G00 Z3.0000
G00 X56.2000Y44.3300
G01 Z-2.0000
G01 Z0
G00 Z3.0000
G00 X53.6600Y44.3300
G01 Z-2.0000
G01 Z0
G00 Z3.0000
G00 X51.1200Y44.3300
G01 Z-2.0000
G01 Z0
G00 Z3.0000
G00 X48.5800Y44.3300
G01 Z-2.0000
G01 Z0
G00 Z3.0000
G00 X46.0400Y44.3300
G01 Z-2.0000
G01 Z0
G00 Z3.0000
G00 X43.5000Y44.3300
G01 Z-2.0000
G01 Z0
G00 Z3.0000
G00 X40.9600Y44.3300
G01 Z-2.0000
G01 Z0
G00 Z3.0000
G00 X38.4200Y44.3300
G01 Z-2.0000
G01 Z0
G00 Z3.0000
G00 X35.8800Y44.3300
G01 Z-2.0000
G01 Z0
G00 Z3.0000
G00 X33.3400Y44.3300
G01 Z-2.0000
G01 Z0
G00 Z3.0000
G00 X30.8000Y44.3300
G01 Z-2.0000
G01 Z0
G00 Z3.0000
G00 X28.2600Y44.3300
G01 Z-2.0000
G01 Z0
G00 Z3.0000
G00 X25.7200Y44.3300
G01 Z-2.0000
G01 Z0
G00 Z3.0000
G00 X23.1800Y44.3300
G01 Z-2.0000
G01 Z0
G00 Z3.0000
G00 X20.6400Y44.3300
G01 Z-2.0000
G01 Z0
G00 Z3.0000
G00 X18.1000Y44.3300
G01 Z-2.0000
G01 Z0
G00 Z3.0000
G00 X15.5600Y44.3300
G01 Z-2.0000
G01 Z0
G00 Z3.0000
G00 X13.0200Y44.3300
G01 Z-2.0000
G01 Z0
G00 Z3.0000
G00 X10.4800Y44.3300
G01 Z-2.0000
G01 Z0
G00 Z3.0000
G00 X7.9400Y44.3300
G01 Z-2.0000
G01 Z0
G00 Z3.0000
G00 X5.4000Y44.3300
G01 Z-2.0000
G01 Z0
G00 Z3.0000
G00 X86.5000Y46.1000
G01 Z-2.0000
G01 Z0
G00 Z3.0000
G00 X108.6000Y47.3000
G01 Z-2.0000
G01 Z0
G00 Z3.0000
G00 X7.9000Y48.3000
G01 Z-2.0000
G01 Z0
G00 Z3.0000
G00 X15.5200Y48.3000
G01 Z-2.0000
G01 Z0
G00 Z3.0000
G00 X28.4000Y48.9000
G01 Z-2.0000
G01 Z0
G00 Z3.0000
G00 X94.0000Y49.1000
G01 Z-2.0000
G01 Z0
G00 Z3.0000
G00 X105.2000Y51.8000
G01 Z-2.0000
G01 Z0
G00 Z3.0000
G00 X91.7000Y51.8000
G01 Z-2.0000
G01 Z0
G00 Z3.0000
G00 X111.0000Y56.5000
G01 Z-2.0000
G01 Z0
G00 Z3.0000
G00 X113.5400Y56.5000
G01 Z-2.0000
G01 Z0
G00 Z3.0000
G00 X116.0800Y56.5000
G01 Z-2.0000
G01 Z0
G00 Z3.0000
G00 X118.6200Y56.5000
G01 Z-2.0000
G01 Z0
G00 Z3.0000
G00 X121.1600Y56.5000
G01 Z-2.0000
G01 Z0
G00 Z3.0000
G00 X123.7000Y56.5000
G01 Z-2.0000
G01 Z0
G00 Z3.0000
G00 X126.2400Y56.5000
G01 Z-2.0000
G01 Z0
G00 Z3.0000
G00 X128.7800Y56.5000
G01 Z-2.0000
G01 Z0
G00 Z3.0000
G00 X131.3200Y56.5000
G01 Z-2.0000
G01 Z0
G00 Z3.0000
G00 X133.8600Y56.5000
G01 Z-2.0000
G01 Z0
G00 Z3.0000
G00 X136.4000Y56.5000
G01 Z-2.0000
G01 Z0
G00 Z3.0000
G00 X138.9400Y56.5000
G01 Z-2.0000
G01 Z0
G00 Z3.0000
G00 X141.4800Y56.5000
G01 Z-2.0000
G01 Z0
G00 Z3.0000
G00 X144.0200Y56.5000
G01 Z-2.0000
G01 Z0
G00 Z3.0000
G00 X93.7500Y56.7000
G01 Z-2.0000
G01 Z0
G00 Z3.0000
G00 X28.4000Y57.0000
G01 Z-2.0000
G01 Z0
G00 Z3.0000
G00 X63.8200Y59.5700
G01 Z-2.0000
G01 Z0
G00 Z3.0000
G00 X61.2800Y59.5700
G01 Z-2.0000
G01 Z0
G00 Z3.0000
G00 X58.7400Y59.5700
G01 Z-2.0000
G01 Z0
G00 Z3.0000
G00 X56.2000Y59.5700
G01 Z-2.0000
G01 Z0
G00 Z3.0000
G00 X53.6600Y59.5700
G01 Z-2.0000
G01 Z0
G00 Z3.0000
G00 X51.1200Y59.5700
G01 Z-2.0000
G01 Z0
G00 Z3.0000
G00 X48.5800Y59.5700
G01 Z-2.0000
G01 Z0
G00 Z3.0000
G00 X46.0400Y59.5700
G01 Z-2.0000
G01 Z0
G00 Z3.0000
G00 X43.5000Y59.5700
G01 Z-2.0000
G01 Z0
G00 Z3.0000
G00 X40.9600Y59.5700
G01 Z-2.0000
G01 Z0
G00 Z3.0000
G00 X38.4200Y59.5700
G01 Z-2.0000
G01 Z0
G00 Z3.0000
G00 X35.8800Y59.5700
G01 Z-2.0000
G01 Z0
G00 Z3.0000
G00 X33.3400Y59.5700
G01 Z-2.0000
G01 Z0
G00 Z3.0000
G00 X30.8000Y59.5700
G01 Z-2.0000
G01 Z0
G00 Z3.0000
G00 X28.2600Y59.5700
G01 Z-2.0000
G01 Z0
G00 Z3.0000
G00 X25.7200Y59.5700
G01 Z-2.0000
G01 Z0
G00 Z3.0000
G00 X23.1800Y59.5700
G01 Z-2.0000
G01 Z0
G00 Z3.0000
G00 X20.6400Y59.5700
G01 Z-2.0000
G01 Z0
G00 Z3.0000
G00 X18.1000Y59.5700
G01 Z-2.0000
G01 Z0
G00 Z3.0000
G00 X15.5600Y59.5700
G01 Z-2.0000
G01 Z0
G00 Z3.0000
G00 X13.0200Y59.5700
G01 Z-2.0000
G01 Z0
G00 Z3.0000
G00 X10.4800Y59.5700
G01 Z-2.0000
G01 Z0
G00 Z3.0000
G00 X7.9400Y59.5700
G01 Z-2.0000
G01 Z0
G00 Z3.0000
G00 X5.4000Y59.5700
G01 Z-2.0000
G01 Z0
G00 Z3.0000
G00 X72.6000Y61.0000
G01 Z-2.0000
G01 Z0
G00 Z3.0000
G00 X86.4800Y63.8800
G01 Z-2.0000
G01 Z0
G00 Z3.0000
G00 X91.7000Y64.3000
G01 Z-2.0000
G01 Z0
G00 Z3.0000
G00 X94.0000Y64.3000
G01 Z-2.0000
G01 Z0
G00 Z3.0000
G00 X96.3000Y64.3000
G01 Z-2.0000
G01 Z0
G00 Z3.0000
G00 X98.5700Y64.3000
G01 Z-2.0000
G01 Z0
G00 Z3.0000
G00 X100.8000Y64.3000
G01 Z-2.0000
G01 Z0
G00 Z3.0000
G00 X66.7600Y65.2300
G01 Z-2.0000
G01 Z0
G00 Z3.0000
G00 X69.1300Y65.2500
G01 Z-2.0000
G01 Z0
G00 Z3.0000
G00 X79.6200Y67.4700
G01 Z-2.0000
G01 Z0
G00 Z3.0000
G00 X66.2000Y67.5800
G01 Z-2.0000
G01 Z0
G00 Z3.0000
G00 X102.9200Y67.9000
G01 Z-2.0000
G01 Z0
G00 Z3.0000
G00 X95.3000Y67.9000
G01 Z-2.0000
G01 Z0
G00 Z3.0000
G00 X10.0000Y68.0000
G01 Z-2.0000
G01 Z0
G00 Z3.0000
G00 X17.6200Y68.0000
G01 Z-2.0000
G01 Z0
G00 Z3.0000
G00 X105.1500Y70.1000
G01 Z-2.0000
G01 Z0
G00 Z3.0000
G00 X10.0000Y71.0000
G01 Z-2.0000
G01 Z0
G00 Z3.0000
G00 X17.6200Y71.0000
G01 Z-2.0000
G01 Z0
G00 Z3.0000
G00 X42.1500Y72.1600
G01 Z-2.0000
G01 Z0
G00 Z3.0000
G00 X78.9400Y78.1600
G01 Z-2.0000
G01 Z0
G00 Z3.0000
G00 X83.9600Y78.1600
G01 Z-2.0000
G01 Z0
G00 Z3.0000
G00 X108.5900Y79.0800
G01 Z-2.0000
G01 Z0
G00 Z3.0000
G00 X44.5000Y79.5000
G01 Z-2.0000
G01 Z0
G00 Z3.0000
G00 X42.0800Y79.6200
G01 Z-2.0000
G01 Z0
G00 Z3.0000
G00 X57.8000Y80.4000
G01 Z-2.0000
G01 Z0
G00 Z3.0000
G00 X89.8000Y80.4000
G01 Z-2.0000
G01 Z0
G00 Z3.0000
G00 X136.1000Y81.3000
G01 Z-2.0000
G01 Z0
G00 Z3.0000
G00 X118.5000Y81.3000
G01 Z-2.0000
G01 Z0
G00 Z3.0000
G00 X23.9000Y82.2000
G01 Z-2.0000
G01 Z0
G00 Z3.0000
G00 X20.9000Y82.3000
G01 Z-2.0000
G01 Z0
G00 Z3.0000
G00 X12.3000Y82.3000
G01 Z-2.0000
G01 Z0
G00 Z3.0000
G00 X35.1000Y82.4000
G01 Z-2.0000
G01 Z0
G00 Z3.0000
G00 X129.0000Y83.7000
G01 Z-2.0000
G01 Z0
G00 Z3.0000
G00 X119.1000Y83.7000
G01 Z-2.0000
G01 Z0
G00 Z3.0000
G00 X56.7000Y84.0000
G01 Z-2.0000
G01 Z0
G00 Z3.0000
G00 X59.2400Y84.0000
G01 Z-2.0000
G01 Z0
G00 Z3.0000
G00 X61.7800Y84.0000
G01 Z-2.0000
G01 Z0
G00 Z3.0000
G00 X64.3200Y84.0000
G01 Z-2.0000
G01 Z0
G00 Z3.0000
G00 X66.8600Y84.0000
G01 Z-2.0000
G01 Z0
G00 Z3.0000
G00 X69.4000Y84.0000
G01 Z-2.0000
G01 Z0
G00 Z3.0000
G00 X71.9400Y84.0000
G01 Z-2.0000
G01 Z0
G00 Z3.0000
G00 X74.4800Y84.0000
G01 Z-2.0000
G01 Z0
G00 Z3.0000
G00 X77.0200Y84.0000
G01 Z-2.0000
G01 Z0
G00 Z3.0000
G00 X79.5600Y84.0000
G01 Z-2.0000
G01 Z0
G00 Z3.0000
G00 X82.1000Y84.0000
G01 Z-2.0000
G01 Z0
G00 Z3.0000
G00 X84.6400Y84.0000
G01 Z-2.0000
G01 Z0
G00 Z3.0000
G00 X87.1800Y84.0000
G01 Z-2.0000
G01 Z0
G00 Z3.0000
G00 X89.7200Y84.0000
G01 Z-2.0000
G01 Z0
G00 Z3.0000
G00 X92.2600Y84.0000
G01 Z-2.0000
G01 Z0
G00 Z3.0000
G00 X94.8000Y84.0000
G01 Z-2.0000
G01 Z0
G00 Z3.0000
G00 X97.3400Y84.0000
G01 Z-2.0000
G01 Z0
G00 Z3.0000
G00 X99.8800Y84.0000
G01 Z-2.0000
G01 Z0
G00 Z3.0000
G00 X102.4200Y84.0000
G01 Z-2.0000
G01 Z0
G00 Z3.0000
G00 X104.9600Y84.0000
G01 Z-2.0000
G01 Z0
G00 Z3.0000
G00 X104.9600Y86.5400
G01 Z-2.0000
G01 Z0
G00 Z3.0000
G00 X102.4200Y86.5400
G01 Z-2.0000
G01 Z0
G00 Z3.0000
G00 X99.8800Y86.5400
G01 Z-2.0000
G01 Z0
G00 Z3.0000
G00 X97.3400Y86.5400
G01 Z-2.0000
G01 Z0
G00 Z3.0000
G00 X94.8000Y86.5400
G01 Z-2.0000
G01 Z0
G00 Z3.0000
G00 X92.2600Y86.5400
G01 Z-2.0000
G01 Z0
G00 Z3.0000
G00 X89.7200Y86.5400
G01 Z-2.0000
G01 Z0
G00 Z3.0000
G00 X87.1800Y86.5400
G01 Z-2.0000
G01 Z0
G00 Z3.0000
G00 X84.6400Y86.5400
G01 Z-2.0000
G01 Z0
G00 Z3.0000
G00 X82.1000Y86.5400
G01 Z-2.0000
G01 Z0
G00 Z3.0000
G00 X79.5600Y86.5400
G01 Z-2.0000
G01 Z0
G00 Z3.0000
G00 X77.0200Y86.5400
G01 Z-2.0000
G01 Z0
G00 Z3.0000
G00 X74.4800Y86.5400
G01 Z-2.0000
G01 Z0
G00 Z3.0000
G00 X71.9400Y86.5400
G01 Z-2.0000
G01 Z0
G00 Z3.0000
G00 X69.4000Y86.5400
G01 Z-2.0000
G01 Z0
G00 Z3.0000
G00 X66.8600Y86.5400
G01 Z-2.0000
G01 Z0
G00 Z3.0000
G00 X64.3200Y86.5400
G01 Z-2.0000
G01 Z0
G00 Z3.0000
G00 X61.7800Y86.5400
G01 Z-2.0000
G01 Z0
G00 Z3.0000
G00 X59.2400Y86.5400
G01 Z-2.0000
G01 Z0
G00 Z3.0000
G00 X56.7000Y86.5400
G01 Z-2.0000
G01 Z0
G00 Z3.0000
G00 X44.5000Y87.1200
G01 Z-2.0000
G01 Z0
G00 Z3.0000
G00 X0.0000Y0.0000
M05
G0 Z20
G0 X0 Y100