G0 Z20
G21
G90
G94
F50.00
G00 Z3.0000
M03 S45
G4 P1
G00 X80.1000Y60.9000
G01 Z-2.0000
G01 Z0
G00 Z3.0000
G00 X76.3000Y60.9000
G01 Z-2.0000
G01 Z0
G00 Z3.0000
G00 X55.3000Y68.1000
G01 Z-2.0000
G01 Z0
G00 Z3.0000
G00 X57.6000Y68.1000
G01 Z-2.0000
G01 Z0
G00 Z3.0000
G00 X119.0000Y75.4500
G01 Z-2.0000
G01 Z0
G00 Z3.0000
G00 X116.4600Y75.4500
G01 Z-2.0000
G01 Z0
G00 Z3.0000
G00 X113.9200Y75.4500
G01 Z-2.0000
G01 Z0
G00 Z3.0000
G00 X30.8000Y35.0000
G01 Z-2.0000
G01 Z0
G00 Z3.0000
G00 X33.3400Y35.0000
G01 Z-2.0000
G01 Z0
G00 Z3.0000
G00 X35.8800Y35.0000
G01 Z-2.0000
G01 Z0
G00 Z3.0000
G00 X38.4200Y35.0000
G01 Z-2.0000
G01 Z0
G00 Z3.0000
G00 X40.9600Y35.0000
G01 Z-2.0000
G01 Z0
G00 Z3.0000
G00 X43.5000Y35.0000
G01 Z-2.0000
G01 Z0
G00 Z3.0000
G00 X46.0400Y35.0000
G01 Z-2.0000
G01 Z0
G00 Z3.0000
G00 X48.5800Y35.0000
G01 Z-2.0000
G01 Z0
G00 Z3.0000
G00 X99.0800Y37.2000
G01 Z-2.0000
G01 Z0
G00 Z3.0000
G00 X96.5400Y37.2000
G01 Z-2.0000
G01 Z0
G00 Z3.0000
G00 X94.0000Y37.2000
G01 Z-2.0000
G01 Z0
G00 Z3.0000
G00 X91.4600Y37.2000
G01 Z-2.0000
G01 Z0
G00 Z3.0000
G00 X88.9200Y37.2000
G01 Z-2.0000
G01 Z0
G00 Z3.0000
G00 X86.3800Y37.2000
G01 Z-2.0000
G01 Z0
G00 Z3.0000
G00 X83.8400Y37.2000
G01 Z-2.0000
G01 Z0
G00 Z3.0000
G00 X81.3000Y37.2000
G01 Z-2.0000
G01 Z0
G00 Z3.0000
G00 X72.0000Y72.0000
G01 Z-2.0000
G01 Z0
G00 Z3.0000
G00 X74.5400Y72.0000
G01 Z-2.0000
G01 Z0
G00 Z3.0000
G00 X77.0800Y72.0000
G01 Z-2.0000
G01 Z0
G00 Z3.0000
G00 X79.6200Y72.0000
G01 Z-2.0000
G01 Z0
G00 Z3.0000
G00 X82.1600Y72.0000
G01 Z-2.0000
G01 Z0
G00 Z3.0000
G00 X84.7000Y72.0000
G01 Z-2.0000
G01 Z0
G00 Z3.0000
G00 X87.2400Y72.0000
G01 Z-2.0000
G01 Z0
G00 Z3.0000
G00 X89.7800Y72.0000
G01 Z-2.0000
G01 Z0
G00 Z3.0000
G00 X142.0000Y76.0000
G01 Z-2.0000
G01 Z0
G00 Z3.0000
G00 X139.4600Y76.0000
G01 Z-2.0000
G01 Z0
G00 Z3.0000
G00 X57.7000Y76.0000
G01 Z-2.0000
G01 Z0
G00 Z3.0000
G00 X55.1600Y76.0000
G01 Z-2.0000
G01 Z0
G00 Z3.0000
G00 X129.0000Y76.0000
G01 Z-2.0000
G01 Z0
G00 Z3.0000
G00 X126.4600Y76.0000
G01 Z-2.0000
G01 Z0
G00 Z3.0000
G00 X7.2400Y77.9000
G01 Z-2.0000
G01 Z0
G00 Z3.0000
G00 X9.7800Y77.9000
G01 Z-2.0000
G01 Z0
G00 Z3.0000
G00 X12.3200Y77.9000
G01 Z-2.0000
G01 Z0
G00 Z3.0000
G00 X14.8600Y77.9000
G01 Z-2.0000
G01 Z0
G00 Z3.0000
G00 X17.4000Y77.9000
G01 Z-2.0000
G01 Z0
G00 Z3.0000
G00 X23.9000Y77.9000
G01 Z-2.0000
G01 Z0
G00 Z3.0000
G00 X26.4400Y77.9000
G01 Z-2.0000
G01 Z0
G00 Z3.0000
G00 X28.9800Y77.9000
G01 Z-2.0000
G01 Z0
G00 Z3.0000
G00 X31.5200Y77.9000
G01 Z-2.0000
G01 Z0
G00 Z3.0000
G00 X34.0600Y77.9000
G01 Z-2.0000
G01 Z0
G00 Z3.0000
G00 X36.6000Y77.9000
G01 Z-2.0000
G01 Z0
G00 Z3.0000
G00 X0.0000Y0.0000
M05
G0 Z20
G0 X0 Y100