G0 Z20
G21
G90
G94
F50.00
G00 Z3.0000
M03 S45
G4 P1
G00 X4.6500Y27.5000
G01 Z-0.2000
G01 X4.6469Y27.4363
G01 X4.6375Y27.3732
G01 X4.6220Y27.3113
G01 X4.6005Y27.2513
G01 X4.5732Y27.1936
G01 X4.5405Y27.1389
G01 X4.5025Y27.0876
G01 X4.4596Y27.0404
G01 X4.4124Y26.9975
G01 X4.3611Y26.9595
G01 X4.3064Y26.9268
G01 X4.2487Y26.8995
G01 X4.1887Y26.8780
G01 X4.1268Y26.8625
G01 X4.0637Y26.8531
G01 X4.0000Y26.8500
G01 X3.9363Y26.8531
G01 X3.8732Y26.8625
G01 X3.8113Y26.8780
G01 X3.7513Y26.8995
G01 X3.6936Y26.9268
G01 X3.6389Y26.9595
G01 X3.5876Y26.9975
G01 X3.5404Y27.0404
G01 X3.4975Y27.0876
G01 X3.4595Y27.1389
G01 X3.4268Y27.1936
G01 X3.3995Y27.2513
G01 X3.3780Y27.3113
G01 X3.3625Y27.3732
G01 X3.3531Y27.4363
G01 X3.3500Y27.5000
G01 X3.3531Y27.5637
G01 X3.3625Y27.6268
G01 X3.3780Y27.6887
G01 X3.3995Y27.7487
G01 X3.4268Y27.8064
G01 X3.4595Y27.8611
G01 X3.4975Y27.9124
G01 X3.5404Y27.9596
G01 X3.5876Y28.0025
G01 X3.6389Y28.0405
G01 X3.6936Y28.0732
G01 X3.7513Y28.1005
G01 X3.8113Y28.1220
G01 X3.8732Y28.1375
G01 X3.9363Y28.1469
G01 X4.0000Y28.1500
G01 X4.0637Y28.1469
G01 X4.1268Y28.1375
G01 X4.1887Y28.1220
G01 X4.2487Y28.1005
G01 X4.3064Y28.0732
G01 X4.3611Y28.0405
G01 X4.4124Y28.0025
G01 X4.4596Y27.9596
G01 X4.5025Y27.9124
G01 X4.5405Y27.8611
G01 X4.5732Y27.8064
G01 X4.6005Y27.7487
G01 X4.6220Y27.6887
G01 X4.6375Y27.6268
G01 X4.6469Y27.5637
G01 X4.6500Y27.5000
G00 X4.6500Y27.5000
G01 Z-0.4000
G01 X4.6469Y27.4363
G01 X4.6375Y27.3732
G01 X4.6220Y27.3113
G01 X4.6005Y27.2513
G01 X4.5732Y27.1936
G01 X4.5405Y27.1389
G01 X4.5025Y27.0876
G01 X4.4596Y27.0404
G01 X4.4124Y26.9975
G01 X4.3611Y26.9595
G01 X4.3064Y26.9268
G01 X4.2487Y26.8995
G01 X4.1887Y26.8780
G01 X4.1268Y26.8625
G01 X4.0637Y26.8531
G01 X4.0000Y26.8500
G01 X3.9363Y26.8531
G01 X3.8732Y26.8625
G01 X3.8113Y26.8780
G01 X3.7513Y26.8995
G01 X3.6936Y26.9268
G01 X3.6389Y26.9595
G01 X3.5876Y26.9975
G01 X3.5404Y27.0404
G01 X3.4975Y27.0876
G01 X3.4595Y27.1389
G01 X3.4268Y27.1936
G01 X3.3995Y27.2513
G01 X3.3780Y27.3113
G01 X3.3625Y27.3732
G01 X3.3531Y27.4363
G01 X3.3500Y27.5000
G01 X3.3531Y27.5637
G01 X3.3625Y27.6268
G01 X3.3780Y27.6887
G01 X3.3995Y27.7487
G01 X3.4268Y27.8064
G01 X3.4595Y27.8611
G01 X3.4975Y27.9124
G01 X3.5404Y27.9596
G01 X3.5876Y28.0025
G01 X3.6389Y28.0405
G01 X3.6936Y28.0732
G01 X3.7513Y28.1005
G01 X3.8113Y28.1220
G01 X3.8732Y28.1375
G01 X3.9363Y28.1469
G01 X4.0000Y28.1500
G01 X4.0637Y28.1469
G01 X4.1268Y28.1375
G01 X4.1887Y28.1220
G01 X4.2487Y28.1005
G01 X4.3064Y28.0732
G01 X4.3611Y28.0405
G01 X4.4124Y28.0025
G01 X4.4596Y27.9596
G01 X4.5025Y27.9124
G01 X4.5405Y27.8611
G01 X4.5732Y27.8064
G01 X4.6005Y27.7487
G01 X4.6220Y27.6887
G01 X4.6375Y27.6268
G01 X4.6469Y27.5637
G01 X4.6500Y27.5000
G00 X4.6500Y27.5000
G01 Z-0.6000
G01 X4.6469Y27.4363
G01 X4.6375Y27.3732
G01 X4.6220Y27.3113
G01 X4.6005Y27.2513
G01 X4.5732Y27.1936
G01 X4.5405Y27.1389
G01 X4.5025Y27.0876
G01 X4.4596Y27.0404
G01 X4.4124Y26.9975
G01 X4.3611Y26.9595
G01 X4.3064Y26.9268
G01 X4.2487Y26.8995
G01 X4.1887Y26.8780
G01 X4.1268Y26.8625
G01 X4.0637Y26.8531
G01 X4.0000Y26.8500
G01 X3.9363Y26.8531
G01 X3.8732Y26.8625
G01 X3.8113Y26.8780
G01 X3.7513Y26.8995
G01 X3.6936Y26.9268
G01 X3.6389Y26.9595
G01 X3.5876Y26.9975
G01 X3.5404Y27.0404
G01 X3.4975Y27.0876
G01 X3.4595Y27.1389
G01 X3.4268Y27.1936
G01 X3.3995Y27.2513
G01 X3.3780Y27.3113
G01 X3.3625Y27.3732
G01 X3.3531Y27.4363
G01 X3.3500Y27.5000
G01 X3.3531Y27.5637
G01 X3.3625Y27.6268
G01 X3.3780Y27.6887
G01 X3.3995Y27.7487
G01 X3.4268Y27.8064
G01 X3.4595Y27.8611
G01 X3.4975Y27.9124
G01 X3.5404Y27.9596
G01 X3.5876Y28.0025
G01 X3.6389Y28.0405
G01 X3.6936Y28.0732
G01 X3.7513Y28.1005
G01 X3.8113Y28.1220
G01 X3.8732Y28.1375
G01 X3.9363Y28.1469
G01 X4.0000Y28.1500
G01 X4.0637Y28.1469
G01 X4.1268Y28.1375
G01 X4.1887Y28.1220
G01 X4.2487Y28.1005
G01 X4.3064Y28.0732
G01 X4.3611Y28.0405
G01 X4.4124Y28.0025
G01 X4.4596Y27.9596
G01 X4.5025Y27.9124
G01 X4.5405Y27.8611
G01 X4.5732Y27.8064
G01 X4.6005Y27.7487
G01 X4.6220Y27.6887
G01 X4.6375Y27.6268
G01 X4.6469Y27.5637
G01 X4.6500Y27.5000
G00 X4.6500Y27.5000
G01 Z-0.8000
G01 X4.6469Y27.4363
G01 X4.6375Y27.3732
G01 X4.6220Y27.3113
G01 X4.6005Y27.2513
G01 X4.5732Y27.1936
G01 X4.5405Y27.1389
G01 X4.5025Y27.0876
G01 X4.4596Y27.0404
G01 X4.4124Y26.9975
G01 X4.3611Y26.9595
G01 X4.3064Y26.9268
G01 X4.2487Y26.8995
G01 X4.1887Y26.8780
G01 X4.1268Y26.8625
G01 X4.0637Y26.8531
G01 X4.0000Y26.8500
G01 X3.9363Y26.8531
G01 X3.8732Y26.8625
G01 X3.8113Y26.8780
G01 X3.7513Y26.8995
G01 X3.6936Y26.9268
G01 X3.6389Y26.9595
G01 X3.5876Y26.9975
G01 X3.5404Y27.0404
G01 X3.4975Y27.0876
G01 X3.4595Y27.1389
G01 X3.4268Y27.1936
G01 X3.3995Y27.2513
G01 X3.3780Y27.3113
G01 X3.3625Y27.3732
G01 X3.3531Y27.4363
G01 X3.3500Y27.5000
G01 X3.3531Y27.5637
G01 X3.3625Y27.6268
G01 X3.3780Y27.6887
G01 X3.3995Y27.7487
G01 X3.4268Y27.8064
G01 X3.4595Y27.8611
G01 X3.4975Y27.9124
G01 X3.5404Y27.9596
G01 X3.5876Y28.0025
G01 X3.6389Y28.0405
G01 X3.6936Y28.0732
G01 X3.7513Y28.1005
G01 X3.8113Y28.1220
G01 X3.8732Y28.1375
G01 X3.9363Y28.1469
G01 X4.0000Y28.1500
G01 X4.0637Y28.1469
G01 X4.1268Y28.1375
G01 X4.1887Y28.1220
G01 X4.2487Y28.1005
G01 X4.3064Y28.0732
G01 X4.3611Y28.0405
G01 X4.4124Y28.0025
G01 X4.4596Y27.9596
G01 X4.5025Y27.9124
G01 X4.5405Y27.8611
G01 X4.5732Y27.8064
G01 X4.6005Y27.7487
G01 X4.6220Y27.6887
G01 X4.6375Y27.6268
G01 X4.6469Y27.5637
G01 X4.6500Y27.5000
G00 X4.6500Y27.5000
G01 Z-1.0000
G01 X4.6469Y27.4363
G01 X4.6375Y27.3732
G01 X4.6220Y27.3113
G01 X4.6005Y27.2513
G01 X4.5732Y27.1936
G01 X4.5405Y27.1389
G01 X4.5025Y27.0876
G01 X4.4596Y27.0404
G01 X4.4124Y26.9975
G01 X4.3611Y26.9595
G01 X4.3064Y26.9268
G01 X4.2487Y26.8995
G01 X4.1887Y26.8780
G01 X4.1268Y26.8625
G01 X4.0637Y26.8531
G01 X4.0000Y26.8500
G01 X3.9363Y26.8531
G01 X3.8732Y26.8625
G01 X3.8113Y26.8780
G01 X3.7513Y26.8995
G01 X3.6936Y26.9268
G01 X3.6389Y26.9595
G01 X3.5876Y26.9975
G01 X3.5404Y27.0404
G01 X3.4975Y27.0876
G01 X3.4595Y27.1389
G01 X3.4268Y27.1936
G01 X3.3995Y27.2513
G01 X3.3780Y27.3113
G01 X3.3625Y27.3732
G01 X3.3531Y27.4363
G01 X3.3500Y27.5000
G01 X3.3531Y27.5637
G01 X3.3625Y27.6268
G01 X3.3780Y27.6887
G01 X3.3995Y27.7487
G01 X3.4268Y27.8064
G01 X3.4595Y27.8611
G01 X3.4975Y27.9124
G01 X3.5404Y27.9596
G01 X3.5876Y28.0025
G01 X3.6389Y28.0405
G01 X3.6936Y28.0732
G01 X3.7513Y28.1005
G01 X3.8113Y28.1220
G01 X3.8732Y28.1375
G01 X3.9363Y28.1469
G01 X4.0000Y28.1500
G01 X4.0637Y28.1469
G01 X4.1268Y28.1375
G01 X4.1887Y28.1220
G01 X4.2487Y28.1005
G01 X4.3064Y28.0732
G01 X4.3611Y28.0405
G01 X4.4124Y28.0025
G01 X4.4596Y27.9596
G01 X4.5025Y27.9124
G01 X4.5405Y27.8611
G01 X4.5732Y27.8064
G01 X4.6005Y27.7487
G01 X4.6220Y27.6887
G01 X4.6375Y27.6268
G01 X4.6469Y27.5637
G01 X4.6500Y27.5000
G00 X4.6500Y27.5000
G01 Z-1.2000
G01 X4.6469Y27.4363
G01 X4.6375Y27.3732
G01 X4.6220Y27.3113
G01 X4.6005Y27.2513
G01 X4.5732Y27.1936
G01 X4.5405Y27.1389
G01 X4.5025Y27.0876
G01 X4.4596Y27.0404
G01 X4.4124Y26.9975
G01 X4.3611Y26.9595
G01 X4.3064Y26.9268
G01 X4.2487Y26.8995
G01 X4.1887Y26.8780
G01 X4.1268Y26.8625
G01 X4.0637Y26.8531
G01 X4.0000Y26.8500
G01 X3.9363Y26.8531
G01 X3.8732Y26.8625
G01 X3.8113Y26.8780
G01 X3.7513Y26.8995
G01 X3.6936Y26.9268
G01 X3.6389Y26.9595
G01 X3.5876Y26.9975
G01 X3.5404Y27.0404
G01 X3.4975Y27.0876
G01 X3.4595Y27.1389
G01 X3.4268Y27.1936
G01 X3.3995Y27.2513
G01 X3.3780Y27.3113
G01 X3.3625Y27.3732
G01 X3.3531Y27.4363
G01 X3.3500Y27.5000
G01 X3.3531Y27.5637
G01 X3.3625Y27.6268
G01 X3.3780Y27.6887
G01 X3.3995Y27.7487
G01 X3.4268Y27.8064
G01 X3.4595Y27.8611
G01 X3.4975Y27.9124
G01 X3.5404Y27.9596
G01 X3.5876Y28.0025
G01 X3.6389Y28.0405
G01 X3.6936Y28.0732
G01 X3.7513Y28.1005
G01 X3.8113Y28.1220
G01 X3.8732Y28.1375
G01 X3.9363Y28.1469
G01 X4.0000Y28.1500
G01 X4.0637Y28.1469
G01 X4.1268Y28.1375
G01 X4.1887Y28.1220
G01 X4.2487Y28.1005
G01 X4.3064Y28.0732
G01 X4.3611Y28.0405
G01 X4.4124Y28.0025
G01 X4.4596Y27.9596
G01 X4.5025Y27.9124
G01 X4.5405Y27.8611
G01 X4.5732Y27.8064
G01 X4.6005Y27.7487
G01 X4.6220Y27.6887
G01 X4.6375Y27.6268
G01 X4.6469Y27.5637
G01 X4.6500Y27.5000
G00 X4.6500Y27.5000
G01 Z-1.4000
G01 X4.6469Y27.4363
G01 X4.6375Y27.3732
G01 X4.6220Y27.3113
G01 X4.6005Y27.2513
G01 X4.5732Y27.1936
G01 X4.5405Y27.1389
G01 X4.5025Y27.0876
G01 X4.4596Y27.0404
G01 X4.4124Y26.9975
G01 X4.3611Y26.9595
G01 X4.3064Y26.9268
G01 X4.2487Y26.8995
G01 X4.1887Y26.8780
G01 X4.1268Y26.8625
G01 X4.0637Y26.8531
G01 X4.0000Y26.8500
G01 X3.9363Y26.8531
G01 X3.8732Y26.8625
G01 X3.8113Y26.8780
G01 X3.7513Y26.8995
G01 X3.6936Y26.9268
G01 X3.6389Y26.9595
G01 X3.5876Y26.9975
G01 X3.5404Y27.0404
G01 X3.4975Y27.0876
G01 X3.4595Y27.1389
G01 X3.4268Y27.1936
G01 X3.3995Y27.2513
G01 X3.3780Y27.3113
G01 X3.3625Y27.3732
G01 X3.3531Y27.4363
G01 X3.3500Y27.5000
G01 X3.3531Y27.5637
G01 X3.3625Y27.6268
G01 X3.3780Y27.6887
G01 X3.3995Y27.7487
G01 X3.4268Y27.8064
G01 X3.4595Y27.8611
G01 X3.4975Y27.9124
G01 X3.5404Y27.9596
G01 X3.5876Y28.0025
G01 X3.6389Y28.0405
G01 X3.6936Y28.0732
G01 X3.7513Y28.1005
G01 X3.8113Y28.1220
G01 X3.8732Y28.1375
G01 X3.9363Y28.1469
G01 X4.0000Y28.1500
G01 X4.0637Y28.1469
G01 X4.1268Y28.1375
G01 X4.1887Y28.1220
G01 X4.2487Y28.1005
G01 X4.3064Y28.0732
G01 X4.3611Y28.0405
G01 X4.4124Y28.0025
G01 X4.4596Y27.9596
G01 X4.5025Y27.9124
G01 X4.5405Y27.8611
G01 X4.5732Y27.8064
G01 X4.6005Y27.7487
G01 X4.6220Y27.6887
G01 X4.6375Y27.6268
G01 X4.6469Y27.5637
G01 X4.6500Y27.5000
G00 X4.6500Y27.5000
G01 Z-1.6000
G01 X4.6469Y27.4363
G01 X4.6375Y27.3732
G01 X4.6220Y27.3113
G01 X4.6005Y27.2513
G01 X4.5732Y27.1936
G01 X4.5405Y27.1389
G01 X4.5025Y27.0876
G01 X4.4596Y27.0404
G01 X4.4124Y26.9975
G01 X4.3611Y26.9595
G01 X4.3064Y26.9268
G01 X4.2487Y26.8995
G01 X4.1887Y26.8780
G01 X4.1268Y26.8625
G01 X4.0637Y26.8531
G01 X4.0000Y26.8500
G01 X3.9363Y26.8531
G01 X3.8732Y26.8625
G01 X3.8113Y26.8780
G01 X3.7513Y26.8995
G01 X3.6936Y26.9268
G01 X3.6389Y26.9595
G01 X3.5876Y26.9975
G01 X3.5404Y27.0404
G01 X3.4975Y27.0876
G01 X3.4595Y27.1389
G01 X3.4268Y27.1936
G01 X3.3995Y27.2513
G01 X3.3780Y27.3113
G01 X3.3625Y27.3732
G01 X3.3531Y27.4363
G01 X3.3500Y27.5000
G01 X3.3531Y27.5637
G01 X3.3625Y27.6268
G01 X3.3780Y27.6887
G01 X3.3995Y27.7487
G01 X3.4268Y27.8064
G01 X3.4595Y27.8611
G01 X3.4975Y27.9124
G01 X3.5404Y27.9596
G01 X3.5876Y28.0025
G01 X3.6389Y28.0405
G01 X3.6936Y28.0732
G01 X3.7513Y28.1005
G01 X3.8113Y28.1220
G01 X3.8732Y28.1375
G01 X3.9363Y28.1469
G01 X4.0000Y28.1500
G01 X4.0637Y28.1469
G01 X4.1268Y28.1375
G01 X4.1887Y28.1220
G01 X4.2487Y28.1005
G01 X4.3064Y28.0732
G01 X4.3611Y28.0405
G01 X4.4124Y28.0025
G01 X4.4596Y27.9596
G01 X4.5025Y27.9124
G01 X4.5405Y27.8611
G01 X4.5732Y27.8064
G01 X4.6005Y27.7487
G01 X4.6220Y27.6887
G01 X4.6375Y27.6268
G01 X4.6469Y27.5637
G01 X4.6500Y27.5000
G00 X4.6500Y27.5000
G01 Z-1.8000
G01 X4.6469Y27.4363
G01 X4.6375Y27.3732
G01 X4.6220Y27.3113
G01 X4.6005Y27.2513
G01 X4.5732Y27.1936
G01 X4.5405Y27.1389
G01 X4.5025Y27.0876
G01 X4.4596Y27.0404
G01 X4.4124Y26.9975
G01 X4.3611Y26.9595
G01 X4.3064Y26.9268
G01 X4.2487Y26.8995
G01 X4.1887Y26.8780
G01 X4.1268Y26.8625
G01 X4.0637Y26.8531
G01 X4.0000Y26.8500
G01 X3.9363Y26.8531
G01 X3.8732Y26.8625
G01 X3.8113Y26.8780
G01 X3.7513Y26.8995
G01 X3.6936Y26.9268
G01 X3.6389Y26.9595
G01 X3.5876Y26.9975
G01 X3.5404Y27.0404
G01 X3.4975Y27.0876
G01 X3.4595Y27.1389
G01 X3.4268Y27.1936
G01 X3.3995Y27.2513
G01 X3.3780Y27.3113
G01 X3.3625Y27.3732
G01 X3.3531Y27.4363
G01 X3.3500Y27.5000
G01 X3.3531Y27.5637
G01 X3.3625Y27.6268
G01 X3.3780Y27.6887
G01 X3.3995Y27.7487
G01 X3.4268Y27.8064
G01 X3.4595Y27.8611
G01 X3.4975Y27.9124
G01 X3.5404Y27.9596
G01 X3.5876Y28.0025
G01 X3.6389Y28.0405
G01 X3.6936Y28.0732
G01 X3.7513Y28.1005
G01 X3.8113Y28.1220
G01 X3.8732Y28.1375
G01 X3.9363Y28.1469
G01 X4.0000Y28.1500
G01 X4.0637Y28.1469
G01 X4.1268Y28.1375
G01 X4.1887Y28.1220
G01 X4.2487Y28.1005
G01 X4.3064Y28.0732
G01 X4.3611Y28.0405
G01 X4.4124Y28.0025
G01 X4.4596Y27.9596
G01 X4.5025Y27.9124
G01 X4.5405Y27.8611
G01 X4.5732Y27.8064
G01 X4.6005Y27.7487
G01 X4.6220Y27.6887
G01 X4.6375Y27.6268
G01 X4.6469Y27.5637
G01 X4.6500Y27.5000
G00 Z3.0000
G00 X4.6500Y89.0000
G01 Z-0.2000
G01 X4.6469Y88.9363
G01 X4.6375Y88.8732
G01 X4.6220Y88.8113
G01 X4.6005Y88.7513
G01 X4.5732Y88.6936
G01 X4.5405Y88.6389
G01 X4.5025Y88.5876
G01 X4.4596Y88.5404
G01 X4.4124Y88.4975
G01 X4.3611Y88.4595
G01 X4.3064Y88.4268
G01 X4.2487Y88.3995
G01 X4.1887Y88.3780
G01 X4.1268Y88.3625
G01 X4.0637Y88.3531
G01 X4.0000Y88.3500
G01 X3.9363Y88.3531
G01 X3.8732Y88.3625
G01 X3.8113Y88.3780
G01 X3.7513Y88.3995
G01 X3.6936Y88.4268
G01 X3.6389Y88.4595
G01 X3.5876Y88.4975
G01 X3.5404Y88.5404
G01 X3.4975Y88.5876
G01 X3.4595Y88.6389
G01 X3.4268Y88.6936
G01 X3.3995Y88.7513
G01 X3.3780Y88.8113
G01 X3.3625Y88.8732
G01 X3.3531Y88.9363
G01 X3.3500Y89.0000
G01 X3.3531Y89.0637
G01 X3.3625Y89.1268
G01 X3.3780Y89.1887
G01 X3.3995Y89.2487
G01 X3.4268Y89.3064
G01 X3.4595Y89.3611
G01 X3.4975Y89.4124
G01 X3.5404Y89.4596
G01 X3.5876Y89.5025
G01 X3.6389Y89.5405
G01 X3.6936Y89.5732
G01 X3.7513Y89.6005
G01 X3.8113Y89.6220
G01 X3.8732Y89.6375
G01 X3.9363Y89.6469
G01 X4.0000Y89.6500
G01 X4.0637Y89.6469
G01 X4.1268Y89.6375
G01 X4.1887Y89.6220
G01 X4.2487Y89.6005
G01 X4.3064Y89.5732
G01 X4.3611Y89.5405
G01 X4.4124Y89.5025
G01 X4.4596Y89.4596
G01 X4.5025Y89.4124
G01 X4.5405Y89.3611
G01 X4.5732Y89.3064
G01 X4.6005Y89.2487
G01 X4.6220Y89.1887
G01 X4.6375Y89.1268
G01 X4.6469Y89.0637
G01 X4.6500Y89.0000
G00 X4.6500Y89.0000
G01 Z-0.4000
G01 X4.6469Y88.9363
G01 X4.6375Y88.8732
G01 X4.6220Y88.8113
G01 X4.6005Y88.7513
G01 X4.5732Y88.6936
G01 X4.5405Y88.6389
G01 X4.5025Y88.5876
G01 X4.4596Y88.5404
G01 X4.4124Y88.4975
G01 X4.3611Y88.4595
G01 X4.3064Y88.4268
G01 X4.2487Y88.3995
G01 X4.1887Y88.3780
G01 X4.1268Y88.3625
G01 X4.0637Y88.3531
G01 X4.0000Y88.3500
G01 X3.9363Y88.3531
G01 X3.8732Y88.3625
G01 X3.8113Y88.3780
G01 X3.7513Y88.3995
G01 X3.6936Y88.4268
G01 X3.6389Y88.4595
G01 X3.5876Y88.4975
G01 X3.5404Y88.5404
G01 X3.4975Y88.5876
G01 X3.4595Y88.6389
G01 X3.4268Y88.6936
G01 X3.3995Y88.7513
G01 X3.3780Y88.8113
G01 X3.3625Y88.8732
G01 X3.3531Y88.9363
G01 X3.3500Y89.0000
G01 X3.3531Y89.0637
G01 X3.3625Y89.1268
G01 X3.3780Y89.1887
G01 X3.3995Y89.2487
G01 X3.4268Y89.3064
G01 X3.4595Y89.3611
G01 X3.4975Y89.4124
G01 X3.5404Y89.4596
G01 X3.5876Y89.5025
G01 X3.6389Y89.5405
G01 X3.6936Y89.5732
G01 X3.7513Y89.6005
G01 X3.8113Y89.6220
G01 X3.8732Y89.6375
G01 X3.9363Y89.6469
G01 X4.0000Y89.6500
G01 X4.0637Y89.6469
G01 X4.1268Y89.6375
G01 X4.1887Y89.6220
G01 X4.2487Y89.6005
G01 X4.3064Y89.5732
G01 X4.3611Y89.5405
G01 X4.4124Y89.5025
G01 X4.4596Y89.4596
G01 X4.5025Y89.4124
G01 X4.5405Y89.3611
G01 X4.5732Y89.3064
G01 X4.6005Y89.2487
G01 X4.6220Y89.1887
G01 X4.6375Y89.1268
G01 X4.6469Y89.0637
G01 X4.6500Y89.0000
G00 X4.6500Y89.0000
G01 Z-0.6000
G01 X4.6469Y88.9363
G01 X4.6375Y88.8732
G01 X4.6220Y88.8113
G01 X4.6005Y88.7513
G01 X4.5732Y88.6936
G01 X4.5405Y88.6389
G01 X4.5025Y88.5876
G01 X4.4596Y88.5404
G01 X4.4124Y88.4975
G01 X4.3611Y88.4595
G01 X4.3064Y88.4268
G01 X4.2487Y88.3995
G01 X4.1887Y88.3780
G01 X4.1268Y88.3625
G01 X4.0637Y88.3531
G01 X4.0000Y88.3500
G01 X3.9363Y88.3531
G01 X3.8732Y88.3625
G01 X3.8113Y88.3780
G01 X3.7513Y88.3995
G01 X3.6936Y88.4268
G01 X3.6389Y88.4595
G01 X3.5876Y88.4975
G01 X3.5404Y88.5404
G01 X3.4975Y88.5876
G01 X3.4595Y88.6389
G01 X3.4268Y88.6936
G01 X3.3995Y88.7513
G01 X3.3780Y88.8113
G01 X3.3625Y88.8732
G01 X3.3531Y88.9363
G01 X3.3500Y89.0000
G01 X3.3531Y89.0637
G01 X3.3625Y89.1268
G01 X3.3780Y89.1887
G01 X3.3995Y89.2487
G01 X3.4268Y89.3064
G01 X3.4595Y89.3611
G01 X3.4975Y89.4124
G01 X3.5404Y89.4596
G01 X3.5876Y89.5025
G01 X3.6389Y89.5405
G01 X3.6936Y89.5732
G01 X3.7513Y89.6005
G01 X3.8113Y89.6220
G01 X3.8732Y89.6375
G01 X3.9363Y89.6469
G01 X4.0000Y89.6500
G01 X4.0637Y89.6469
G01 X4.1268Y89.6375
G01 X4.1887Y89.6220
G01 X4.2487Y89.6005
G01 X4.3064Y89.5732
G01 X4.3611Y89.5405
G01 X4.4124Y89.5025
G01 X4.4596Y89.4596
G01 X4.5025Y89.4124
G01 X4.5405Y89.3611
G01 X4.5732Y89.3064
G01 X4.6005Y89.2487
G01 X4.6220Y89.1887
G01 X4.6375Y89.1268
G01 X4.6469Y89.0637
G01 X4.6500Y89.0000
G00 X4.6500Y89.0000
G01 Z-0.8000
G01 X4.6469Y88.9363
G01 X4.6375Y88.8732
G01 X4.6220Y88.8113
G01 X4.6005Y88.7513
G01 X4.5732Y88.6936
G01 X4.5405Y88.6389
G01 X4.5025Y88.5876
G01 X4.4596Y88.5404
G01 X4.4124Y88.4975
G01 X4.3611Y88.4595
G01 X4.3064Y88.4268
G01 X4.2487Y88.3995
G01 X4.1887Y88.3780
G01 X4.1268Y88.3625
G01 X4.0637Y88.3531
G01 X4.0000Y88.3500
G01 X3.9363Y88.3531
G01 X3.8732Y88.3625
G01 X3.8113Y88.3780
G01 X3.7513Y88.3995
G01 X3.6936Y88.4268
G01 X3.6389Y88.4595
G01 X3.5876Y88.4975
G01 X3.5404Y88.5404
G01 X3.4975Y88.5876
G01 X3.4595Y88.6389
G01 X3.4268Y88.6936
G01 X3.3995Y88.7513
G01 X3.3780Y88.8113
G01 X3.3625Y88.8732
G01 X3.3531Y88.9363
G01 X3.3500Y89.0000
G01 X3.3531Y89.0637
G01 X3.3625Y89.1268
G01 X3.3780Y89.1887
G01 X3.3995Y89.2487
G01 X3.4268Y89.3064
G01 X3.4595Y89.3611
G01 X3.4975Y89.4124
G01 X3.5404Y89.4596
G01 X3.5876Y89.5025
G01 X3.6389Y89.5405
G01 X3.6936Y89.5732
G01 X3.7513Y89.6005
G01 X3.8113Y89.6220
G01 X3.8732Y89.6375
G01 X3.9363Y89.6469
G01 X4.0000Y89.6500
G01 X4.0637Y89.6469
G01 X4.1268Y89.6375
G01 X4.1887Y89.6220
G01 X4.2487Y89.6005
G01 X4.3064Y89.5732
G01 X4.3611Y89.5405
G01 X4.4124Y89.5025
G01 X4.4596Y89.4596
G01 X4.5025Y89.4124
G01 X4.5405Y89.3611
G01 X4.5732Y89.3064
G01 X4.6005Y89.2487
G01 X4.6220Y89.1887
G01 X4.6375Y89.1268
G01 X4.6469Y89.0637
G01 X4.6500Y89.0000
G00 X4.6500Y89.0000
G01 Z-1.0000
G01 X4.6469Y88.9363
G01 X4.6375Y88.8732
G01 X4.6220Y88.8113
G01 X4.6005Y88.7513
G01 X4.5732Y88.6936
G01 X4.5405Y88.6389
G01 X4.5025Y88.5876
G01 X4.4596Y88.5404
G01 X4.4124Y88.4975
G01 X4.3611Y88.4595
G01 X4.3064Y88.4268
G01 X4.2487Y88.3995
G01 X4.1887Y88.3780
G01 X4.1268Y88.3625
G01 X4.0637Y88.3531
G01 X4.0000Y88.3500
G01 X3.9363Y88.3531
G01 X3.8732Y88.3625
G01 X3.8113Y88.3780
G01 X3.7513Y88.3995
G01 X3.6936Y88.4268
G01 X3.6389Y88.4595
G01 X3.5876Y88.4975
G01 X3.5404Y88.5404
G01 X3.4975Y88.5876
G01 X3.4595Y88.6389
G01 X3.4268Y88.6936
G01 X3.3995Y88.7513
G01 X3.3780Y88.8113
G01 X3.3625Y88.8732
G01 X3.3531Y88.9363
G01 X3.3500Y89.0000
G01 X3.3531Y89.0637
G01 X3.3625Y89.1268
G01 X3.3780Y89.1887
G01 X3.3995Y89.2487
G01 X3.4268Y89.3064
G01 X3.4595Y89.3611
G01 X3.4975Y89.4124
G01 X3.5404Y89.4596
G01 X3.5876Y89.5025
G01 X3.6389Y89.5405
G01 X3.6936Y89.5732
G01 X3.7513Y89.6005
G01 X3.8113Y89.6220
G01 X3.8732Y89.6375
G01 X3.9363Y89.6469
G01 X4.0000Y89.6500
G01 X4.0637Y89.6469
G01 X4.1268Y89.6375
G01 X4.1887Y89.6220
G01 X4.2487Y89.6005
G01 X4.3064Y89.5732
G01 X4.3611Y89.5405
G01 X4.4124Y89.5025
G01 X4.4596Y89.4596
G01 X4.5025Y89.4124
G01 X4.5405Y89.3611
G01 X4.5732Y89.3064
G01 X4.6005Y89.2487
G01 X4.6220Y89.1887
G01 X4.6375Y89.1268
G01 X4.6469Y89.0637
G01 X4.6500Y89.0000
G00 X4.6500Y89.0000
G01 Z-1.2000
G01 X4.6469Y88.9363
G01 X4.6375Y88.8732
G01 X4.6220Y88.8113
G01 X4.6005Y88.7513
G01 X4.5732Y88.6936
G01 X4.5405Y88.6389
G01 X4.5025Y88.5876
G01 X4.4596Y88.5404
G01 X4.4124Y88.4975
G01 X4.3611Y88.4595
G01 X4.3064Y88.4268
G01 X4.2487Y88.3995
G01 X4.1887Y88.3780
G01 X4.1268Y88.3625
G01 X4.0637Y88.3531
G01 X4.0000Y88.3500
G01 X3.9363Y88.3531
G01 X3.8732Y88.3625
G01 X3.8113Y88.3780
G01 X3.7513Y88.3995
G01 X3.6936Y88.4268
G01 X3.6389Y88.4595
G01 X3.5876Y88.4975
G01 X3.5404Y88.5404
G01 X3.4975Y88.5876
G01 X3.4595Y88.6389
G01 X3.4268Y88.6936
G01 X3.3995Y88.7513
G01 X3.3780Y88.8113
G01 X3.3625Y88.8732
G01 X3.3531Y88.9363
G01 X3.3500Y89.0000
G01 X3.3531Y89.0637
G01 X3.3625Y89.1268
G01 X3.3780Y89.1887
G01 X3.3995Y89.2487
G01 X3.4268Y89.3064
G01 X3.4595Y89.3611
G01 X3.4975Y89.4124
G01 X3.5404Y89.4596
G01 X3.5876Y89.5025
G01 X3.6389Y89.5405
G01 X3.6936Y89.5732
G01 X3.7513Y89.6005
G01 X3.8113Y89.6220
G01 X3.8732Y89.6375
G01 X3.9363Y89.6469
G01 X4.0000Y89.6500
G01 X4.0637Y89.6469
G01 X4.1268Y89.6375
G01 X4.1887Y89.6220
G01 X4.2487Y89.6005
G01 X4.3064Y89.5732
G01 X4.3611Y89.5405
G01 X4.4124Y89.5025
G01 X4.4596Y89.4596
G01 X4.5025Y89.4124
G01 X4.5405Y89.3611
G01 X4.5732Y89.3064
G01 X4.6005Y89.2487
G01 X4.6220Y89.1887
G01 X4.6375Y89.1268
G01 X4.6469Y89.0637
G01 X4.6500Y89.0000
G00 X4.6500Y89.0000
G01 Z-1.4000
G01 X4.6469Y88.9363
G01 X4.6375Y88.8732
G01 X4.6220Y88.8113
G01 X4.6005Y88.7513
G01 X4.5732Y88.6936
G01 X4.5405Y88.6389
G01 X4.5025Y88.5876
G01 X4.4596Y88.5404
G01 X4.4124Y88.4975
G01 X4.3611Y88.4595
G01 X4.3064Y88.4268
G01 X4.2487Y88.3995
G01 X4.1887Y88.3780
G01 X4.1268Y88.3625
G01 X4.0637Y88.3531
G01 X4.0000Y88.3500
G01 X3.9363Y88.3531
G01 X3.8732Y88.3625
G01 X3.8113Y88.3780
G01 X3.7513Y88.3995
G01 X3.6936Y88.4268
G01 X3.6389Y88.4595
G01 X3.5876Y88.4975
G01 X3.5404Y88.5404
G01 X3.4975Y88.5876
G01 X3.4595Y88.6389
G01 X3.4268Y88.6936
G01 X3.3995Y88.7513
G01 X3.3780Y88.8113
G01 X3.3625Y88.8732
G01 X3.3531Y88.9363
G01 X3.3500Y89.0000
G01 X3.3531Y89.0637
G01 X3.3625Y89.1268
G01 X3.3780Y89.1887
G01 X3.3995Y89.2487
G01 X3.4268Y89.3064
G01 X3.4595Y89.3611
G01 X3.4975Y89.4124
G01 X3.5404Y89.4596
G01 X3.5876Y89.5025
G01 X3.6389Y89.5405
G01 X3.6936Y89.5732
G01 X3.7513Y89.6005
G01 X3.8113Y89.6220
G01 X3.8732Y89.6375
G01 X3.9363Y89.6469
G01 X4.0000Y89.6500
G01 X4.0637Y89.6469
G01 X4.1268Y89.6375
G01 X4.1887Y89.6220
G01 X4.2487Y89.6005
G01 X4.3064Y89.5732
G01 X4.3611Y89.5405
G01 X4.4124Y89.5025
G01 X4.4596Y89.4596
G01 X4.5025Y89.4124
G01 X4.5405Y89.3611
G01 X4.5732Y89.3064
G01 X4.6005Y89.2487
G01 X4.6220Y89.1887
G01 X4.6375Y89.1268
G01 X4.6469Y89.0637
G01 X4.6500Y89.0000
G00 X4.6500Y89.0000
G01 Z-1.6000
G01 X4.6469Y88.9363
G01 X4.6375Y88.8732
G01 X4.6220Y88.8113
G01 X4.6005Y88.7513
G01 X4.5732Y88.6936
G01 X4.5405Y88.6389
G01 X4.5025Y88.5876
G01 X4.4596Y88.5404
G01 X4.4124Y88.4975
G01 X4.3611Y88.4595
G01 X4.3064Y88.4268
G01 X4.2487Y88.3995
G01 X4.1887Y88.3780
G01 X4.1268Y88.3625
G01 X4.0637Y88.3531
G01 X4.0000Y88.3500
G01 X3.9363Y88.3531
G01 X3.8732Y88.3625
G01 X3.8113Y88.3780
G01 X3.7513Y88.3995
G01 X3.6936Y88.4268
G01 X3.6389Y88.4595
G01 X3.5876Y88.4975
G01 X3.5404Y88.5404
G01 X3.4975Y88.5876
G01 X3.4595Y88.6389
G01 X3.4268Y88.6936
G01 X3.3995Y88.7513
G01 X3.3780Y88.8113
G01 X3.3625Y88.8732
G01 X3.3531Y88.9363
G01 X3.3500Y89.0000
G01 X3.3531Y89.0637
G01 X3.3625Y89.1268
G01 X3.3780Y89.1887
G01 X3.3995Y89.2487
G01 X3.4268Y89.3064
G01 X3.4595Y89.3611
G01 X3.4975Y89.4124
G01 X3.5404Y89.4596
G01 X3.5876Y89.5025
G01 X3.6389Y89.5405
G01 X3.6936Y89.5732
G01 X3.7513Y89.6005
G01 X3.8113Y89.6220
G01 X3.8732Y89.6375
G01 X3.9363Y89.6469
G01 X4.0000Y89.6500
G01 X4.0637Y89.6469
G01 X4.1268Y89.6375
G01 X4.1887Y89.6220
G01 X4.2487Y89.6005
G01 X4.3064Y89.5732
G01 X4.3611Y89.5405
G01 X4.4124Y89.5025
G01 X4.4596Y89.4596
G01 X4.5025Y89.4124
G01 X4.5405Y89.3611
G01 X4.5732Y89.3064
G01 X4.6005Y89.2487
G01 X4.6220Y89.1887
G01 X4.6375Y89.1268
G01 X4.6469Y89.0637
G01 X4.6500Y89.0000
G00 X4.6500Y89.0000
G01 Z-1.8000
G01 X4.6469Y88.9363
G01 X4.6375Y88.8732
G01 X4.6220Y88.8113
G01 X4.6005Y88.7513
G01 X4.5732Y88.6936
G01 X4.5405Y88.6389
G01 X4.5025Y88.5876
G01 X4.4596Y88.5404
G01 X4.4124Y88.4975
G01 X4.3611Y88.4595
G01 X4.3064Y88.4268
G01 X4.2487Y88.3995
G01 X4.1887Y88.3780
G01 X4.1268Y88.3625
G01 X4.0637Y88.3531
G01 X4.0000Y88.3500
G01 X3.9363Y88.3531
G01 X3.8732Y88.3625
G01 X3.8113Y88.3780
G01 X3.7513Y88.3995
G01 X3.6936Y88.4268
G01 X3.6389Y88.4595
G01 X3.5876Y88.4975
G01 X3.5404Y88.5404
G01 X3.4975Y88.5876
G01 X3.4595Y88.6389
G01 X3.4268Y88.6936
G01 X3.3995Y88.7513
G01 X3.3780Y88.8113
G01 X3.3625Y88.8732
G01 X3.3531Y88.9363
G01 X3.3500Y89.0000
G01 X3.3531Y89.0637
G01 X3.3625Y89.1268
G01 X3.3780Y89.1887
G01 X3.3995Y89.2487
G01 X3.4268Y89.3064
G01 X3.4595Y89.3611
G01 X3.4975Y89.4124
G01 X3.5404Y89.4596
G01 X3.5876Y89.5025
G01 X3.6389Y89.5405
G01 X3.6936Y89.5732
G01 X3.7513Y89.6005
G01 X3.8113Y89.6220
G01 X3.8732Y89.6375
G01 X3.9363Y89.6469
G01 X4.0000Y89.6500
G01 X4.0637Y89.6469
G01 X4.1268Y89.6375
G01 X4.1887Y89.6220
G01 X4.2487Y89.6005
G01 X4.3064Y89.5732
G01 X4.3611Y89.5405
G01 X4.4124Y89.5025
G01 X4.4596Y89.4596
G01 X4.5025Y89.4124
G01 X4.5405Y89.3611
G01 X4.5732Y89.3064
G01 X4.6005Y89.2487
G01 X4.6220Y89.1887
G01 X4.6375Y89.1268
G01 X4.6469Y89.0637
G01 X4.6500Y89.0000
G00 Z3.0000
G00 X107.6500Y30.5000
G01 Z-0.2000
G01 X107.6469Y30.4363
G01 X107.6375Y30.3732
G01 X107.6220Y30.3113
G01 X107.6005Y30.2513
G01 X107.5732Y30.1936
G01 X107.5405Y30.1389
G01 X107.5025Y30.0876
G01 X107.4596Y30.0404
G01 X107.4124Y29.9975
G01 X107.3611Y29.9595
G01 X107.3064Y29.9268
G01 X107.2487Y29.8995
G01 X107.1887Y29.8780
G01 X107.1268Y29.8625
G01 X107.0637Y29.8531
G01 X107.0000Y29.8500
G01 X106.9363Y29.8531
G01 X106.8732Y29.8625
G01 X106.8113Y29.8780
G01 X106.7513Y29.8995
G01 X106.6936Y29.9268
G01 X106.6389Y29.9595
G01 X106.5876Y29.9975
G01 X106.5404Y30.0404
G01 X106.4975Y30.0876
G01 X106.4595Y30.1389
G01 X106.4268Y30.1936
G01 X106.3995Y30.2513
G01 X106.3780Y30.3113
G01 X106.3625Y30.3732
G01 X106.3531Y30.4363
G01 X106.3500Y30.5000
G01 X106.3531Y30.5637
G01 X106.3625Y30.6268
G01 X106.3780Y30.6887
G01 X106.3995Y30.7487
G01 X106.4268Y30.8064
G01 X106.4595Y30.8611
G01 X106.4975Y30.9124
G01 X106.5404Y30.9596
G01 X106.5876Y31.0025
G01 X106.6389Y31.0405
G01 X106.6936Y31.0732
G01 X106.7513Y31.1005
G01 X106.8113Y31.1220
G01 X106.8732Y31.1375
G01 X106.9363Y31.1469
G01 X107.0000Y31.1500
G01 X107.0637Y31.1469
G01 X107.1268Y31.1375
G01 X107.1887Y31.1220
G01 X107.2487Y31.1005
G01 X107.3064Y31.0732
G01 X107.3611Y31.0405
G01 X107.4124Y31.0025
G01 X107.4596Y30.9596
G01 X107.5025Y30.9124
G01 X107.5405Y30.8611
G01 X107.5732Y30.8064
G01 X107.6005Y30.7487
G01 X107.6220Y30.6887
G01 X107.6375Y30.6268
G01 X107.6469Y30.5637
G01 X107.6500Y30.5000
G00 X107.6500Y30.5000
G01 Z-0.4000
G01 X107.6469Y30.4363
G01 X107.6375Y30.3732
G01 X107.6220Y30.3113
G01 X107.6005Y30.2513
G01 X107.5732Y30.1936
G01 X107.5405Y30.1389
G01 X107.5025Y30.0876
G01 X107.4596Y30.0404
G01 X107.4124Y29.9975
G01 X107.3611Y29.9595
G01 X107.3064Y29.9268
G01 X107.2487Y29.8995
G01 X107.1887Y29.8780
G01 X107.1268Y29.8625
G01 X107.0637Y29.8531
G01 X107.0000Y29.8500
G01 X106.9363Y29.8531
G01 X106.8732Y29.8625
G01 X106.8113Y29.8780
G01 X106.7513Y29.8995
G01 X106.6936Y29.9268
G01 X106.6389Y29.9595
G01 X106.5876Y29.9975
G01 X106.5404Y30.0404
G01 X106.4975Y30.0876
G01 X106.4595Y30.1389
G01 X106.4268Y30.1936
G01 X106.3995Y30.2513
G01 X106.3780Y30.3113
G01 X106.3625Y30.3732
G01 X106.3531Y30.4363
G01 X106.3500Y30.5000
G01 X106.3531Y30.5637
G01 X106.3625Y30.6268
G01 X106.3780Y30.6887
G01 X106.3995Y30.7487
G01 X106.4268Y30.8064
G01 X106.4595Y30.8611
G01 X106.4975Y30.9124
G01 X106.5404Y30.9596
G01 X106.5876Y31.0025
G01 X106.6389Y31.0405
G01 X106.6936Y31.0732
G01 X106.7513Y31.1005
G01 X106.8113Y31.1220
G01 X106.8732Y31.1375
G01 X106.9363Y31.1469
G01 X107.0000Y31.1500
G01 X107.0637Y31.1469
G01 X107.1268Y31.1375
G01 X107.1887Y31.1220
G01 X107.2487Y31.1005
G01 X107.3064Y31.0732
G01 X107.3611Y31.0405
G01 X107.4124Y31.0025
G01 X107.4596Y30.9596
G01 X107.5025Y30.9124
G01 X107.5405Y30.8611
G01 X107.5732Y30.8064
G01 X107.6005Y30.7487
G01 X107.6220Y30.6887
G01 X107.6375Y30.6268
G01 X107.6469Y30.5637
G01 X107.6500Y30.5000
G00 X107.6500Y30.5000
G01 Z-0.6000
G01 X107.6469Y30.4363
G01 X107.6375Y30.3732
G01 X107.6220Y30.3113
G01 X107.6005Y30.2513
G01 X107.5732Y30.1936
G01 X107.5405Y30.1389
G01 X107.5025Y30.0876
G01 X107.4596Y30.0404
G01 X107.4124Y29.9975
G01 X107.3611Y29.9595
G01 X107.3064Y29.9268
G01 X107.2487Y29.8995
G01 X107.1887Y29.8780
G01 X107.1268Y29.8625
G01 X107.0637Y29.8531
G01 X107.0000Y29.8500
G01 X106.9363Y29.8531
G01 X106.8732Y29.8625
G01 X106.8113Y29.8780
G01 X106.7513Y29.8995
G01 X106.6936Y29.9268
G01 X106.6389Y29.9595
G01 X106.5876Y29.9975
G01 X106.5404Y30.0404
G01 X106.4975Y30.0876
G01 X106.4595Y30.1389
G01 X106.4268Y30.1936
G01 X106.3995Y30.2513
G01 X106.3780Y30.3113
G01 X106.3625Y30.3732
G01 X106.3531Y30.4363
G01 X106.3500Y30.5000
G01 X106.3531Y30.5637
G01 X106.3625Y30.6268
G01 X106.3780Y30.6887
G01 X106.3995Y30.7487
G01 X106.4268Y30.8064
G01 X106.4595Y30.8611
G01 X106.4975Y30.9124
G01 X106.5404Y30.9596
G01 X106.5876Y31.0025
G01 X106.6389Y31.0405
G01 X106.6936Y31.0732
G01 X106.7513Y31.1005
G01 X106.8113Y31.1220
G01 X106.8732Y31.1375
G01 X106.9363Y31.1469
G01 X107.0000Y31.1500
G01 X107.0637Y31.1469
G01 X107.1268Y31.1375
G01 X107.1887Y31.1220
G01 X107.2487Y31.1005
G01 X107.3064Y31.0732
G01 X107.3611Y31.0405
G01 X107.4124Y31.0025
G01 X107.4596Y30.9596
G01 X107.5025Y30.9124
G01 X107.5405Y30.8611
G01 X107.5732Y30.8064
G01 X107.6005Y30.7487
G01 X107.6220Y30.6887
G01 X107.6375Y30.6268
G01 X107.6469Y30.5637
G01 X107.6500Y30.5000
G00 X107.6500Y30.5000
G01 Z-0.8000
G01 X107.6469Y30.4363
G01 X107.6375Y30.3732
G01 X107.6220Y30.3113
G01 X107.6005Y30.2513
G01 X107.5732Y30.1936
G01 X107.5405Y30.1389
G01 X107.5025Y30.0876
G01 X107.4596Y30.0404
G01 X107.4124Y29.9975
G01 X107.3611Y29.9595
G01 X107.3064Y29.9268
G01 X107.2487Y29.8995
G01 X107.1887Y29.8780
G01 X107.1268Y29.8625
G01 X107.0637Y29.8531
G01 X107.0000Y29.8500
G01 X106.9363Y29.8531
G01 X106.8732Y29.8625
G01 X106.8113Y29.8780
G01 X106.7513Y29.8995
G01 X106.6936Y29.9268
G01 X106.6389Y29.9595
G01 X106.5876Y29.9975
G01 X106.5404Y30.0404
G01 X106.4975Y30.0876
G01 X106.4595Y30.1389
G01 X106.4268Y30.1936
G01 X106.3995Y30.2513
G01 X106.3780Y30.3113
G01 X106.3625Y30.3732
G01 X106.3531Y30.4363
G01 X106.3500Y30.5000
G01 X106.3531Y30.5637
G01 X106.3625Y30.6268
G01 X106.3780Y30.6887
G01 X106.3995Y30.7487
G01 X106.4268Y30.8064
G01 X106.4595Y30.8611
G01 X106.4975Y30.9124
G01 X106.5404Y30.9596
G01 X106.5876Y31.0025
G01 X106.6389Y31.0405
G01 X106.6936Y31.0732
G01 X106.7513Y31.1005
G01 X106.8113Y31.1220
G01 X106.8732Y31.1375
G01 X106.9363Y31.1469
G01 X107.0000Y31.1500
G01 X107.0637Y31.1469
G01 X107.1268Y31.1375
G01 X107.1887Y31.1220
G01 X107.2487Y31.1005
G01 X107.3064Y31.0732
G01 X107.3611Y31.0405
G01 X107.4124Y31.0025
G01 X107.4596Y30.9596
G01 X107.5025Y30.9124
G01 X107.5405Y30.8611
G01 X107.5732Y30.8064
G01 X107.6005Y30.7487
G01 X107.6220Y30.6887
G01 X107.6375Y30.6268
G01 X107.6469Y30.5637
G01 X107.6500Y30.5000
G00 X107.6500Y30.5000
G01 Z-1.0000
G01 X107.6469Y30.4363
G01 X107.6375Y30.3732
G01 X107.6220Y30.3113
G01 X107.6005Y30.2513
G01 X107.5732Y30.1936
G01 X107.5405Y30.1389
G01 X107.5025Y30.0876
G01 X107.4596Y30.0404
G01 X107.4124Y29.9975
G01 X107.3611Y29.9595
G01 X107.3064Y29.9268
G01 X107.2487Y29.8995
G01 X107.1887Y29.8780
G01 X107.1268Y29.8625
G01 X107.0637Y29.8531
G01 X107.0000Y29.8500
G01 X106.9363Y29.8531
G01 X106.8732Y29.8625
G01 X106.8113Y29.8780
G01 X106.7513Y29.8995
G01 X106.6936Y29.9268
G01 X106.6389Y29.9595
G01 X106.5876Y29.9975
G01 X106.5404Y30.0404
G01 X106.4975Y30.0876
G01 X106.4595Y30.1389
G01 X106.4268Y30.1936
G01 X106.3995Y30.2513
G01 X106.3780Y30.3113
G01 X106.3625Y30.3732
G01 X106.3531Y30.4363
G01 X106.3500Y30.5000
G01 X106.3531Y30.5637
G01 X106.3625Y30.6268
G01 X106.3780Y30.6887
G01 X106.3995Y30.7487
G01 X106.4268Y30.8064
G01 X106.4595Y30.8611
G01 X106.4975Y30.9124
G01 X106.5404Y30.9596
G01 X106.5876Y31.0025
G01 X106.6389Y31.0405
G01 X106.6936Y31.0732
G01 X106.7513Y31.1005
G01 X106.8113Y31.1220
G01 X106.8732Y31.1375
G01 X106.9363Y31.1469
G01 X107.0000Y31.1500
G01 X107.0637Y31.1469
G01 X107.1268Y31.1375
G01 X107.1887Y31.1220
G01 X107.2487Y31.1005
G01 X107.3064Y31.0732
G01 X107.3611Y31.0405
G01 X107.4124Y31.0025
G01 X107.4596Y30.9596
G01 X107.5025Y30.9124
G01 X107.5405Y30.8611
G01 X107.5732Y30.8064
G01 X107.6005Y30.7487
G01 X107.6220Y30.6887
G01 X107.6375Y30.6268
G01 X107.6469Y30.5637
G01 X107.6500Y30.5000
G00 X107.6500Y30.5000
G01 Z-1.2000
G01 X107.6469Y30.4363
G01 X107.6375Y30.3732
G01 X107.6220Y30.3113
G01 X107.6005Y30.2513
G01 X107.5732Y30.1936
G01 X107.5405Y30.1389
G01 X107.5025Y30.0876
G01 X107.4596Y30.0404
G01 X107.4124Y29.9975
G01 X107.3611Y29.9595
G01 X107.3064Y29.9268
G01 X107.2487Y29.8995
G01 X107.1887Y29.8780
G01 X107.1268Y29.8625
G01 X107.0637Y29.8531
G01 X107.0000Y29.8500
G01 X106.9363Y29.8531
G01 X106.8732Y29.8625
G01 X106.8113Y29.8780
G01 X106.7513Y29.8995
G01 X106.6936Y29.9268
G01 X106.6389Y29.9595
G01 X106.5876Y29.9975
G01 X106.5404Y30.0404
G01 X106.4975Y30.0876
G01 X106.4595Y30.1389
G01 X106.4268Y30.1936
G01 X106.3995Y30.2513
G01 X106.3780Y30.3113
G01 X106.3625Y30.3732
G01 X106.3531Y30.4363
G01 X106.3500Y30.5000
G01 X106.3531Y30.5637
G01 X106.3625Y30.6268
G01 X106.3780Y30.6887
G01 X106.3995Y30.7487
G01 X106.4268Y30.8064
G01 X106.4595Y30.8611
G01 X106.4975Y30.9124
G01 X106.5404Y30.9596
G01 X106.5876Y31.0025
G01 X106.6389Y31.0405
G01 X106.6936Y31.0732
G01 X106.7513Y31.1005
G01 X106.8113Y31.1220
G01 X106.8732Y31.1375
G01 X106.9363Y31.1469
G01 X107.0000Y31.1500
G01 X107.0637Y31.1469
G01 X107.1268Y31.1375
G01 X107.1887Y31.1220
G01 X107.2487Y31.1005
G01 X107.3064Y31.0732
G01 X107.3611Y31.0405
G01 X107.4124Y31.0025
G01 X107.4596Y30.9596
G01 X107.5025Y30.9124
G01 X107.5405Y30.8611
G01 X107.5732Y30.8064
G01 X107.6005Y30.7487
G01 X107.6220Y30.6887
G01 X107.6375Y30.6268
G01 X107.6469Y30.5637
G01 X107.6500Y30.5000
G00 X107.6500Y30.5000
G01 Z-1.4000
G01 X107.6469Y30.4363
G01 X107.6375Y30.3732
G01 X107.6220Y30.3113
G01 X107.6005Y30.2513
G01 X107.5732Y30.1936
G01 X107.5405Y30.1389
G01 X107.5025Y30.0876
G01 X107.4596Y30.0404
G01 X107.4124Y29.9975
G01 X107.3611Y29.9595
G01 X107.3064Y29.9268
G01 X107.2487Y29.8995
G01 X107.1887Y29.8780
G01 X107.1268Y29.8625
G01 X107.0637Y29.8531
G01 X107.0000Y29.8500
G01 X106.9363Y29.8531
G01 X106.8732Y29.8625
G01 X106.8113Y29.8780
G01 X106.7513Y29.8995
G01 X106.6936Y29.9268
G01 X106.6389Y29.9595
G01 X106.5876Y29.9975
G01 X106.5404Y30.0404
G01 X106.4975Y30.0876
G01 X106.4595Y30.1389
G01 X106.4268Y30.1936
G01 X106.3995Y30.2513
G01 X106.3780Y30.3113
G01 X106.3625Y30.3732
G01 X106.3531Y30.4363
G01 X106.3500Y30.5000
G01 X106.3531Y30.5637
G01 X106.3625Y30.6268
G01 X106.3780Y30.6887
G01 X106.3995Y30.7487
G01 X106.4268Y30.8064
G01 X106.4595Y30.8611
G01 X106.4975Y30.9124
G01 X106.5404Y30.9596
G01 X106.5876Y31.0025
G01 X106.6389Y31.0405
G01 X106.6936Y31.0732
G01 X106.7513Y31.1005
G01 X106.8113Y31.1220
G01 X106.8732Y31.1375
G01 X106.9363Y31.1469
G01 X107.0000Y31.1500
G01 X107.0637Y31.1469
G01 X107.1268Y31.1375
G01 X107.1887Y31.1220
G01 X107.2487Y31.1005
G01 X107.3064Y31.0732
G01 X107.3611Y31.0405
G01 X107.4124Y31.0025
G01 X107.4596Y30.9596
G01 X107.5025Y30.9124
G01 X107.5405Y30.8611
G01 X107.5732Y30.8064
G01 X107.6005Y30.7487
G01 X107.6220Y30.6887
G01 X107.6375Y30.6268
G01 X107.6469Y30.5637
G01 X107.6500Y30.5000
G00 X107.6500Y30.5000
G01 Z-1.6000
G01 X107.6469Y30.4363
G01 X107.6375Y30.3732
G01 X107.6220Y30.3113
G01 X107.6005Y30.2513
G01 X107.5732Y30.1936
G01 X107.5405Y30.1389
G01 X107.5025Y30.0876
G01 X107.4596Y30.0404
G01 X107.4124Y29.9975
G01 X107.3611Y29.9595
G01 X107.3064Y29.9268
G01 X107.2487Y29.8995
G01 X107.1887Y29.8780
G01 X107.1268Y29.8625
G01 X107.0637Y29.8531
G01 X107.0000Y29.8500
G01 X106.9363Y29.8531
G01 X106.8732Y29.8625
G01 X106.8113Y29.8780
G01 X106.7513Y29.8995
G01 X106.6936Y29.9268
G01 X106.6389Y29.9595
G01 X106.5876Y29.9975
G01 X106.5404Y30.0404
G01 X106.4975Y30.0876
G01 X106.4595Y30.1389
G01 X106.4268Y30.1936
G01 X106.3995Y30.2513
G01 X106.3780Y30.3113
G01 X106.3625Y30.3732
G01 X106.3531Y30.4363
G01 X106.3500Y30.5000
G01 X106.3531Y30.5637
G01 X106.3625Y30.6268
G01 X106.3780Y30.6887
G01 X106.3995Y30.7487
G01 X106.4268Y30.8064
G01 X106.4595Y30.8611
G01 X106.4975Y30.9124
G01 X106.5404Y30.9596
G01 X106.5876Y31.0025
G01 X106.6389Y31.0405
G01 X106.6936Y31.0732
G01 X106.7513Y31.1005
G01 X106.8113Y31.1220
G01 X106.8732Y31.1375
G01 X106.9363Y31.1469
G01 X107.0000Y31.1500
G01 X107.0637Y31.1469
G01 X107.1268Y31.1375
G01 X107.1887Y31.1220
G01 X107.2487Y31.1005
G01 X107.3064Y31.0732
G01 X107.3611Y31.0405
G01 X107.4124Y31.0025
G01 X107.4596Y30.9596
G01 X107.5025Y30.9124
G01 X107.5405Y30.8611
G01 X107.5732Y30.8064
G01 X107.6005Y30.7487
G01 X107.6220Y30.6887
G01 X107.6375Y30.6268
G01 X107.6469Y30.5637
G01 X107.6500Y30.5000
G00 X107.6500Y30.5000
G01 Z-1.8000
G01 X107.6469Y30.4363
G01 X107.6375Y30.3732
G01 X107.6220Y30.3113
G01 X107.6005Y30.2513
G01 X107.5732Y30.1936
G01 X107.5405Y30.1389
G01 X107.5025Y30.0876
G01 X107.4596Y30.0404
G01 X107.4124Y29.9975
G01 X107.3611Y29.9595
G01 X107.3064Y29.9268
G01 X107.2487Y29.8995
G01 X107.1887Y29.8780
G01 X107.1268Y29.8625
G01 X107.0637Y29.8531
G01 X107.0000Y29.8500
G01 X106.9363Y29.8531
G01 X106.8732Y29.8625
G01 X106.8113Y29.8780
G01 X106.7513Y29.8995
G01 X106.6936Y29.9268
G01 X106.6389Y29.9595
G01 X106.5876Y29.9975
G01 X106.5404Y30.0404
G01 X106.4975Y30.0876
G01 X106.4595Y30.1389
G01 X106.4268Y30.1936
G01 X106.3995Y30.2513
G01 X106.3780Y30.3113
G01 X106.3625Y30.3732
G01 X106.3531Y30.4363
G01 X106.3500Y30.5000
G01 X106.3531Y30.5637
G01 X106.3625Y30.6268
G01 X106.3780Y30.6887
G01 X106.3995Y30.7487
G01 X106.4268Y30.8064
G01 X106.4595Y30.8611
G01 X106.4975Y30.9124
G01 X106.5404Y30.9596
G01 X106.5876Y31.0025
G01 X106.6389Y31.0405
G01 X106.6936Y31.0732
G01 X106.7513Y31.1005
G01 X106.8113Y31.1220
G01 X106.8732Y31.1375
G01 X106.9363Y31.1469
G01 X107.0000Y31.1500
G01 X107.0637Y31.1469
G01 X107.1268Y31.1375
G01 X107.1887Y31.1220
G01 X107.2487Y31.1005
G01 X107.3064Y31.0732
G01 X107.3611Y31.0405
G01 X107.4124Y31.0025
G01 X107.4596Y30.9596
G01 X107.5025Y30.9124
G01 X107.5405Y30.8611
G01 X107.5732Y30.8064
G01 X107.6005Y30.7487
G01 X107.6220Y30.6887
G01 X107.6375Y30.6268
G01 X107.6469Y30.5637
G01 X107.6500Y30.5000
G00 Z3.0000
G00 X144.6500Y27.5000
G01 Z-0.2000
G01 X144.6469Y27.4363
G01 X144.6375Y27.3732
G01 X144.6220Y27.3113
G01 X144.6005Y27.2513
G01 X144.5732Y27.1936
G01 X144.5405Y27.1389
G01 X144.5025Y27.0876
G01 X144.4596Y27.0404
G01 X144.4124Y26.9975
G01 X144.3611Y26.9595
G01 X144.3064Y26.9268
G01 X144.2487Y26.8995
G01 X144.1887Y26.8780
G01 X144.1268Y26.8625
G01 X144.0637Y26.8531
G01 X144.0000Y26.8500
G01 X143.9363Y26.8531
G01 X143.8732Y26.8625
G01 X143.8113Y26.8780
G01 X143.7513Y26.8995
G01 X143.6936Y26.9268
G01 X143.6389Y26.9595
G01 X143.5876Y26.9975
G01 X143.5404Y27.0404
G01 X143.4975Y27.0876
G01 X143.4595Y27.1389
G01 X143.4268Y27.1936
G01 X143.3995Y27.2513
G01 X143.3780Y27.3113
G01 X143.3625Y27.3732
G01 X143.3531Y27.4363
G01 X143.3500Y27.5000
G01 X143.3531Y27.5637
G01 X143.3625Y27.6268
G01 X143.3780Y27.6887
G01 X143.3995Y27.7487
G01 X143.4268Y27.8064
G01 X143.4595Y27.8611
G01 X143.4975Y27.9124
G01 X143.5404Y27.9596
G01 X143.5876Y28.0025
G01 X143.6389Y28.0405
G01 X143.6936Y28.0732
G01 X143.7513Y28.1005
G01 X143.8113Y28.1220
G01 X143.8732Y28.1375
G01 X143.9363Y28.1469
G01 X144.0000Y28.1500
G01 X144.0637Y28.1469
G01 X144.1268Y28.1375
G01 X144.1887Y28.1220
G01 X144.2487Y28.1005
G01 X144.3064Y28.0732
G01 X144.3611Y28.0405
G01 X144.4124Y28.0025
G01 X144.4596Y27.9596
G01 X144.5025Y27.9124
G01 X144.5405Y27.8611
G01 X144.5732Y27.8064
G01 X144.6005Y27.7487
G01 X144.6220Y27.6887
G01 X144.6375Y27.6268
G01 X144.6469Y27.5637
G01 X144.6500Y27.5000
G00 X144.6500Y27.5000
G01 Z-0.4000
G01 X144.6469Y27.4363
G01 X144.6375Y27.3732
G01 X144.6220Y27.3113
G01 X144.6005Y27.2513
G01 X144.5732Y27.1936
G01 X144.5405Y27.1389
G01 X144.5025Y27.0876
G01 X144.4596Y27.0404
G01 X144.4124Y26.9975
G01 X144.3611Y26.9595
G01 X144.3064Y26.9268
G01 X144.2487Y26.8995
G01 X144.1887Y26.8780
G01 X144.1268Y26.8625
G01 X144.0637Y26.8531
G01 X144.0000Y26.8500
G01 X143.9363Y26.8531
G01 X143.8732Y26.8625
G01 X143.8113Y26.8780
G01 X143.7513Y26.8995
G01 X143.6936Y26.9268
G01 X143.6389Y26.9595
G01 X143.5876Y26.9975
G01 X143.5404Y27.0404
G01 X143.4975Y27.0876
G01 X143.4595Y27.1389
G01 X143.4268Y27.1936
G01 X143.3995Y27.2513
G01 X143.3780Y27.3113
G01 X143.3625Y27.3732
G01 X143.3531Y27.4363
G01 X143.3500Y27.5000
G01 X143.3531Y27.5637
G01 X143.3625Y27.6268
G01 X143.3780Y27.6887
G01 X143.3995Y27.7487
G01 X143.4268Y27.8064
G01 X143.4595Y27.8611
G01 X143.4975Y27.9124
G01 X143.5404Y27.9596
G01 X143.5876Y28.0025
G01 X143.6389Y28.0405
G01 X143.6936Y28.0732
G01 X143.7513Y28.1005
G01 X143.8113Y28.1220
G01 X143.8732Y28.1375
G01 X143.9363Y28.1469
G01 X144.0000Y28.1500
G01 X144.0637Y28.1469
G01 X144.1268Y28.1375
G01 X144.1887Y28.1220
G01 X144.2487Y28.1005
G01 X144.3064Y28.0732
G01 X144.3611Y28.0405
G01 X144.4124Y28.0025
G01 X144.4596Y27.9596
G01 X144.5025Y27.9124
G01 X144.5405Y27.8611
G01 X144.5732Y27.8064
G01 X144.6005Y27.7487
G01 X144.6220Y27.6887
G01 X144.6375Y27.6268
G01 X144.6469Y27.5637
G01 X144.6500Y27.5000
G00 X144.6500Y27.5000
G01 Z-0.6000
G01 X144.6469Y27.4363
G01 X144.6375Y27.3732
G01 X144.6220Y27.3113
G01 X144.6005Y27.2513
G01 X144.5732Y27.1936
G01 X144.5405Y27.1389
G01 X144.5025Y27.0876
G01 X144.4596Y27.0404
G01 X144.4124Y26.9975
G01 X144.3611Y26.9595
G01 X144.3064Y26.9268
G01 X144.2487Y26.8995
G01 X144.1887Y26.8780
G01 X144.1268Y26.8625
G01 X144.0637Y26.8531
G01 X144.0000Y26.8500
G01 X143.9363Y26.8531
G01 X143.8732Y26.8625
G01 X143.8113Y26.8780
G01 X143.7513Y26.8995
G01 X143.6936Y26.9268
G01 X143.6389Y26.9595
G01 X143.5876Y26.9975
G01 X143.5404Y27.0404
G01 X143.4975Y27.0876
G01 X143.4595Y27.1389
G01 X143.4268Y27.1936
G01 X143.3995Y27.2513
G01 X143.3780Y27.3113
G01 X143.3625Y27.3732
G01 X143.3531Y27.4363
G01 X143.3500Y27.5000
G01 X143.3531Y27.5637
G01 X143.3625Y27.6268
G01 X143.3780Y27.6887
G01 X143.3995Y27.7487
G01 X143.4268Y27.8064
G01 X143.4595Y27.8611
G01 X143.4975Y27.9124
G01 X143.5404Y27.9596
G01 X143.5876Y28.0025
G01 X143.6389Y28.0405
G01 X143.6936Y28.0732
G01 X143.7513Y28.1005
G01 X143.8113Y28.1220
G01 X143.8732Y28.1375
G01 X143.9363Y28.1469
G01 X144.0000Y28.1500
G01 X144.0637Y28.1469
G01 X144.1268Y28.1375
G01 X144.1887Y28.1220
G01 X144.2487Y28.1005
G01 X144.3064Y28.0732
G01 X144.3611Y28.0405
G01 X144.4124Y28.0025
G01 X144.4596Y27.9596
G01 X144.5025Y27.9124
G01 X144.5405Y27.8611
G01 X144.5732Y27.8064
G01 X144.6005Y27.7487
G01 X144.6220Y27.6887
G01 X144.6375Y27.6268
G01 X144.6469Y27.5637
G01 X144.6500Y27.5000
G00 X144.6500Y27.5000
G01 Z-0.8000
G01 X144.6469Y27.4363
G01 X144.6375Y27.3732
G01 X144.6220Y27.3113
G01 X144.6005Y27.2513
G01 X144.5732Y27.1936
G01 X144.5405Y27.1389
G01 X144.5025Y27.0876
G01 X144.4596Y27.0404
G01 X144.4124Y26.9975
G01 X144.3611Y26.9595
G01 X144.3064Y26.9268
G01 X144.2487Y26.8995
G01 X144.1887Y26.8780
G01 X144.1268Y26.8625
G01 X144.0637Y26.8531
G01 X144.0000Y26.8500
G01 X143.9363Y26.8531
G01 X143.8732Y26.8625
G01 X143.8113Y26.8780
G01 X143.7513Y26.8995
G01 X143.6936Y26.9268
G01 X143.6389Y26.9595
G01 X143.5876Y26.9975
G01 X143.5404Y27.0404
G01 X143.4975Y27.0876
G01 X143.4595Y27.1389
G01 X143.4268Y27.1936
G01 X143.3995Y27.2513
G01 X143.3780Y27.3113
G01 X143.3625Y27.3732
G01 X143.3531Y27.4363
G01 X143.3500Y27.5000
G01 X143.3531Y27.5637
G01 X143.3625Y27.6268
G01 X143.3780Y27.6887
G01 X143.3995Y27.7487
G01 X143.4268Y27.8064
G01 X143.4595Y27.8611
G01 X143.4975Y27.9124
G01 X143.5404Y27.9596
G01 X143.5876Y28.0025
G01 X143.6389Y28.0405
G01 X143.6936Y28.0732
G01 X143.7513Y28.1005
G01 X143.8113Y28.1220
G01 X143.8732Y28.1375
G01 X143.9363Y28.1469
G01 X144.0000Y28.1500
G01 X144.0637Y28.1469
G01 X144.1268Y28.1375
G01 X144.1887Y28.1220
G01 X144.2487Y28.1005
G01 X144.3064Y28.0732
G01 X144.3611Y28.0405
G01 X144.4124Y28.0025
G01 X144.4596Y27.9596
G01 X144.5025Y27.9124
G01 X144.5405Y27.8611
G01 X144.5732Y27.8064
G01 X144.6005Y27.7487
G01 X144.6220Y27.6887
G01 X144.6375Y27.6268
G01 X144.6469Y27.5637
G01 X144.6500Y27.5000
G00 X144.6500Y27.5000
G01 Z-1.0000
G01 X144.6469Y27.4363
G01 X144.6375Y27.3732
G01 X144.6220Y27.3113
G01 X144.6005Y27.2513
G01 X144.5732Y27.1936
G01 X144.5405Y27.1389
G01 X144.5025Y27.0876
G01 X144.4596Y27.0404
G01 X144.4124Y26.9975
G01 X144.3611Y26.9595
G01 X144.3064Y26.9268
G01 X144.2487Y26.8995
G01 X144.1887Y26.8780
G01 X144.1268Y26.8625
G01 X144.0637Y26.8531
G01 X144.0000Y26.8500
G01 X143.9363Y26.8531
G01 X143.8732Y26.8625
G01 X143.8113Y26.8780
G01 X143.7513Y26.8995
G01 X143.6936Y26.9268
G01 X143.6389Y26.9595
G01 X143.5876Y26.9975
G01 X143.5404Y27.0404
G01 X143.4975Y27.0876
G01 X143.4595Y27.1389
G01 X143.4268Y27.1936
G01 X143.3995Y27.2513
G01 X143.3780Y27.3113
G01 X143.3625Y27.3732
G01 X143.3531Y27.4363
G01 X143.3500Y27.5000
G01 X143.3531Y27.5637
G01 X143.3625Y27.6268
G01 X143.3780Y27.6887
G01 X143.3995Y27.7487
G01 X143.4268Y27.8064
G01 X143.4595Y27.8611
G01 X143.4975Y27.9124
G01 X143.5404Y27.9596
G01 X143.5876Y28.0025
G01 X143.6389Y28.0405
G01 X143.6936Y28.0732
G01 X143.7513Y28.1005
G01 X143.8113Y28.1220
G01 X143.8732Y28.1375
G01 X143.9363Y28.1469
G01 X144.0000Y28.1500
G01 X144.0637Y28.1469
G01 X144.1268Y28.1375
G01 X144.1887Y28.1220
G01 X144.2487Y28.1005
G01 X144.3064Y28.0732
G01 X144.3611Y28.0405
G01 X144.4124Y28.0025
G01 X144.4596Y27.9596
G01 X144.5025Y27.9124
G01 X144.5405Y27.8611
G01 X144.5732Y27.8064
G01 X144.6005Y27.7487
G01 X144.6220Y27.6887
G01 X144.6375Y27.6268
G01 X144.6469Y27.5637
G01 X144.6500Y27.5000
G00 X144.6500Y27.5000
G01 Z-1.2000
G01 X144.6469Y27.4363
G01 X144.6375Y27.3732
G01 X144.6220Y27.3113
G01 X144.6005Y27.2513
G01 X144.5732Y27.1936
G01 X144.5405Y27.1389
G01 X144.5025Y27.0876
G01 X144.4596Y27.0404
G01 X144.4124Y26.9975
G01 X144.3611Y26.9595
G01 X144.3064Y26.9268
G01 X144.2487Y26.8995
G01 X144.1887Y26.8780
G01 X144.1268Y26.8625
G01 X144.0637Y26.8531
G01 X144.0000Y26.8500
G01 X143.9363Y26.8531
G01 X143.8732Y26.8625
G01 X143.8113Y26.8780
G01 X143.7513Y26.8995
G01 X143.6936Y26.9268
G01 X143.6389Y26.9595
G01 X143.5876Y26.9975
G01 X143.5404Y27.0404
G01 X143.4975Y27.0876
G01 X143.4595Y27.1389
G01 X143.4268Y27.1936
G01 X143.3995Y27.2513
G01 X143.3780Y27.3113
G01 X143.3625Y27.3732
G01 X143.3531Y27.4363
G01 X143.3500Y27.5000
G01 X143.3531Y27.5637
G01 X143.3625Y27.6268
G01 X143.3780Y27.6887
G01 X143.3995Y27.7487
G01 X143.4268Y27.8064
G01 X143.4595Y27.8611
G01 X143.4975Y27.9124
G01 X143.5404Y27.9596
G01 X143.5876Y28.0025
G01 X143.6389Y28.0405
G01 X143.6936Y28.0732
G01 X143.7513Y28.1005
G01 X143.8113Y28.1220
G01 X143.8732Y28.1375
G01 X143.9363Y28.1469
G01 X144.0000Y28.1500
G01 X144.0637Y28.1469
G01 X144.1268Y28.1375
G01 X144.1887Y28.1220
G01 X144.2487Y28.1005
G01 X144.3064Y28.0732
G01 X144.3611Y28.0405
G01 X144.4124Y28.0025
G01 X144.4596Y27.9596
G01 X144.5025Y27.9124
G01 X144.5405Y27.8611
G01 X144.5732Y27.8064
G01 X144.6005Y27.7487
G01 X144.6220Y27.6887
G01 X144.6375Y27.6268
G01 X144.6469Y27.5637
G01 X144.6500Y27.5000
G00 X144.6500Y27.5000
G01 Z-1.4000
G01 X144.6469Y27.4363
G01 X144.6375Y27.3732
G01 X144.6220Y27.3113
G01 X144.6005Y27.2513
G01 X144.5732Y27.1936
G01 X144.5405Y27.1389
G01 X144.5025Y27.0876
G01 X144.4596Y27.0404
G01 X144.4124Y26.9975
G01 X144.3611Y26.9595
G01 X144.3064Y26.9268
G01 X144.2487Y26.8995
G01 X144.1887Y26.8780
G01 X144.1268Y26.8625
G01 X144.0637Y26.8531
G01 X144.0000Y26.8500
G01 X143.9363Y26.8531
G01 X143.8732Y26.8625
G01 X143.8113Y26.8780
G01 X143.7513Y26.8995
G01 X143.6936Y26.9268
G01 X143.6389Y26.9595
G01 X143.5876Y26.9975
G01 X143.5404Y27.0404
G01 X143.4975Y27.0876
G01 X143.4595Y27.1389
G01 X143.4268Y27.1936
G01 X143.3995Y27.2513
G01 X143.3780Y27.3113
G01 X143.3625Y27.3732
G01 X143.3531Y27.4363
G01 X143.3500Y27.5000
G01 X143.3531Y27.5637
G01 X143.3625Y27.6268
G01 X143.3780Y27.6887
G01 X143.3995Y27.7487
G01 X143.4268Y27.8064
G01 X143.4595Y27.8611
G01 X143.4975Y27.9124
G01 X143.5404Y27.9596
G01 X143.5876Y28.0025
G01 X143.6389Y28.0405
G01 X143.6936Y28.0732
G01 X143.7513Y28.1005
G01 X143.8113Y28.1220
G01 X143.8732Y28.1375
G01 X143.9363Y28.1469
G01 X144.0000Y28.1500
G01 X144.0637Y28.1469
G01 X144.1268Y28.1375
G01 X144.1887Y28.1220
G01 X144.2487Y28.1005
G01 X144.3064Y28.0732
G01 X144.3611Y28.0405
G01 X144.4124Y28.0025
G01 X144.4596Y27.9596
G01 X144.5025Y27.9124
G01 X144.5405Y27.8611
G01 X144.5732Y27.8064
G01 X144.6005Y27.7487
G01 X144.6220Y27.6887
G01 X144.6375Y27.6268
G01 X144.6469Y27.5637
G01 X144.6500Y27.5000
G00 X144.6500Y27.5000
G01 Z-1.6000
G01 X144.6469Y27.4363
G01 X144.6375Y27.3732
G01 X144.6220Y27.3113
G01 X144.6005Y27.2513
G01 X144.5732Y27.1936
G01 X144.5405Y27.1389
G01 X144.5025Y27.0876
G01 X144.4596Y27.0404
G01 X144.4124Y26.9975
G01 X144.3611Y26.9595
G01 X144.3064Y26.9268
G01 X144.2487Y26.8995
G01 X144.1887Y26.8780
G01 X144.1268Y26.8625
G01 X144.0637Y26.8531
G01 X144.0000Y26.8500
G01 X143.9363Y26.8531
G01 X143.8732Y26.8625
G01 X143.8113Y26.8780
G01 X143.7513Y26.8995
G01 X143.6936Y26.9268
G01 X143.6389Y26.9595
G01 X143.5876Y26.9975
G01 X143.5404Y27.0404
G01 X143.4975Y27.0876
G01 X143.4595Y27.1389
G01 X143.4268Y27.1936
G01 X143.3995Y27.2513
G01 X143.3780Y27.3113
G01 X143.3625Y27.3732
G01 X143.3531Y27.4363
G01 X143.3500Y27.5000
G01 X143.3531Y27.5637
G01 X143.3625Y27.6268
G01 X143.3780Y27.6887
G01 X143.3995Y27.7487
G01 X143.4268Y27.8064
G01 X143.4595Y27.8611
G01 X143.4975Y27.9124
G01 X143.5404Y27.9596
G01 X143.5876Y28.0025
G01 X143.6389Y28.0405
G01 X143.6936Y28.0732
G01 X143.7513Y28.1005
G01 X143.8113Y28.1220
G01 X143.8732Y28.1375
G01 X143.9363Y28.1469
G01 X144.0000Y28.1500
G01 X144.0637Y28.1469
G01 X144.1268Y28.1375
G01 X144.1887Y28.1220
G01 X144.2487Y28.1005
G01 X144.3064Y28.0732
G01 X144.3611Y28.0405
G01 X144.4124Y28.0025
G01 X144.4596Y27.9596
G01 X144.5025Y27.9124
G01 X144.5405Y27.8611
G01 X144.5732Y27.8064
G01 X144.6005Y27.7487
G01 X144.6220Y27.6887
G01 X144.6375Y27.6268
G01 X144.6469Y27.5637
G01 X144.6500Y27.5000
G00 X144.6500Y27.5000
G01 Z-1.8000
G01 X144.6469Y27.4363
G01 X144.6375Y27.3732
G01 X144.6220Y27.3113
G01 X144.6005Y27.2513
G01 X144.5732Y27.1936
G01 X144.5405Y27.1389
G01 X144.5025Y27.0876
G01 X144.4596Y27.0404
G01 X144.4124Y26.9975
G01 X144.3611Y26.9595
G01 X144.3064Y26.9268
G01 X144.2487Y26.8995
G01 X144.1887Y26.8780
G01 X144.1268Y26.8625
G01 X144.0637Y26.8531
G01 X144.0000Y26.8500
G01 X143.9363Y26.8531
G01 X143.8732Y26.8625
G01 X143.8113Y26.8780
G01 X143.7513Y26.8995
G01 X143.6936Y26.9268
G01 X143.6389Y26.9595
G01 X143.5876Y26.9975
G01 X143.5404Y27.0404
G01 X143.4975Y27.0876
G01 X143.4595Y27.1389
G01 X143.4268Y27.1936
G01 X143.3995Y27.2513
G01 X143.3780Y27.3113
G01 X143.3625Y27.3732
G01 X143.3531Y27.4363
G01 X143.3500Y27.5000
G01 X143.3531Y27.5637
G01 X143.3625Y27.6268
G01 X143.3780Y27.6887
G01 X143.3995Y27.7487
G01 X143.4268Y27.8064
G01 X143.4595Y27.8611
G01 X143.4975Y27.9124
G01 X143.5404Y27.9596
G01 X143.5876Y28.0025
G01 X143.6389Y28.0405
G01 X143.6936Y28.0732
G01 X143.7513Y28.1005
G01 X143.8113Y28.1220
G01 X143.8732Y28.1375
G01 X143.9363Y28.1469
G01 X144.0000Y28.1500
G01 X144.0637Y28.1469
G01 X144.1268Y28.1375
G01 X144.1887Y28.1220
G01 X144.2487Y28.1005
G01 X144.3064Y28.0732
G01 X144.3611Y28.0405
G01 X144.4124Y28.0025
G01 X144.4596Y27.9596
G01 X144.5025Y27.9124
G01 X144.5405Y27.8611
G01 X144.5732Y27.8064
G01 X144.6005Y27.7487
G01 X144.6220Y27.6887
G01 X144.6375Y27.6268
G01 X144.6469Y27.5637
G01 X144.6500Y27.5000
G00 Z3.0000
G00 X144.6500Y89.0000
G01 Z-0.2000
G01 X144.6469Y88.9363
G01 X144.6375Y88.8732
G01 X144.6220Y88.8113
G01 X144.6005Y88.7513
G01 X144.5732Y88.6936
G01 X144.5405Y88.6389
G01 X144.5025Y88.5876
G01 X144.4596Y88.5404
G01 X144.4124Y88.4975
G01 X144.3611Y88.4595
G01 X144.3064Y88.4268
G01 X144.2487Y88.3995
G01 X144.1887Y88.3780
G01 X144.1268Y88.3625
G01 X144.0637Y88.3531
G01 X144.0000Y88.3500
G01 X143.9363Y88.3531
G01 X143.8732Y88.3625
G01 X143.8113Y88.3780
G01 X143.7513Y88.3995
G01 X143.6936Y88.4268
G01 X143.6389Y88.4595
G01 X143.5876Y88.4975
G01 X143.5404Y88.5404
G01 X143.4975Y88.5876
G01 X143.4595Y88.6389
G01 X143.4268Y88.6936
G01 X143.3995Y88.7513
G01 X143.3780Y88.8113
G01 X143.3625Y88.8732
G01 X143.3531Y88.9363
G01 X143.3500Y89.0000
G01 X143.3531Y89.0637
G01 X143.3625Y89.1268
G01 X143.3780Y89.1887
G01 X143.3995Y89.2487
G01 X143.4268Y89.3064
G01 X143.4595Y89.3611
G01 X143.4975Y89.4124
G01 X143.5404Y89.4596
G01 X143.5876Y89.5025
G01 X143.6389Y89.5405
G01 X143.6936Y89.5732
G01 X143.7513Y89.6005
G01 X143.8113Y89.6220
G01 X143.8732Y89.6375
G01 X143.9363Y89.6469
G01 X144.0000Y89.6500
G01 X144.0637Y89.6469
G01 X144.1268Y89.6375
G01 X144.1887Y89.6220
G01 X144.2487Y89.6005
G01 X144.3064Y89.5732
G01 X144.3611Y89.5405
G01 X144.4124Y89.5025
G01 X144.4596Y89.4596
G01 X144.5025Y89.4124
G01 X144.5405Y89.3611
G01 X144.5732Y89.3064
G01 X144.6005Y89.2487
G01 X144.6220Y89.1887
G01 X144.6375Y89.1268
G01 X144.6469Y89.0637
G01 X144.6500Y89.0000
G00 X144.6500Y89.0000
G01 Z-0.4000
G01 X144.6469Y88.9363
G01 X144.6375Y88.8732
G01 X144.6220Y88.8113
G01 X144.6005Y88.7513
G01 X144.5732Y88.6936
G01 X144.5405Y88.6389
G01 X144.5025Y88.5876
G01 X144.4596Y88.5404
G01 X144.4124Y88.4975
G01 X144.3611Y88.4595
G01 X144.3064Y88.4268
G01 X144.2487Y88.3995
G01 X144.1887Y88.3780
G01 X144.1268Y88.3625
G01 X144.0637Y88.3531
G01 X144.0000Y88.3500
G01 X143.9363Y88.3531
G01 X143.8732Y88.3625
G01 X143.8113Y88.3780
G01 X143.7513Y88.3995
G01 X143.6936Y88.4268
G01 X143.6389Y88.4595
G01 X143.5876Y88.4975
G01 X143.5404Y88.5404
G01 X143.4975Y88.5876
G01 X143.4595Y88.6389
G01 X143.4268Y88.6936
G01 X143.3995Y88.7513
G01 X143.3780Y88.8113
G01 X143.3625Y88.8732
G01 X143.3531Y88.9363
G01 X143.3500Y89.0000
G01 X143.3531Y89.0637
G01 X143.3625Y89.1268
G01 X143.3780Y89.1887
G01 X143.3995Y89.2487
G01 X143.4268Y89.3064
G01 X143.4595Y89.3611
G01 X143.4975Y89.4124
G01 X143.5404Y89.4596
G01 X143.5876Y89.5025
G01 X143.6389Y89.5405
G01 X143.6936Y89.5732
G01 X143.7513Y89.6005
G01 X143.8113Y89.6220
G01 X143.8732Y89.6375
G01 X143.9363Y89.6469
G01 X144.0000Y89.6500
G01 X144.0637Y89.6469
G01 X144.1268Y89.6375
G01 X144.1887Y89.6220
G01 X144.2487Y89.6005
G01 X144.3064Y89.5732
G01 X144.3611Y89.5405
G01 X144.4124Y89.5025
G01 X144.4596Y89.4596
G01 X144.5025Y89.4124
G01 X144.5405Y89.3611
G01 X144.5732Y89.3064
G01 X144.6005Y89.2487
G01 X144.6220Y89.1887
G01 X144.6375Y89.1268
G01 X144.6469Y89.0637
G01 X144.6500Y89.0000
G00 X144.6500Y89.0000
G01 Z-0.6000
G01 X144.6469Y88.9363
G01 X144.6375Y88.8732
G01 X144.6220Y88.8113
G01 X144.6005Y88.7513
G01 X144.5732Y88.6936
G01 X144.5405Y88.6389
G01 X144.5025Y88.5876
G01 X144.4596Y88.5404
G01 X144.4124Y88.4975
G01 X144.3611Y88.4595
G01 X144.3064Y88.4268
G01 X144.2487Y88.3995
G01 X144.1887Y88.3780
G01 X144.1268Y88.3625
G01 X144.0637Y88.3531
G01 X144.0000Y88.3500
G01 X143.9363Y88.3531
G01 X143.8732Y88.3625
G01 X143.8113Y88.3780
G01 X143.7513Y88.3995
G01 X143.6936Y88.4268
G01 X143.6389Y88.4595
G01 X143.5876Y88.4975
G01 X143.5404Y88.5404
G01 X143.4975Y88.5876
G01 X143.4595Y88.6389
G01 X143.4268Y88.6936
G01 X143.3995Y88.7513
G01 X143.3780Y88.8113
G01 X143.3625Y88.8732
G01 X143.3531Y88.9363
G01 X143.3500Y89.0000
G01 X143.3531Y89.0637
G01 X143.3625Y89.1268
G01 X143.3780Y89.1887
G01 X143.3995Y89.2487
G01 X143.4268Y89.3064
G01 X143.4595Y89.3611
G01 X143.4975Y89.4124
G01 X143.5404Y89.4596
G01 X143.5876Y89.5025
G01 X143.6389Y89.5405
G01 X143.6936Y89.5732
G01 X143.7513Y89.6005
G01 X143.8113Y89.6220
G01 X143.8732Y89.6375
G01 X143.9363Y89.6469
G01 X144.0000Y89.6500
G01 X144.0637Y89.6469
G01 X144.1268Y89.6375
G01 X144.1887Y89.6220
G01 X144.2487Y89.6005
G01 X144.3064Y89.5732
G01 X144.3611Y89.5405
G01 X144.4124Y89.5025
G01 X144.4596Y89.4596
G01 X144.5025Y89.4124
G01 X144.5405Y89.3611
G01 X144.5732Y89.3064
G01 X144.6005Y89.2487
G01 X144.6220Y89.1887
G01 X144.6375Y89.1268
G01 X144.6469Y89.0637
G01 X144.6500Y89.0000
G00 X144.6500Y89.0000
G01 Z-0.8000
G01 X144.6469Y88.9363
G01 X144.6375Y88.8732
G01 X144.6220Y88.8113
G01 X144.6005Y88.7513
G01 X144.5732Y88.6936
G01 X144.5405Y88.6389
G01 X144.5025Y88.5876
G01 X144.4596Y88.5404
G01 X144.4124Y88.4975
G01 X144.3611Y88.4595
G01 X144.3064Y88.4268
G01 X144.2487Y88.3995
G01 X144.1887Y88.3780
G01 X144.1268Y88.3625
G01 X144.0637Y88.3531
G01 X144.0000Y88.3500
G01 X143.9363Y88.3531
G01 X143.8732Y88.3625
G01 X143.8113Y88.3780
G01 X143.7513Y88.3995
G01 X143.6936Y88.4268
G01 X143.6389Y88.4595
G01 X143.5876Y88.4975
G01 X143.5404Y88.5404
G01 X143.4975Y88.5876
G01 X143.4595Y88.6389
G01 X143.4268Y88.6936
G01 X143.3995Y88.7513
G01 X143.3780Y88.8113
G01 X143.3625Y88.8732
G01 X143.3531Y88.9363
G01 X143.3500Y89.0000
G01 X143.3531Y89.0637
G01 X143.3625Y89.1268
G01 X143.3780Y89.1887
G01 X143.3995Y89.2487
G01 X143.4268Y89.3064
G01 X143.4595Y89.3611
G01 X143.4975Y89.4124
G01 X143.5404Y89.4596
G01 X143.5876Y89.5025
G01 X143.6389Y89.5405
G01 X143.6936Y89.5732
G01 X143.7513Y89.6005
G01 X143.8113Y89.6220
G01 X143.8732Y89.6375
G01 X143.9363Y89.6469
G01 X144.0000Y89.6500
G01 X144.0637Y89.6469
G01 X144.1268Y89.6375
G01 X144.1887Y89.6220
G01 X144.2487Y89.6005
G01 X144.3064Y89.5732
G01 X144.3611Y89.5405
G01 X144.4124Y89.5025
G01 X144.4596Y89.4596
G01 X144.5025Y89.4124
G01 X144.5405Y89.3611
G01 X144.5732Y89.3064
G01 X144.6005Y89.2487
G01 X144.6220Y89.1887
G01 X144.6375Y89.1268
G01 X144.6469Y89.0637
G01 X144.6500Y89.0000
G00 X144.6500Y89.0000
G01 Z-1.0000
G01 X144.6469Y88.9363
G01 X144.6375Y88.8732
G01 X144.6220Y88.8113
G01 X144.6005Y88.7513
G01 X144.5732Y88.6936
G01 X144.5405Y88.6389
G01 X144.5025Y88.5876
G01 X144.4596Y88.5404
G01 X144.4124Y88.4975
G01 X144.3611Y88.4595
G01 X144.3064Y88.4268
G01 X144.2487Y88.3995
G01 X144.1887Y88.3780
G01 X144.1268Y88.3625
G01 X144.0637Y88.3531
G01 X144.0000Y88.3500
G01 X143.9363Y88.3531
G01 X143.8732Y88.3625
G01 X143.8113Y88.3780
G01 X143.7513Y88.3995
G01 X143.6936Y88.4268
G01 X143.6389Y88.4595
G01 X143.5876Y88.4975
G01 X143.5404Y88.5404
G01 X143.4975Y88.5876
G01 X143.4595Y88.6389
G01 X143.4268Y88.6936
G01 X143.3995Y88.7513
G01 X143.3780Y88.8113
G01 X143.3625Y88.8732
G01 X143.3531Y88.9363
G01 X143.3500Y89.0000
G01 X143.3531Y89.0637
G01 X143.3625Y89.1268
G01 X143.3780Y89.1887
G01 X143.3995Y89.2487
G01 X143.4268Y89.3064
G01 X143.4595Y89.3611
G01 X143.4975Y89.4124
G01 X143.5404Y89.4596
G01 X143.5876Y89.5025
G01 X143.6389Y89.5405
G01 X143.6936Y89.5732
G01 X143.7513Y89.6005
G01 X143.8113Y89.6220
G01 X143.8732Y89.6375
G01 X143.9363Y89.6469
G01 X144.0000Y89.6500
G01 X144.0637Y89.6469
G01 X144.1268Y89.6375
G01 X144.1887Y89.6220
G01 X144.2487Y89.6005
G01 X144.3064Y89.5732
G01 X144.3611Y89.5405
G01 X144.4124Y89.5025
G01 X144.4596Y89.4596
G01 X144.5025Y89.4124
G01 X144.5405Y89.3611
G01 X144.5732Y89.3064
G01 X144.6005Y89.2487
G01 X144.6220Y89.1887
G01 X144.6375Y89.1268
G01 X144.6469Y89.0637
G01 X144.6500Y89.0000
G00 X144.6500Y89.0000
G01 Z-1.2000
G01 X144.6469Y88.9363
G01 X144.6375Y88.8732
G01 X144.6220Y88.8113
G01 X144.6005Y88.7513
G01 X144.5732Y88.6936
G01 X144.5405Y88.6389
G01 X144.5025Y88.5876
G01 X144.4596Y88.5404
G01 X144.4124Y88.4975
G01 X144.3611Y88.4595
G01 X144.3064Y88.4268
G01 X144.2487Y88.3995
G01 X144.1887Y88.3780
G01 X144.1268Y88.3625
G01 X144.0637Y88.3531
G01 X144.0000Y88.3500
G01 X143.9363Y88.3531
G01 X143.8732Y88.3625
G01 X143.8113Y88.3780
G01 X143.7513Y88.3995
G01 X143.6936Y88.4268
G01 X143.6389Y88.4595
G01 X143.5876Y88.4975
G01 X143.5404Y88.5404
G01 X143.4975Y88.5876
G01 X143.4595Y88.6389
G01 X143.4268Y88.6936
G01 X143.3995Y88.7513
G01 X143.3780Y88.8113
G01 X143.3625Y88.8732
G01 X143.3531Y88.9363
G01 X143.3500Y89.0000
G01 X143.3531Y89.0637
G01 X143.3625Y89.1268
G01 X143.3780Y89.1887
G01 X143.3995Y89.2487
G01 X143.4268Y89.3064
G01 X143.4595Y89.3611
G01 X143.4975Y89.4124
G01 X143.5404Y89.4596
G01 X143.5876Y89.5025
G01 X143.6389Y89.5405
G01 X143.6936Y89.5732
G01 X143.7513Y89.6005
G01 X143.8113Y89.6220
G01 X143.8732Y89.6375
G01 X143.9363Y89.6469
G01 X144.0000Y89.6500
G01 X144.0637Y89.6469
G01 X144.1268Y89.6375
G01 X144.1887Y89.6220
G01 X144.2487Y89.6005
G01 X144.3064Y89.5732
G01 X144.3611Y89.5405
G01 X144.4124Y89.5025
G01 X144.4596Y89.4596
G01 X144.5025Y89.4124
G01 X144.5405Y89.3611
G01 X144.5732Y89.3064
G01 X144.6005Y89.2487
G01 X144.6220Y89.1887
G01 X144.6375Y89.1268
G01 X144.6469Y89.0637
G01 X144.6500Y89.0000
G00 X144.6500Y89.0000
G01 Z-1.4000
G01 X144.6469Y88.9363
G01 X144.6375Y88.8732
G01 X144.6220Y88.8113
G01 X144.6005Y88.7513
G01 X144.5732Y88.6936
G01 X144.5405Y88.6389
G01 X144.5025Y88.5876
G01 X144.4596Y88.5404
G01 X144.4124Y88.4975
G01 X144.3611Y88.4595
G01 X144.3064Y88.4268
G01 X144.2487Y88.3995
G01 X144.1887Y88.3780
G01 X144.1268Y88.3625
G01 X144.0637Y88.3531
G01 X144.0000Y88.3500
G01 X143.9363Y88.3531
G01 X143.8732Y88.3625
G01 X143.8113Y88.3780
G01 X143.7513Y88.3995
G01 X143.6936Y88.4268
G01 X143.6389Y88.4595
G01 X143.5876Y88.4975
G01 X143.5404Y88.5404
G01 X143.4975Y88.5876
G01 X143.4595Y88.6389
G01 X143.4268Y88.6936
G01 X143.3995Y88.7513
G01 X143.3780Y88.8113
G01 X143.3625Y88.8732
G01 X143.3531Y88.9363
G01 X143.3500Y89.0000
G01 X143.3531Y89.0637
G01 X143.3625Y89.1268
G01 X143.3780Y89.1887
G01 X143.3995Y89.2487
G01 X143.4268Y89.3064
G01 X143.4595Y89.3611
G01 X143.4975Y89.4124
G01 X143.5404Y89.4596
G01 X143.5876Y89.5025
G01 X143.6389Y89.5405
G01 X143.6936Y89.5732
G01 X143.7513Y89.6005
G01 X143.8113Y89.6220
G01 X143.8732Y89.6375
G01 X143.9363Y89.6469
G01 X144.0000Y89.6500
G01 X144.0637Y89.6469
G01 X144.1268Y89.6375
G01 X144.1887Y89.6220
G01 X144.2487Y89.6005
G01 X144.3064Y89.5732
G01 X144.3611Y89.5405
G01 X144.4124Y89.5025
G01 X144.4596Y89.4596
G01 X144.5025Y89.4124
G01 X144.5405Y89.3611
G01 X144.5732Y89.3064
G01 X144.6005Y89.2487
G01 X144.6220Y89.1887
G01 X144.6375Y89.1268
G01 X144.6469Y89.0637
G01 X144.6500Y89.0000
G00 X144.6500Y89.0000
G01 Z-1.6000
G01 X144.6469Y88.9363
G01 X144.6375Y88.8732
G01 X144.6220Y88.8113
G01 X144.6005Y88.7513
G01 X144.5732Y88.6936
G01 X144.5405Y88.6389
G01 X144.5025Y88.5876
G01 X144.4596Y88.5404
G01 X144.4124Y88.4975
G01 X144.3611Y88.4595
G01 X144.3064Y88.4268
G01 X144.2487Y88.3995
G01 X144.1887Y88.3780
G01 X144.1268Y88.3625
G01 X144.0637Y88.3531
G01 X144.0000Y88.3500
G01 X143.9363Y88.3531
G01 X143.8732Y88.3625
G01 X143.8113Y88.3780
G01 X143.7513Y88.3995
G01 X143.6936Y88.4268
G01 X143.6389Y88.4595
G01 X143.5876Y88.4975
G01 X143.5404Y88.5404
G01 X143.4975Y88.5876
G01 X143.4595Y88.6389
G01 X143.4268Y88.6936
G01 X143.3995Y88.7513
G01 X143.3780Y88.8113
G01 X143.3625Y88.8732
G01 X143.3531Y88.9363
G01 X143.3500Y89.0000
G01 X143.3531Y89.0637
G01 X143.3625Y89.1268
G01 X143.3780Y89.1887
G01 X143.3995Y89.2487
G01 X143.4268Y89.3064
G01 X143.4595Y89.3611
G01 X143.4975Y89.4124
G01 X143.5404Y89.4596
G01 X143.5876Y89.5025
G01 X143.6389Y89.5405
G01 X143.6936Y89.5732
G01 X143.7513Y89.6005
G01 X143.8113Y89.6220
G01 X143.8732Y89.6375
G01 X143.9363Y89.6469
G01 X144.0000Y89.6500
G01 X144.0637Y89.6469
G01 X144.1268Y89.6375
G01 X144.1887Y89.6220
G01 X144.2487Y89.6005
G01 X144.3064Y89.5732
G01 X144.3611Y89.5405
G01 X144.4124Y89.5025
G01 X144.4596Y89.4596
G01 X144.5025Y89.4124
G01 X144.5405Y89.3611
G01 X144.5732Y89.3064
G01 X144.6005Y89.2487
G01 X144.6220Y89.1887
G01 X144.6375Y89.1268
G01 X144.6469Y89.0637
G01 X144.6500Y89.0000
G00 X144.6500Y89.0000
G01 Z-1.8000
G01 X144.6469Y88.9363
G01 X144.6375Y88.8732
G01 X144.6220Y88.8113
G01 X144.6005Y88.7513
G01 X144.5732Y88.6936
G01 X144.5405Y88.6389
G01 X144.5025Y88.5876
G01 X144.4596Y88.5404
G01 X144.4124Y88.4975
G01 X144.3611Y88.4595
G01 X144.3064Y88.4268
G01 X144.2487Y88.3995
G01 X144.1887Y88.3780
G01 X144.1268Y88.3625
G01 X144.0637Y88.3531
G01 X144.0000Y88.3500
G01 X143.9363Y88.3531
G01 X143.8732Y88.3625
G01 X143.8113Y88.3780
G01 X143.7513Y88.3995
G01 X143.6936Y88.4268
G01 X143.6389Y88.4595
G01 X143.5876Y88.4975
G01 X143.5404Y88.5404
G01 X143.4975Y88.5876
G01 X143.4595Y88.6389
G01 X143.4268Y88.6936
G01 X143.3995Y88.7513
G01 X143.3780Y88.8113
G01 X143.3625Y88.8732
G01 X143.3531Y88.9363
G01 X143.3500Y89.0000
G01 X143.3531Y89.0637
G01 X143.3625Y89.1268
G01 X143.3780Y89.1887
G01 X143.3995Y89.2487
G01 X143.4268Y89.3064
G01 X143.4595Y89.3611
G01 X143.4975Y89.4124
G01 X143.5404Y89.4596
G01 X143.5876Y89.5025
G01 X143.6389Y89.5405
G01 X143.6936Y89.5732
G01 X143.7513Y89.6005
G01 X143.8113Y89.6220
G01 X143.8732Y89.6375
G01 X143.9363Y89.6469
G01 X144.0000Y89.6500
G01 X144.0637Y89.6469
G01 X144.1268Y89.6375
G01 X144.1887Y89.6220
G01 X144.2487Y89.6005
G01 X144.3064Y89.5732
G01 X144.3611Y89.5405
G01 X144.4124Y89.5025
G01 X144.4596Y89.4596
G01 X144.5025Y89.4124
G01 X144.5405Y89.3611
G01 X144.5732Y89.3064
G01 X144.6005Y89.2487
G01 X144.6220Y89.1887
G01 X144.6375Y89.1268
G01 X144.6469Y89.0637
G01 X144.6500Y89.0000
G00 Z3.0000
G00 Z3.0000
G00 X0Y0
M05
G0 Z20
G0 X0 Y100