G0 Z20
G21
G90
G94
F50.00
G00 Z3.0000
M03 S45
G4 P1
G00 X5.0800Y21.5900
G01 Z-2.0000
G01 Z0
G00 Z3.0000
G00 X7.6200Y21.5900
G01 Z-2.0000
G01 Z0
G00 Z3.0000
G00 X10.1600Y21.5900
G01 Z-2.0000
G01 Z0
G00 Z3.0000
G00 X12.7000Y21.5900
G01 Z-2.0000
G01 Z0
G00 Z3.0000
G00 X15.2400Y21.5900
G01 Z-2.0000
G01 Z0
G00 Z3.0000
G00 X17.7800Y21.5900
G01 Z-2.0000
G01 Z0
G00 Z3.0000
G00 X20.3200Y21.5900
G01 Z-2.0000
G01 Z0
G00 Z3.0000
G00 X22.8600Y21.5900
G01 Z-2.0000
G01 Z0
G00 Z3.0000
G00 X0.0000Y0.0000
M05
G0 Z20
G0 X0 Y25