G0 Z20
G21
G90
G94
F50.00
G00 Z3.0000
M03 S45
G4 P1
G00 X2.9900Y5.0800
G01 Z-0.2500
G01 X2.9878Y5.0359
G01 X2.9814Y4.9922
G01 X2.9706Y4.9494
G01 X2.9557Y4.9078
G01 X2.9369Y4.8679
G01 X2.9142Y4.8300
G01 X2.8879Y4.7945
G01 X2.8582Y4.7618
G01 X2.8255Y4.7321
G01 X2.7900Y4.7058
G01 X2.7521Y4.6831
G01 X2.7122Y4.6643
G01 X2.6706Y4.6494
G01 X2.6278Y4.6386
G01 X2.5841Y4.6322
G01 X2.5400Y4.6300
G01 X2.4959Y4.6322
G01 X2.4522Y4.6386
G01 X2.4094Y4.6494
G01 X2.3678Y4.6643
G01 X2.3279Y4.6831
G01 X2.2900Y4.7058
G01 X2.2545Y4.7321
G01 X2.2218Y4.7618
G01 X2.1921Y4.7945
G01 X2.1658Y4.8300
G01 X2.1431Y4.8679
G01 X2.1243Y4.9078
G01 X2.1094Y4.9494
G01 X2.0986Y4.9922
G01 X2.0922Y5.0359
G01 X2.0900Y5.0800
G01 X2.0922Y5.1241
G01 X2.0986Y5.1678
G01 X2.1094Y5.2106
G01 X2.1243Y5.2522
G01 X2.1431Y5.2921
G01 X2.1658Y5.3300
G01 X2.1921Y5.3655
G01 X2.2218Y5.3982
G01 X2.2545Y5.4279
G01 X2.2900Y5.4542
G01 X2.3279Y5.4769
G01 X2.3678Y5.4957
G01 X2.4094Y5.5106
G01 X2.4522Y5.5214
G01 X2.4959Y5.5278
G01 X2.5400Y5.5300
G01 X2.5841Y5.5278
G01 X2.6278Y5.5214
G01 X2.6706Y5.5106
G01 X2.7122Y5.4957
G01 X2.7521Y5.4769
G01 X2.7900Y5.4542
G01 X2.8255Y5.4279
G01 X2.8582Y5.3982
G01 X2.8879Y5.3655
G01 X2.9142Y5.3300
G01 X2.9369Y5.2921
G01 X2.9557Y5.2522
G01 X2.9706Y5.2106
G01 X2.9814Y5.1678
G01 X2.9878Y5.1241
G01 X2.9900Y5.0800
G00 X2.9900Y5.0800
G01 Z-0.5000
G01 X2.9878Y5.0359
G01 X2.9814Y4.9922
G01 X2.9706Y4.9494
G01 X2.9557Y4.9078
G01 X2.9369Y4.8679
G01 X2.9142Y4.8300
G01 X2.8879Y4.7945
G01 X2.8582Y4.7618
G01 X2.8255Y4.7321
G01 X2.7900Y4.7058
G01 X2.7521Y4.6831
G01 X2.7122Y4.6643
G01 X2.6706Y4.6494
G01 X2.6278Y4.6386
G01 X2.5841Y4.6322
G01 X2.5400Y4.6300
G01 X2.4959Y4.6322
G01 X2.4522Y4.6386
G01 X2.4094Y4.6494
G01 X2.3678Y4.6643
G01 X2.3279Y4.6831
G01 X2.2900Y4.7058
G01 X2.2545Y4.7321
G01 X2.2218Y4.7618
G01 X2.1921Y4.7945
G01 X2.1658Y4.8300
G01 X2.1431Y4.8679
G01 X2.1243Y4.9078
G01 X2.1094Y4.9494
G01 X2.0986Y4.9922
G01 X2.0922Y5.0359
G01 X2.0900Y5.0800
G01 X2.0922Y5.1241
G01 X2.0986Y5.1678
G01 X2.1094Y5.2106
G01 X2.1243Y5.2522
G01 X2.1431Y5.2921
G01 X2.1658Y5.3300
G01 X2.1921Y5.3655
G01 X2.2218Y5.3982
G01 X2.2545Y5.4279
G01 X2.2900Y5.4542
G01 X2.3279Y5.4769
G01 X2.3678Y5.4957
G01 X2.4094Y5.5106
G01 X2.4522Y5.5214
G01 X2.4959Y5.5278
G01 X2.5400Y5.5300
G01 X2.5841Y5.5278
G01 X2.6278Y5.5214
G01 X2.6706Y5.5106
G01 X2.7122Y5.4957
G01 X2.7521Y5.4769
G01 X2.7900Y5.4542
G01 X2.8255Y5.4279
G01 X2.8582Y5.3982
G01 X2.8879Y5.3655
G01 X2.9142Y5.3300
G01 X2.9369Y5.2921
G01 X2.9557Y5.2522
G01 X2.9706Y5.2106
G01 X2.9814Y5.1678
G01 X2.9878Y5.1241
G01 X2.9900Y5.0800
G00 X2.9900Y5.0800
G01 Z-0.7500
G01 X2.9878Y5.0359
G01 X2.9814Y4.9922
G01 X2.9706Y4.9494
G01 X2.9557Y4.9078
G01 X2.9369Y4.8679
G01 X2.9142Y4.8300
G01 X2.8879Y4.7945
G01 X2.8582Y4.7618
G01 X2.8255Y4.7321
G01 X2.7900Y4.7058
G01 X2.7521Y4.6831
G01 X2.7122Y4.6643
G01 X2.6706Y4.6494
G01 X2.6278Y4.6386
G01 X2.5841Y4.6322
G01 X2.5400Y4.6300
G01 X2.4959Y4.6322
G01 X2.4522Y4.6386
G01 X2.4094Y4.6494
G01 X2.3678Y4.6643
G01 X2.3279Y4.6831
G01 X2.2900Y4.7058
G01 X2.2545Y4.7321
G01 X2.2218Y4.7618
G01 X2.1921Y4.7945
G01 X2.1658Y4.8300
G01 X2.1431Y4.8679
G01 X2.1243Y4.9078
G01 X2.1094Y4.9494
G01 X2.0986Y4.9922
G01 X2.0922Y5.0359
G01 X2.0900Y5.0800
G01 X2.0922Y5.1241
G01 X2.0986Y5.1678
G01 X2.1094Y5.2106
G01 X2.1243Y5.2522
G01 X2.1431Y5.2921
G01 X2.1658Y5.3300
G01 X2.1921Y5.3655
G01 X2.2218Y5.3982
G01 X2.2545Y5.4279
G01 X2.2900Y5.4542
G01 X2.3279Y5.4769
G01 X2.3678Y5.4957
G01 X2.4094Y5.5106
G01 X2.4522Y5.5214
G01 X2.4959Y5.5278
G01 X2.5400Y5.5300
G01 X2.5841Y5.5278
G01 X2.6278Y5.5214
G01 X2.6706Y5.5106
G01 X2.7122Y5.4957
G01 X2.7521Y5.4769
G01 X2.7900Y5.4542
G01 X2.8255Y5.4279
G01 X2.8582Y5.3982
G01 X2.8879Y5.3655
G01 X2.9142Y5.3300
G01 X2.9369Y5.2921
G01 X2.9557Y5.2522
G01 X2.9706Y5.2106
G01 X2.9814Y5.1678
G01 X2.9878Y5.1241
G01 X2.9900Y5.0800
G00 X2.9900Y5.0800
G01 Z-1.0000
G01 X2.9878Y5.0359
G01 X2.9814Y4.9922
G01 X2.9706Y4.9494
G01 X2.9557Y4.9078
G01 X2.9369Y4.8679
G01 X2.9142Y4.8300
G01 X2.8879Y4.7945
G01 X2.8582Y4.7618
G01 X2.8255Y4.7321
G01 X2.7900Y4.7058
G01 X2.7521Y4.6831
G01 X2.7122Y4.6643
G01 X2.6706Y4.6494
G01 X2.6278Y4.6386
G01 X2.5841Y4.6322
G01 X2.5400Y4.6300
G01 X2.4959Y4.6322
G01 X2.4522Y4.6386
G01 X2.4094Y4.6494
G01 X2.3678Y4.6643
G01 X2.3279Y4.6831
G01 X2.2900Y4.7058
G01 X2.2545Y4.7321
G01 X2.2218Y4.7618
G01 X2.1921Y4.7945
G01 X2.1658Y4.8300
G01 X2.1431Y4.8679
G01 X2.1243Y4.9078
G01 X2.1094Y4.9494
G01 X2.0986Y4.9922
G01 X2.0922Y5.0359
G01 X2.0900Y5.0800
G01 X2.0922Y5.1241
G01 X2.0986Y5.1678
G01 X2.1094Y5.2106
G01 X2.1243Y5.2522
G01 X2.1431Y5.2921
G01 X2.1658Y5.3300
G01 X2.1921Y5.3655
G01 X2.2218Y5.3982
G01 X2.2545Y5.4279
G01 X2.2900Y5.4542
G01 X2.3279Y5.4769
G01 X2.3678Y5.4957
G01 X2.4094Y5.5106
G01 X2.4522Y5.5214
G01 X2.4959Y5.5278
G01 X2.5400Y5.5300
G01 X2.5841Y5.5278
G01 X2.6278Y5.5214
G01 X2.6706Y5.5106
G01 X2.7122Y5.4957
G01 X2.7521Y5.4769
G01 X2.7900Y5.4542
G01 X2.8255Y5.4279
G01 X2.8582Y5.3982
G01 X2.8879Y5.3655
G01 X2.9142Y5.3300
G01 X2.9369Y5.2921
G01 X2.9557Y5.2522
G01 X2.9706Y5.2106
G01 X2.9814Y5.1678
G01 X2.9878Y5.1241
G01 X2.9900Y5.0800
G00 X2.9900Y5.0800
G01 Z-1.2500
G01 X2.9878Y5.0359
G01 X2.9814Y4.9922
G01 X2.9706Y4.9494
G01 X2.9557Y4.9078
G01 X2.9369Y4.8679
G01 X2.9142Y4.8300
G01 X2.8879Y4.7945
G01 X2.8582Y4.7618
G01 X2.8255Y4.7321
G01 X2.7900Y4.7058
G01 X2.7521Y4.6831
G01 X2.7122Y4.6643
G01 X2.6706Y4.6494
G01 X2.6278Y4.6386
G01 X2.5841Y4.6322
G01 X2.5400Y4.6300
G01 X2.4959Y4.6322
G01 X2.4522Y4.6386
G01 X2.4094Y4.6494
G01 X2.3678Y4.6643
G01 X2.3279Y4.6831
G01 X2.2900Y4.7058
G01 X2.2545Y4.7321
G01 X2.2218Y4.7618
G01 X2.1921Y4.7945
G01 X2.1658Y4.8300
G01 X2.1431Y4.8679
G01 X2.1243Y4.9078
G01 X2.1094Y4.9494
G01 X2.0986Y4.9922
G01 X2.0922Y5.0359
G01 X2.0900Y5.0800
G01 X2.0922Y5.1241
G01 X2.0986Y5.1678
G01 X2.1094Y5.2106
G01 X2.1243Y5.2522
G01 X2.1431Y5.2921
G01 X2.1658Y5.3300
G01 X2.1921Y5.3655
G01 X2.2218Y5.3982
G01 X2.2545Y5.4279
G01 X2.2900Y5.4542
G01 X2.3279Y5.4769
G01 X2.3678Y5.4957
G01 X2.4094Y5.5106
G01 X2.4522Y5.5214
G01 X2.4959Y5.5278
G01 X2.5400Y5.5300
G01 X2.5841Y5.5278
G01 X2.6278Y5.5214
G01 X2.6706Y5.5106
G01 X2.7122Y5.4957
G01 X2.7521Y5.4769
G01 X2.7900Y5.4542
G01 X2.8255Y5.4279
G01 X2.8582Y5.3982
G01 X2.8879Y5.3655
G01 X2.9142Y5.3300
G01 X2.9369Y5.2921
G01 X2.9557Y5.2522
G01 X2.9706Y5.2106
G01 X2.9814Y5.1678
G01 X2.9878Y5.1241
G01 X2.9900Y5.0800
G00 X2.9900Y5.0800
G01 Z-1.5000
G01 X2.9878Y5.0359
G01 X2.9814Y4.9922
G01 X2.9706Y4.9494
G01 X2.9557Y4.9078
G01 X2.9369Y4.8679
G01 X2.9142Y4.8300
G01 X2.8879Y4.7945
G01 X2.8582Y4.7618
G01 X2.8255Y4.7321
G01 X2.7900Y4.7058
G01 X2.7521Y4.6831
G01 X2.7122Y4.6643
G01 X2.6706Y4.6494
G01 X2.6278Y4.6386
G01 X2.5841Y4.6322
G01 X2.5400Y4.6300
G01 X2.4959Y4.6322
G01 X2.4522Y4.6386
G01 X2.4094Y4.6494
G01 X2.3678Y4.6643
G01 X2.3279Y4.6831
G01 X2.2900Y4.7058
G01 X2.2545Y4.7321
G01 X2.2218Y4.7618
G01 X2.1921Y4.7945
G01 X2.1658Y4.8300
G01 X2.1431Y4.8679
G01 X2.1243Y4.9078
G01 X2.1094Y4.9494
G01 X2.0986Y4.9922
G01 X2.0922Y5.0359
G01 X2.0900Y5.0800
G01 X2.0922Y5.1241
G01 X2.0986Y5.1678
G01 X2.1094Y5.2106
G01 X2.1243Y5.2522
G01 X2.1431Y5.2921
G01 X2.1658Y5.3300
G01 X2.1921Y5.3655
G01 X2.2218Y5.3982
G01 X2.2545Y5.4279
G01 X2.2900Y5.4542
G01 X2.3279Y5.4769
G01 X2.3678Y5.4957
G01 X2.4094Y5.5106
G01 X2.4522Y5.5214
G01 X2.4959Y5.5278
G01 X2.5400Y5.5300
G01 X2.5841Y5.5278
G01 X2.6278Y5.5214
G01 X2.6706Y5.5106
G01 X2.7122Y5.4957
G01 X2.7521Y5.4769
G01 X2.7900Y5.4542
G01 X2.8255Y5.4279
G01 X2.8582Y5.3982
G01 X2.8879Y5.3655
G01 X2.9142Y5.3300
G01 X2.9369Y5.2921
G01 X2.9557Y5.2522
G01 X2.9706Y5.2106
G01 X2.9814Y5.1678
G01 X2.9878Y5.1241
G01 X2.9900Y5.0800
G00 X2.9900Y5.0800
G01 Z-1.7500
G01 X2.9878Y5.0359
G01 X2.9814Y4.9922
G01 X2.9706Y4.9494
G01 X2.9557Y4.9078
G01 X2.9369Y4.8679
G01 X2.9142Y4.8300
G01 X2.8879Y4.7945
G01 X2.8582Y4.7618
G01 X2.8255Y4.7321
G01 X2.7900Y4.7058
G01 X2.7521Y4.6831
G01 X2.7122Y4.6643
G01 X2.6706Y4.6494
G01 X2.6278Y4.6386
G01 X2.5841Y4.6322
G01 X2.5400Y4.6300
G01 X2.4959Y4.6322
G01 X2.4522Y4.6386
G01 X2.4094Y4.6494
G01 X2.3678Y4.6643
G01 X2.3279Y4.6831
G01 X2.2900Y4.7058
G01 X2.2545Y4.7321
G01 X2.2218Y4.7618
G01 X2.1921Y4.7945
G01 X2.1658Y4.8300
G01 X2.1431Y4.8679
G01 X2.1243Y4.9078
G01 X2.1094Y4.9494
G01 X2.0986Y4.9922
G01 X2.0922Y5.0359
G01 X2.0900Y5.0800
G01 X2.0922Y5.1241
G01 X2.0986Y5.1678
G01 X2.1094Y5.2106
G01 X2.1243Y5.2522
G01 X2.1431Y5.2921
G01 X2.1658Y5.3300
G01 X2.1921Y5.3655
G01 X2.2218Y5.3982
G01 X2.2545Y5.4279
G01 X2.2900Y5.4542
G01 X2.3279Y5.4769
G01 X2.3678Y5.4957
G01 X2.4094Y5.5106
G01 X2.4522Y5.5214
G01 X2.4959Y5.5278
G01 X2.5400Y5.5300
G01 X2.5841Y5.5278
G01 X2.6278Y5.5214
G01 X2.6706Y5.5106
G01 X2.7122Y5.4957
G01 X2.7521Y5.4769
G01 X2.7900Y5.4542
G01 X2.8255Y5.4279
G01 X2.8582Y5.3982
G01 X2.8879Y5.3655
G01 X2.9142Y5.3300
G01 X2.9369Y5.2921
G01 X2.9557Y5.2522
G01 X2.9706Y5.2106
G01 X2.9814Y5.1678
G01 X2.9878Y5.1241
G01 X2.9900Y5.0800
G00 X2.9900Y5.0800
G01 Z-2.0000
G01 X2.9878Y5.0359
G01 X2.9814Y4.9922
G01 X2.9706Y4.9494
G01 X2.9557Y4.9078
G01 X2.9369Y4.8679
G01 X2.9142Y4.8300
G01 X2.8879Y4.7945
G01 X2.8582Y4.7618
G01 X2.8255Y4.7321
G01 X2.7900Y4.7058
G01 X2.7521Y4.6831
G01 X2.7122Y4.6643
G01 X2.6706Y4.6494
G01 X2.6278Y4.6386
G01 X2.5841Y4.6322
G01 X2.5400Y4.6300
G01 X2.4959Y4.6322
G01 X2.4522Y4.6386
G01 X2.4094Y4.6494
G01 X2.3678Y4.6643
G01 X2.3279Y4.6831
G01 X2.2900Y4.7058
G01 X2.2545Y4.7321
G01 X2.2218Y4.7618
G01 X2.1921Y4.7945
G01 X2.1658Y4.8300
G01 X2.1431Y4.8679
G01 X2.1243Y4.9078
G01 X2.1094Y4.9494
G01 X2.0986Y4.9922
G01 X2.0922Y5.0359
G01 X2.0900Y5.0800
G01 X2.0922Y5.1241
G01 X2.0986Y5.1678
G01 X2.1094Y5.2106
G01 X2.1243Y5.2522
G01 X2.1431Y5.2921
G01 X2.1658Y5.3300
G01 X2.1921Y5.3655
G01 X2.2218Y5.3982
G01 X2.2545Y5.4279
G01 X2.2900Y5.4542
G01 X2.3279Y5.4769
G01 X2.3678Y5.4957
G01 X2.4094Y5.5106
G01 X2.4522Y5.5214
G01 X2.4959Y5.5278
G01 X2.5400Y5.5300
G01 X2.5841Y5.5278
G01 X2.6278Y5.5214
G01 X2.6706Y5.5106
G01 X2.7122Y5.4957
G01 X2.7521Y5.4769
G01 X2.7900Y5.4542
G01 X2.8255Y5.4279
G01 X2.8582Y5.3982
G01 X2.8879Y5.3655
G01 X2.9142Y5.3300
G01 X2.9369Y5.2921
G01 X2.9557Y5.2522
G01 X2.9706Y5.2106
G01 X2.9814Y5.1678
G01 X2.9878Y5.1241
G01 X2.9900Y5.0800
G00 Z3.0000
G00 X2.9900Y25.4000
G01 Z-0.2500
G01 X2.9878Y25.3559
G01 X2.9814Y25.3122
G01 X2.9706Y25.2694
G01 X2.9557Y25.2278
G01 X2.9369Y25.1879
G01 X2.9142Y25.1500
G01 X2.8879Y25.1145
G01 X2.8582Y25.0818
G01 X2.8255Y25.0521
G01 X2.7900Y25.0258
G01 X2.7521Y25.0031
G01 X2.7122Y24.9843
G01 X2.6706Y24.9694
G01 X2.6278Y24.9586
G01 X2.5841Y24.9522
G01 X2.5400Y24.9500
G01 X2.4959Y24.9522
G01 X2.4522Y24.9586
G01 X2.4094Y24.9694
G01 X2.3678Y24.9843
G01 X2.3279Y25.0031
G01 X2.2900Y25.0258
G01 X2.2545Y25.0521
G01 X2.2218Y25.0818
G01 X2.1921Y25.1145
G01 X2.1658Y25.1500
G01 X2.1431Y25.1879
G01 X2.1243Y25.2278
G01 X2.1094Y25.2694
G01 X2.0986Y25.3122
G01 X2.0922Y25.3559
G01 X2.0900Y25.4000
G01 X2.0922Y25.4441
G01 X2.0986Y25.4878
G01 X2.1094Y25.5306
G01 X2.1243Y25.5722
G01 X2.1431Y25.6121
G01 X2.1658Y25.6500
G01 X2.1921Y25.6855
G01 X2.2218Y25.7182
G01 X2.2545Y25.7479
G01 X2.2900Y25.7742
G01 X2.3279Y25.7969
G01 X2.3678Y25.8157
G01 X2.4094Y25.8306
G01 X2.4522Y25.8414
G01 X2.4959Y25.8478
G01 X2.5400Y25.8500
G01 X2.5841Y25.8478
G01 X2.6278Y25.8414
G01 X2.6706Y25.8306
G01 X2.7122Y25.8157
G01 X2.7521Y25.7969
G01 X2.7900Y25.7742
G01 X2.8255Y25.7479
G01 X2.8582Y25.7182
G01 X2.8879Y25.6855
G01 X2.9142Y25.6500
G01 X2.9369Y25.6121
G01 X2.9557Y25.5722
G01 X2.9706Y25.5306
G01 X2.9814Y25.4878
G01 X2.9878Y25.4441
G01 X2.9900Y25.4000
G00 X2.9900Y25.4000
G01 Z-0.5000
G01 X2.9878Y25.3559
G01 X2.9814Y25.3122
G01 X2.9706Y25.2694
G01 X2.9557Y25.2278
G01 X2.9369Y25.1879
G01 X2.9142Y25.1500
G01 X2.8879Y25.1145
G01 X2.8582Y25.0818
G01 X2.8255Y25.0521
G01 X2.7900Y25.0258
G01 X2.7521Y25.0031
G01 X2.7122Y24.9843
G01 X2.6706Y24.9694
G01 X2.6278Y24.9586
G01 X2.5841Y24.9522
G01 X2.5400Y24.9500
G01 X2.4959Y24.9522
G01 X2.4522Y24.9586
G01 X2.4094Y24.9694
G01 X2.3678Y24.9843
G01 X2.3279Y25.0031
G01 X2.2900Y25.0258
G01 X2.2545Y25.0521
G01 X2.2218Y25.0818
G01 X2.1921Y25.1145
G01 X2.1658Y25.1500
G01 X2.1431Y25.1879
G01 X2.1243Y25.2278
G01 X2.1094Y25.2694
G01 X2.0986Y25.3122
G01 X2.0922Y25.3559
G01 X2.0900Y25.4000
G01 X2.0922Y25.4441
G01 X2.0986Y25.4878
G01 X2.1094Y25.5306
G01 X2.1243Y25.5722
G01 X2.1431Y25.6121
G01 X2.1658Y25.6500
G01 X2.1921Y25.6855
G01 X2.2218Y25.7182
G01 X2.2545Y25.7479
G01 X2.2900Y25.7742
G01 X2.3279Y25.7969
G01 X2.3678Y25.8157
G01 X2.4094Y25.8306
G01 X2.4522Y25.8414
G01 X2.4959Y25.8478
G01 X2.5400Y25.8500
G01 X2.5841Y25.8478
G01 X2.6278Y25.8414
G01 X2.6706Y25.8306
G01 X2.7122Y25.8157
G01 X2.7521Y25.7969
G01 X2.7900Y25.7742
G01 X2.8255Y25.7479
G01 X2.8582Y25.7182
G01 X2.8879Y25.6855
G01 X2.9142Y25.6500
G01 X2.9369Y25.6121
G01 X2.9557Y25.5722
G01 X2.9706Y25.5306
G01 X2.9814Y25.4878
G01 X2.9878Y25.4441
G01 X2.9900Y25.4000
G00 X2.9900Y25.4000
G01 Z-0.7500
G01 X2.9878Y25.3559
G01 X2.9814Y25.3122
G01 X2.9706Y25.2694
G01 X2.9557Y25.2278
G01 X2.9369Y25.1879
G01 X2.9142Y25.1500
G01 X2.8879Y25.1145
G01 X2.8582Y25.0818
G01 X2.8255Y25.0521
G01 X2.7900Y25.0258
G01 X2.7521Y25.0031
G01 X2.7122Y24.9843
G01 X2.6706Y24.9694
G01 X2.6278Y24.9586
G01 X2.5841Y24.9522
G01 X2.5400Y24.9500
G01 X2.4959Y24.9522
G01 X2.4522Y24.9586
G01 X2.4094Y24.9694
G01 X2.3678Y24.9843
G01 X2.3279Y25.0031
G01 X2.2900Y25.0258
G01 X2.2545Y25.0521
G01 X2.2218Y25.0818
G01 X2.1921Y25.1145
G01 X2.1658Y25.1500
G01 X2.1431Y25.1879
G01 X2.1243Y25.2278
G01 X2.1094Y25.2694
G01 X2.0986Y25.3122
G01 X2.0922Y25.3559
G01 X2.0900Y25.4000
G01 X2.0922Y25.4441
G01 X2.0986Y25.4878
G01 X2.1094Y25.5306
G01 X2.1243Y25.5722
G01 X2.1431Y25.6121
G01 X2.1658Y25.6500
G01 X2.1921Y25.6855
G01 X2.2218Y25.7182
G01 X2.2545Y25.7479
G01 X2.2900Y25.7742
G01 X2.3279Y25.7969
G01 X2.3678Y25.8157
G01 X2.4094Y25.8306
G01 X2.4522Y25.8414
G01 X2.4959Y25.8478
G01 X2.5400Y25.8500
G01 X2.5841Y25.8478
G01 X2.6278Y25.8414
G01 X2.6706Y25.8306
G01 X2.7122Y25.8157
G01 X2.7521Y25.7969
G01 X2.7900Y25.7742
G01 X2.8255Y25.7479
G01 X2.8582Y25.7182
G01 X2.8879Y25.6855
G01 X2.9142Y25.6500
G01 X2.9369Y25.6121
G01 X2.9557Y25.5722
G01 X2.9706Y25.5306
G01 X2.9814Y25.4878
G01 X2.9878Y25.4441
G01 X2.9900Y25.4000
G00 X2.9900Y25.4000
G01 Z-1.0000
G01 X2.9878Y25.3559
G01 X2.9814Y25.3122
G01 X2.9706Y25.2694
G01 X2.9557Y25.2278
G01 X2.9369Y25.1879
G01 X2.9142Y25.1500
G01 X2.8879Y25.1145
G01 X2.8582Y25.0818
G01 X2.8255Y25.0521
G01 X2.7900Y25.0258
G01 X2.7521Y25.0031
G01 X2.7122Y24.9843
G01 X2.6706Y24.9694
G01 X2.6278Y24.9586
G01 X2.5841Y24.9522
G01 X2.5400Y24.9500
G01 X2.4959Y24.9522
G01 X2.4522Y24.9586
G01 X2.4094Y24.9694
G01 X2.3678Y24.9843
G01 X2.3279Y25.0031
G01 X2.2900Y25.0258
G01 X2.2545Y25.0521
G01 X2.2218Y25.0818
G01 X2.1921Y25.1145
G01 X2.1658Y25.1500
G01 X2.1431Y25.1879
G01 X2.1243Y25.2278
G01 X2.1094Y25.2694
G01 X2.0986Y25.3122
G01 X2.0922Y25.3559
G01 X2.0900Y25.4000
G01 X2.0922Y25.4441
G01 X2.0986Y25.4878
G01 X2.1094Y25.5306
G01 X2.1243Y25.5722
G01 X2.1431Y25.6121
G01 X2.1658Y25.6500
G01 X2.1921Y25.6855
G01 X2.2218Y25.7182
G01 X2.2545Y25.7479
G01 X2.2900Y25.7742
G01 X2.3279Y25.7969
G01 X2.3678Y25.8157
G01 X2.4094Y25.8306
G01 X2.4522Y25.8414
G01 X2.4959Y25.8478
G01 X2.5400Y25.8500
G01 X2.5841Y25.8478
G01 X2.6278Y25.8414
G01 X2.6706Y25.8306
G01 X2.7122Y25.8157
G01 X2.7521Y25.7969
G01 X2.7900Y25.7742
G01 X2.8255Y25.7479
G01 X2.8582Y25.7182
G01 X2.8879Y25.6855
G01 X2.9142Y25.6500
G01 X2.9369Y25.6121
G01 X2.9557Y25.5722
G01 X2.9706Y25.5306
G01 X2.9814Y25.4878
G01 X2.9878Y25.4441
G01 X2.9900Y25.4000
G00 X2.9900Y25.4000
G01 Z-1.2500
G01 X2.9878Y25.3559
G01 X2.9814Y25.3122
G01 X2.9706Y25.2694
G01 X2.9557Y25.2278
G01 X2.9369Y25.1879
G01 X2.9142Y25.1500
G01 X2.8879Y25.1145
G01 X2.8582Y25.0818
G01 X2.8255Y25.0521
G01 X2.7900Y25.0258
G01 X2.7521Y25.0031
G01 X2.7122Y24.9843
G01 X2.6706Y24.9694
G01 X2.6278Y24.9586
G01 X2.5841Y24.9522
G01 X2.5400Y24.9500
G01 X2.4959Y24.9522
G01 X2.4522Y24.9586
G01 X2.4094Y24.9694
G01 X2.3678Y24.9843
G01 X2.3279Y25.0031
G01 X2.2900Y25.0258
G01 X2.2545Y25.0521
G01 X2.2218Y25.0818
G01 X2.1921Y25.1145
G01 X2.1658Y25.1500
G01 X2.1431Y25.1879
G01 X2.1243Y25.2278
G01 X2.1094Y25.2694
G01 X2.0986Y25.3122
G01 X2.0922Y25.3559
G01 X2.0900Y25.4000
G01 X2.0922Y25.4441
G01 X2.0986Y25.4878
G01 X2.1094Y25.5306
G01 X2.1243Y25.5722
G01 X2.1431Y25.6121
G01 X2.1658Y25.6500
G01 X2.1921Y25.6855
G01 X2.2218Y25.7182
G01 X2.2545Y25.7479
G01 X2.2900Y25.7742
G01 X2.3279Y25.7969
G01 X2.3678Y25.8157
G01 X2.4094Y25.8306
G01 X2.4522Y25.8414
G01 X2.4959Y25.8478
G01 X2.5400Y25.8500
G01 X2.5841Y25.8478
G01 X2.6278Y25.8414
G01 X2.6706Y25.8306
G01 X2.7122Y25.8157
G01 X2.7521Y25.7969
G01 X2.7900Y25.7742
G01 X2.8255Y25.7479
G01 X2.8582Y25.7182
G01 X2.8879Y25.6855
G01 X2.9142Y25.6500
G01 X2.9369Y25.6121
G01 X2.9557Y25.5722
G01 X2.9706Y25.5306
G01 X2.9814Y25.4878
G01 X2.9878Y25.4441
G01 X2.9900Y25.4000
G00 X2.9900Y25.4000
G01 Z-1.5000
G01 X2.9878Y25.3559
G01 X2.9814Y25.3122
G01 X2.9706Y25.2694
G01 X2.9557Y25.2278
G01 X2.9369Y25.1879
G01 X2.9142Y25.1500
G01 X2.8879Y25.1145
G01 X2.8582Y25.0818
G01 X2.8255Y25.0521
G01 X2.7900Y25.0258
G01 X2.7521Y25.0031
G01 X2.7122Y24.9843
G01 X2.6706Y24.9694
G01 X2.6278Y24.9586
G01 X2.5841Y24.9522
G01 X2.5400Y24.9500
G01 X2.4959Y24.9522
G01 X2.4522Y24.9586
G01 X2.4094Y24.9694
G01 X2.3678Y24.9843
G01 X2.3279Y25.0031
G01 X2.2900Y25.0258
G01 X2.2545Y25.0521
G01 X2.2218Y25.0818
G01 X2.1921Y25.1145
G01 X2.1658Y25.1500
G01 X2.1431Y25.1879
G01 X2.1243Y25.2278
G01 X2.1094Y25.2694
G01 X2.0986Y25.3122
G01 X2.0922Y25.3559
G01 X2.0900Y25.4000
G01 X2.0922Y25.4441
G01 X2.0986Y25.4878
G01 X2.1094Y25.5306
G01 X2.1243Y25.5722
G01 X2.1431Y25.6121
G01 X2.1658Y25.6500
G01 X2.1921Y25.6855
G01 X2.2218Y25.7182
G01 X2.2545Y25.7479
G01 X2.2900Y25.7742
G01 X2.3279Y25.7969
G01 X2.3678Y25.8157
G01 X2.4094Y25.8306
G01 X2.4522Y25.8414
G01 X2.4959Y25.8478
G01 X2.5400Y25.8500
G01 X2.5841Y25.8478
G01 X2.6278Y25.8414
G01 X2.6706Y25.8306
G01 X2.7122Y25.8157
G01 X2.7521Y25.7969
G01 X2.7900Y25.7742
G01 X2.8255Y25.7479
G01 X2.8582Y25.7182
G01 X2.8879Y25.6855
G01 X2.9142Y25.6500
G01 X2.9369Y25.6121
G01 X2.9557Y25.5722
G01 X2.9706Y25.5306
G01 X2.9814Y25.4878
G01 X2.9878Y25.4441
G01 X2.9900Y25.4000
G00 X2.9900Y25.4000
G01 Z-1.7500
G01 X2.9878Y25.3559
G01 X2.9814Y25.3122
G01 X2.9706Y25.2694
G01 X2.9557Y25.2278
G01 X2.9369Y25.1879
G01 X2.9142Y25.1500
G01 X2.8879Y25.1145
G01 X2.8582Y25.0818
G01 X2.8255Y25.0521
G01 X2.7900Y25.0258
G01 X2.7521Y25.0031
G01 X2.7122Y24.9843
G01 X2.6706Y24.9694
G01 X2.6278Y24.9586
G01 X2.5841Y24.9522
G01 X2.5400Y24.9500
G01 X2.4959Y24.9522
G01 X2.4522Y24.9586
G01 X2.4094Y24.9694
G01 X2.3678Y24.9843
G01 X2.3279Y25.0031
G01 X2.2900Y25.0258
G01 X2.2545Y25.0521
G01 X2.2218Y25.0818
G01 X2.1921Y25.1145
G01 X2.1658Y25.1500
G01 X2.1431Y25.1879
G01 X2.1243Y25.2278
G01 X2.1094Y25.2694
G01 X2.0986Y25.3122
G01 X2.0922Y25.3559
G01 X2.0900Y25.4000
G01 X2.0922Y25.4441
G01 X2.0986Y25.4878
G01 X2.1094Y25.5306
G01 X2.1243Y25.5722
G01 X2.1431Y25.6121
G01 X2.1658Y25.6500
G01 X2.1921Y25.6855
G01 X2.2218Y25.7182
G01 X2.2545Y25.7479
G01 X2.2900Y25.7742
G01 X2.3279Y25.7969
G01 X2.3678Y25.8157
G01 X2.4094Y25.8306
G01 X2.4522Y25.8414
G01 X2.4959Y25.8478
G01 X2.5400Y25.8500
G01 X2.5841Y25.8478
G01 X2.6278Y25.8414
G01 X2.6706Y25.8306
G01 X2.7122Y25.8157
G01 X2.7521Y25.7969
G01 X2.7900Y25.7742
G01 X2.8255Y25.7479
G01 X2.8582Y25.7182
G01 X2.8879Y25.6855
G01 X2.9142Y25.6500
G01 X2.9369Y25.6121
G01 X2.9557Y25.5722
G01 X2.9706Y25.5306
G01 X2.9814Y25.4878
G01 X2.9878Y25.4441
G01 X2.9900Y25.4000
G00 X2.9900Y25.4000
G01 Z-2.0000
G01 X2.9878Y25.3559
G01 X2.9814Y25.3122
G01 X2.9706Y25.2694
G01 X2.9557Y25.2278
G01 X2.9369Y25.1879
G01 X2.9142Y25.1500
G01 X2.8879Y25.1145
G01 X2.8582Y25.0818
G01 X2.8255Y25.0521
G01 X2.7900Y25.0258
G01 X2.7521Y25.0031
G01 X2.7122Y24.9843
G01 X2.6706Y24.9694
G01 X2.6278Y24.9586
G01 X2.5841Y24.9522
G01 X2.5400Y24.9500
G01 X2.4959Y24.9522
G01 X2.4522Y24.9586
G01 X2.4094Y24.9694
G01 X2.3678Y24.9843
G01 X2.3279Y25.0031
G01 X2.2900Y25.0258
G01 X2.2545Y25.0521
G01 X2.2218Y25.0818
G01 X2.1921Y25.1145
G01 X2.1658Y25.1500
G01 X2.1431Y25.1879
G01 X2.1243Y25.2278
G01 X2.1094Y25.2694
G01 X2.0986Y25.3122
G01 X2.0922Y25.3559
G01 X2.0900Y25.4000
G01 X2.0922Y25.4441
G01 X2.0986Y25.4878
G01 X2.1094Y25.5306
G01 X2.1243Y25.5722
G01 X2.1431Y25.6121
G01 X2.1658Y25.6500
G01 X2.1921Y25.6855
G01 X2.2218Y25.7182
G01 X2.2545Y25.7479
G01 X2.2900Y25.7742
G01 X2.3279Y25.7969
G01 X2.3678Y25.8157
G01 X2.4094Y25.8306
G01 X2.4522Y25.8414
G01 X2.4959Y25.8478
G01 X2.5400Y25.8500
G01 X2.5841Y25.8478
G01 X2.6278Y25.8414
G01 X2.6706Y25.8306
G01 X2.7122Y25.8157
G01 X2.7521Y25.7969
G01 X2.7900Y25.7742
G01 X2.8255Y25.7479
G01 X2.8582Y25.7182
G01 X2.8879Y25.6855
G01 X2.9142Y25.6500
G01 X2.9369Y25.6121
G01 X2.9557Y25.5722
G01 X2.9706Y25.5306
G01 X2.9814Y25.4878
G01 X2.9878Y25.4441
G01 X2.9900Y25.4000
G00 Z3.0000
G00 X25.8500Y25.4000
G01 Z-0.2500
G01 X25.8478Y25.3559
G01 X25.8414Y25.3122
G01 X25.8306Y25.2694
G01 X25.8157Y25.2278
G01 X25.7969Y25.1879
G01 X25.7742Y25.1500
G01 X25.7479Y25.1145
G01 X25.7182Y25.0818
G01 X25.6855Y25.0521
G01 X25.6500Y25.0258
G01 X25.6121Y25.0031
G01 X25.5722Y24.9843
G01 X25.5306Y24.9694
G01 X25.4878Y24.9586
G01 X25.4441Y24.9522
G01 X25.4000Y24.9500
G01 X25.3559Y24.9522
G01 X25.3122Y24.9586
G01 X25.2694Y24.9694
G01 X25.2278Y24.9843
G01 X25.1879Y25.0031
G01 X25.1500Y25.0258
G01 X25.1145Y25.0521
G01 X25.0818Y25.0818
G01 X25.0521Y25.1145
G01 X25.0258Y25.1500
G01 X25.0031Y25.1879
G01 X24.9843Y25.2278
G01 X24.9694Y25.2694
G01 X24.9586Y25.3122
G01 X24.9522Y25.3559
G01 X24.9500Y25.4000
G01 X24.9522Y25.4441
G01 X24.9586Y25.4878
G01 X24.9694Y25.5306
G01 X24.9843Y25.5722
G01 X25.0031Y25.6121
G01 X25.0258Y25.6500
G01 X25.0521Y25.6855
G01 X25.0818Y25.7182
G01 X25.1145Y25.7479
G01 X25.1500Y25.7742
G01 X25.1879Y25.7969
G01 X25.2278Y25.8157
G01 X25.2694Y25.8306
G01 X25.3122Y25.8414
G01 X25.3559Y25.8478
G01 X25.4000Y25.8500
G01 X25.4441Y25.8478
G01 X25.4878Y25.8414
G01 X25.5306Y25.8306
G01 X25.5722Y25.8157
G01 X25.6121Y25.7969
G01 X25.6500Y25.7742
G01 X25.6855Y25.7479
G01 X25.7182Y25.7182
G01 X25.7479Y25.6855
G01 X25.7742Y25.6500
G01 X25.7969Y25.6121
G01 X25.8157Y25.5722
G01 X25.8306Y25.5306
G01 X25.8414Y25.4878
G01 X25.8478Y25.4441
G01 X25.8500Y25.4000
G00 X25.8500Y25.4000
G01 Z-0.5000
G01 X25.8478Y25.3559
G01 X25.8414Y25.3122
G01 X25.8306Y25.2694
G01 X25.8157Y25.2278
G01 X25.7969Y25.1879
G01 X25.7742Y25.1500
G01 X25.7479Y25.1145
G01 X25.7182Y25.0818
G01 X25.6855Y25.0521
G01 X25.6500Y25.0258
G01 X25.6121Y25.0031
G01 X25.5722Y24.9843
G01 X25.5306Y24.9694
G01 X25.4878Y24.9586
G01 X25.4441Y24.9522
G01 X25.4000Y24.9500
G01 X25.3559Y24.9522
G01 X25.3122Y24.9586
G01 X25.2694Y24.9694
G01 X25.2278Y24.9843
G01 X25.1879Y25.0031
G01 X25.1500Y25.0258
G01 X25.1145Y25.0521
G01 X25.0818Y25.0818
G01 X25.0521Y25.1145
G01 X25.0258Y25.1500
G01 X25.0031Y25.1879
G01 X24.9843Y25.2278
G01 X24.9694Y25.2694
G01 X24.9586Y25.3122
G01 X24.9522Y25.3559
G01 X24.9500Y25.4000
G01 X24.9522Y25.4441
G01 X24.9586Y25.4878
G01 X24.9694Y25.5306
G01 X24.9843Y25.5722
G01 X25.0031Y25.6121
G01 X25.0258Y25.6500
G01 X25.0521Y25.6855
G01 X25.0818Y25.7182
G01 X25.1145Y25.7479
G01 X25.1500Y25.7742
G01 X25.1879Y25.7969
G01 X25.2278Y25.8157
G01 X25.2694Y25.8306
G01 X25.3122Y25.8414
G01 X25.3559Y25.8478
G01 X25.4000Y25.8500
G01 X25.4441Y25.8478
G01 X25.4878Y25.8414
G01 X25.5306Y25.8306
G01 X25.5722Y25.8157
G01 X25.6121Y25.7969
G01 X25.6500Y25.7742
G01 X25.6855Y25.7479
G01 X25.7182Y25.7182
G01 X25.7479Y25.6855
G01 X25.7742Y25.6500
G01 X25.7969Y25.6121
G01 X25.8157Y25.5722
G01 X25.8306Y25.5306
G01 X25.8414Y25.4878
G01 X25.8478Y25.4441
G01 X25.8500Y25.4000
G00 X25.8500Y25.4000
G01 Z-0.7500
G01 X25.8478Y25.3559
G01 X25.8414Y25.3122
G01 X25.8306Y25.2694
G01 X25.8157Y25.2278
G01 X25.7969Y25.1879
G01 X25.7742Y25.1500
G01 X25.7479Y25.1145
G01 X25.7182Y25.0818
G01 X25.6855Y25.0521
G01 X25.6500Y25.0258
G01 X25.6121Y25.0031
G01 X25.5722Y24.9843
G01 X25.5306Y24.9694
G01 X25.4878Y24.9586
G01 X25.4441Y24.9522
G01 X25.4000Y24.9500
G01 X25.3559Y24.9522
G01 X25.3122Y24.9586
G01 X25.2694Y24.9694
G01 X25.2278Y24.9843
G01 X25.1879Y25.0031
G01 X25.1500Y25.0258
G01 X25.1145Y25.0521
G01 X25.0818Y25.0818
G01 X25.0521Y25.1145
G01 X25.0258Y25.1500
G01 X25.0031Y25.1879
G01 X24.9843Y25.2278
G01 X24.9694Y25.2694
G01 X24.9586Y25.3122
G01 X24.9522Y25.3559
G01 X24.9500Y25.4000
G01 X24.9522Y25.4441
G01 X24.9586Y25.4878
G01 X24.9694Y25.5306
G01 X24.9843Y25.5722
G01 X25.0031Y25.6121
G01 X25.0258Y25.6500
G01 X25.0521Y25.6855
G01 X25.0818Y25.7182
G01 X25.1145Y25.7479
G01 X25.1500Y25.7742
G01 X25.1879Y25.7969
G01 X25.2278Y25.8157
G01 X25.2694Y25.8306
G01 X25.3122Y25.8414
G01 X25.3559Y25.8478
G01 X25.4000Y25.8500
G01 X25.4441Y25.8478
G01 X25.4878Y25.8414
G01 X25.5306Y25.8306
G01 X25.5722Y25.8157
G01 X25.6121Y25.7969
G01 X25.6500Y25.7742
G01 X25.6855Y25.7479
G01 X25.7182Y25.7182
G01 X25.7479Y25.6855
G01 X25.7742Y25.6500
G01 X25.7969Y25.6121
G01 X25.8157Y25.5722
G01 X25.8306Y25.5306
G01 X25.8414Y25.4878
G01 X25.8478Y25.4441
G01 X25.8500Y25.4000
G00 X25.8500Y25.4000
G01 Z-1.0000
G01 X25.8478Y25.3559
G01 X25.8414Y25.3122
G01 X25.8306Y25.2694
G01 X25.8157Y25.2278
G01 X25.7969Y25.1879
G01 X25.7742Y25.1500
G01 X25.7479Y25.1145
G01 X25.7182Y25.0818
G01 X25.6855Y25.0521
G01 X25.6500Y25.0258
G01 X25.6121Y25.0031
G01 X25.5722Y24.9843
G01 X25.5306Y24.9694
G01 X25.4878Y24.9586
G01 X25.4441Y24.9522
G01 X25.4000Y24.9500
G01 X25.3559Y24.9522
G01 X25.3122Y24.9586
G01 X25.2694Y24.9694
G01 X25.2278Y24.9843
G01 X25.1879Y25.0031
G01 X25.1500Y25.0258
G01 X25.1145Y25.0521
G01 X25.0818Y25.0818
G01 X25.0521Y25.1145
G01 X25.0258Y25.1500
G01 X25.0031Y25.1879
G01 X24.9843Y25.2278
G01 X24.9694Y25.2694
G01 X24.9586Y25.3122
G01 X24.9522Y25.3559
G01 X24.9500Y25.4000
G01 X24.9522Y25.4441
G01 X24.9586Y25.4878
G01 X24.9694Y25.5306
G01 X24.9843Y25.5722
G01 X25.0031Y25.6121
G01 X25.0258Y25.6500
G01 X25.0521Y25.6855
G01 X25.0818Y25.7182
G01 X25.1145Y25.7479
G01 X25.1500Y25.7742
G01 X25.1879Y25.7969
G01 X25.2278Y25.8157
G01 X25.2694Y25.8306
G01 X25.3122Y25.8414
G01 X25.3559Y25.8478
G01 X25.4000Y25.8500
G01 X25.4441Y25.8478
G01 X25.4878Y25.8414
G01 X25.5306Y25.8306
G01 X25.5722Y25.8157
G01 X25.6121Y25.7969
G01 X25.6500Y25.7742
G01 X25.6855Y25.7479
G01 X25.7182Y25.7182
G01 X25.7479Y25.6855
G01 X25.7742Y25.6500
G01 X25.7969Y25.6121
G01 X25.8157Y25.5722
G01 X25.8306Y25.5306
G01 X25.8414Y25.4878
G01 X25.8478Y25.4441
G01 X25.8500Y25.4000
G00 X25.8500Y25.4000
G01 Z-1.2500
G01 X25.8478Y25.3559
G01 X25.8414Y25.3122
G01 X25.8306Y25.2694
G01 X25.8157Y25.2278
G01 X25.7969Y25.1879
G01 X25.7742Y25.1500
G01 X25.7479Y25.1145
G01 X25.7182Y25.0818
G01 X25.6855Y25.0521
G01 X25.6500Y25.0258
G01 X25.6121Y25.0031
G01 X25.5722Y24.9843
G01 X25.5306Y24.9694
G01 X25.4878Y24.9586
G01 X25.4441Y24.9522
G01 X25.4000Y24.9500
G01 X25.3559Y24.9522
G01 X25.3122Y24.9586
G01 X25.2694Y24.9694
G01 X25.2278Y24.9843
G01 X25.1879Y25.0031
G01 X25.1500Y25.0258
G01 X25.1145Y25.0521
G01 X25.0818Y25.0818
G01 X25.0521Y25.1145
G01 X25.0258Y25.1500
G01 X25.0031Y25.1879
G01 X24.9843Y25.2278
G01 X24.9694Y25.2694
G01 X24.9586Y25.3122
G01 X24.9522Y25.3559
G01 X24.9500Y25.4000
G01 X24.9522Y25.4441
G01 X24.9586Y25.4878
G01 X24.9694Y25.5306
G01 X24.9843Y25.5722
G01 X25.0031Y25.6121
G01 X25.0258Y25.6500
G01 X25.0521Y25.6855
G01 X25.0818Y25.7182
G01 X25.1145Y25.7479
G01 X25.1500Y25.7742
G01 X25.1879Y25.7969
G01 X25.2278Y25.8157
G01 X25.2694Y25.8306
G01 X25.3122Y25.8414
G01 X25.3559Y25.8478
G01 X25.4000Y25.8500
G01 X25.4441Y25.8478
G01 X25.4878Y25.8414
G01 X25.5306Y25.8306
G01 X25.5722Y25.8157
G01 X25.6121Y25.7969
G01 X25.6500Y25.7742
G01 X25.6855Y25.7479
G01 X25.7182Y25.7182
G01 X25.7479Y25.6855
G01 X25.7742Y25.6500
G01 X25.7969Y25.6121
G01 X25.8157Y25.5722
G01 X25.8306Y25.5306
G01 X25.8414Y25.4878
G01 X25.8478Y25.4441
G01 X25.8500Y25.4000
G00 X25.8500Y25.4000
G01 Z-1.5000
G01 X25.8478Y25.3559
G01 X25.8414Y25.3122
G01 X25.8306Y25.2694
G01 X25.8157Y25.2278
G01 X25.7969Y25.1879
G01 X25.7742Y25.1500
G01 X25.7479Y25.1145
G01 X25.7182Y25.0818
G01 X25.6855Y25.0521
G01 X25.6500Y25.0258
G01 X25.6121Y25.0031
G01 X25.5722Y24.9843
G01 X25.5306Y24.9694
G01 X25.4878Y24.9586
G01 X25.4441Y24.9522
G01 X25.4000Y24.9500
G01 X25.3559Y24.9522
G01 X25.3122Y24.9586
G01 X25.2694Y24.9694
G01 X25.2278Y24.9843
G01 X25.1879Y25.0031
G01 X25.1500Y25.0258
G01 X25.1145Y25.0521
G01 X25.0818Y25.0818
G01 X25.0521Y25.1145
G01 X25.0258Y25.1500
G01 X25.0031Y25.1879
G01 X24.9843Y25.2278
G01 X24.9694Y25.2694
G01 X24.9586Y25.3122
G01 X24.9522Y25.3559
G01 X24.9500Y25.4000
G01 X24.9522Y25.4441
G01 X24.9586Y25.4878
G01 X24.9694Y25.5306
G01 X24.9843Y25.5722
G01 X25.0031Y25.6121
G01 X25.0258Y25.6500
G01 X25.0521Y25.6855
G01 X25.0818Y25.7182
G01 X25.1145Y25.7479
G01 X25.1500Y25.7742
G01 X25.1879Y25.7969
G01 X25.2278Y25.8157
G01 X25.2694Y25.8306
G01 X25.3122Y25.8414
G01 X25.3559Y25.8478
G01 X25.4000Y25.8500
G01 X25.4441Y25.8478
G01 X25.4878Y25.8414
G01 X25.5306Y25.8306
G01 X25.5722Y25.8157
G01 X25.6121Y25.7969
G01 X25.6500Y25.7742
G01 X25.6855Y25.7479
G01 X25.7182Y25.7182
G01 X25.7479Y25.6855
G01 X25.7742Y25.6500
G01 X25.7969Y25.6121
G01 X25.8157Y25.5722
G01 X25.8306Y25.5306
G01 X25.8414Y25.4878
G01 X25.8478Y25.4441
G01 X25.8500Y25.4000
G00 X25.8500Y25.4000
G01 Z-1.7500
G01 X25.8478Y25.3559
G01 X25.8414Y25.3122
G01 X25.8306Y25.2694
G01 X25.8157Y25.2278
G01 X25.7969Y25.1879
G01 X25.7742Y25.1500
G01 X25.7479Y25.1145
G01 X25.7182Y25.0818
G01 X25.6855Y25.0521
G01 X25.6500Y25.0258
G01 X25.6121Y25.0031
G01 X25.5722Y24.9843
G01 X25.5306Y24.9694
G01 X25.4878Y24.9586
G01 X25.4441Y24.9522
G01 X25.4000Y24.9500
G01 X25.3559Y24.9522
G01 X25.3122Y24.9586
G01 X25.2694Y24.9694
G01 X25.2278Y24.9843
G01 X25.1879Y25.0031
G01 X25.1500Y25.0258
G01 X25.1145Y25.0521
G01 X25.0818Y25.0818
G01 X25.0521Y25.1145
G01 X25.0258Y25.1500
G01 X25.0031Y25.1879
G01 X24.9843Y25.2278
G01 X24.9694Y25.2694
G01 X24.9586Y25.3122
G01 X24.9522Y25.3559
G01 X24.9500Y25.4000
G01 X24.9522Y25.4441
G01 X24.9586Y25.4878
G01 X24.9694Y25.5306
G01 X24.9843Y25.5722
G01 X25.0031Y25.6121
G01 X25.0258Y25.6500
G01 X25.0521Y25.6855
G01 X25.0818Y25.7182
G01 X25.1145Y25.7479
G01 X25.1500Y25.7742
G01 X25.1879Y25.7969
G01 X25.2278Y25.8157
G01 X25.2694Y25.8306
G01 X25.3122Y25.8414
G01 X25.3559Y25.8478
G01 X25.4000Y25.8500
G01 X25.4441Y25.8478
G01 X25.4878Y25.8414
G01 X25.5306Y25.8306
G01 X25.5722Y25.8157
G01 X25.6121Y25.7969
G01 X25.6500Y25.7742
G01 X25.6855Y25.7479
G01 X25.7182Y25.7182
G01 X25.7479Y25.6855
G01 X25.7742Y25.6500
G01 X25.7969Y25.6121
G01 X25.8157Y25.5722
G01 X25.8306Y25.5306
G01 X25.8414Y25.4878
G01 X25.8478Y25.4441
G01 X25.8500Y25.4000
G00 X25.8500Y25.4000
G01 Z-2.0000
G01 X25.8478Y25.3559
G01 X25.8414Y25.3122
G01 X25.8306Y25.2694
G01 X25.8157Y25.2278
G01 X25.7969Y25.1879
G01 X25.7742Y25.1500
G01 X25.7479Y25.1145
G01 X25.7182Y25.0818
G01 X25.6855Y25.0521
G01 X25.6500Y25.0258
G01 X25.6121Y25.0031
G01 X25.5722Y24.9843
G01 X25.5306Y24.9694
G01 X25.4878Y24.9586
G01 X25.4441Y24.9522
G01 X25.4000Y24.9500
G01 X25.3559Y24.9522
G01 X25.3122Y24.9586
G01 X25.2694Y24.9694
G01 X25.2278Y24.9843
G01 X25.1879Y25.0031
G01 X25.1500Y25.0258
G01 X25.1145Y25.0521
G01 X25.0818Y25.0818
G01 X25.0521Y25.1145
G01 X25.0258Y25.1500
G01 X25.0031Y25.1879
G01 X24.9843Y25.2278
G01 X24.9694Y25.2694
G01 X24.9586Y25.3122
G01 X24.9522Y25.3559
G01 X24.9500Y25.4000
G01 X24.9522Y25.4441
G01 X24.9586Y25.4878
G01 X24.9694Y25.5306
G01 X24.9843Y25.5722
G01 X25.0031Y25.6121
G01 X25.0258Y25.6500
G01 X25.0521Y25.6855
G01 X25.0818Y25.7182
G01 X25.1145Y25.7479
G01 X25.1500Y25.7742
G01 X25.1879Y25.7969
G01 X25.2278Y25.8157
G01 X25.2694Y25.8306
G01 X25.3122Y25.8414
G01 X25.3559Y25.8478
G01 X25.4000Y25.8500
G01 X25.4441Y25.8478
G01 X25.4878Y25.8414
G01 X25.5306Y25.8306
G01 X25.5722Y25.8157
G01 X25.6121Y25.7969
G01 X25.6500Y25.7742
G01 X25.6855Y25.7479
G01 X25.7182Y25.7182
G01 X25.7479Y25.6855
G01 X25.7742Y25.6500
G01 X25.7969Y25.6121
G01 X25.8157Y25.5722
G01 X25.8306Y25.5306
G01 X25.8414Y25.4878
G01 X25.8478Y25.4441
G01 X25.8500Y25.4000
G00 Z3.0000
G00 X25.8500Y5.0800
G01 Z-0.2500
G01 X25.8478Y5.0359
G01 X25.8414Y4.9922
G01 X25.8306Y4.9494
G01 X25.8157Y4.9078
G01 X25.7969Y4.8679
G01 X25.7742Y4.8300
G01 X25.7479Y4.7945
G01 X25.7182Y4.7618
G01 X25.6855Y4.7321
G01 X25.6500Y4.7058
G01 X25.6121Y4.6831
G01 X25.5722Y4.6643
G01 X25.5306Y4.6494
G01 X25.4878Y4.6386
G01 X25.4441Y4.6322
G01 X25.4000Y4.6300
G01 X25.3559Y4.6322
G01 X25.3122Y4.6386
G01 X25.2694Y4.6494
G01 X25.2278Y4.6643
G01 X25.1879Y4.6831
G01 X25.1500Y4.7058
G01 X25.1145Y4.7321
G01 X25.0818Y4.7618
G01 X25.0521Y4.7945
G01 X25.0258Y4.8300
G01 X25.0031Y4.8679
G01 X24.9843Y4.9078
G01 X24.9694Y4.9494
G01 X24.9586Y4.9922
G01 X24.9522Y5.0359
G01 X24.9500Y5.0800
G01 X24.9522Y5.1241
G01 X24.9586Y5.1678
G01 X24.9694Y5.2106
G01 X24.9843Y5.2522
G01 X25.0031Y5.2921
G01 X25.0258Y5.3300
G01 X25.0521Y5.3655
G01 X25.0818Y5.3982
G01 X25.1145Y5.4279
G01 X25.1500Y5.4542
G01 X25.1879Y5.4769
G01 X25.2278Y5.4957
G01 X25.2694Y5.5106
G01 X25.3122Y5.5214
G01 X25.3559Y5.5278
G01 X25.4000Y5.5300
G01 X25.4441Y5.5278
G01 X25.4878Y5.5214
G01 X25.5306Y5.5106
G01 X25.5722Y5.4957
G01 X25.6121Y5.4769
G01 X25.6500Y5.4542
G01 X25.6855Y5.4279
G01 X25.7182Y5.3982
G01 X25.7479Y5.3655
G01 X25.7742Y5.3300
G01 X25.7969Y5.2921
G01 X25.8157Y5.2522
G01 X25.8306Y5.2106
G01 X25.8414Y5.1678
G01 X25.8478Y5.1241
G01 X25.8500Y5.0800
G00 X25.8500Y5.0800
G01 Z-0.5000
G01 X25.8478Y5.0359
G01 X25.8414Y4.9922
G01 X25.8306Y4.9494
G01 X25.8157Y4.9078
G01 X25.7969Y4.8679
G01 X25.7742Y4.8300
G01 X25.7479Y4.7945
G01 X25.7182Y4.7618
G01 X25.6855Y4.7321
G01 X25.6500Y4.7058
G01 X25.6121Y4.6831
G01 X25.5722Y4.6643
G01 X25.5306Y4.6494
G01 X25.4878Y4.6386
G01 X25.4441Y4.6322
G01 X25.4000Y4.6300
G01 X25.3559Y4.6322
G01 X25.3122Y4.6386
G01 X25.2694Y4.6494
G01 X25.2278Y4.6643
G01 X25.1879Y4.6831
G01 X25.1500Y4.7058
G01 X25.1145Y4.7321
G01 X25.0818Y4.7618
G01 X25.0521Y4.7945
G01 X25.0258Y4.8300
G01 X25.0031Y4.8679
G01 X24.9843Y4.9078
G01 X24.9694Y4.9494
G01 X24.9586Y4.9922
G01 X24.9522Y5.0359
G01 X24.9500Y5.0800
G01 X24.9522Y5.1241
G01 X24.9586Y5.1678
G01 X24.9694Y5.2106
G01 X24.9843Y5.2522
G01 X25.0031Y5.2921
G01 X25.0258Y5.3300
G01 X25.0521Y5.3655
G01 X25.0818Y5.3982
G01 X25.1145Y5.4279
G01 X25.1500Y5.4542
G01 X25.1879Y5.4769
G01 X25.2278Y5.4957
G01 X25.2694Y5.5106
G01 X25.3122Y5.5214
G01 X25.3559Y5.5278
G01 X25.4000Y5.5300
G01 X25.4441Y5.5278
G01 X25.4878Y5.5214
G01 X25.5306Y5.5106
G01 X25.5722Y5.4957
G01 X25.6121Y5.4769
G01 X25.6500Y5.4542
G01 X25.6855Y5.4279
G01 X25.7182Y5.3982
G01 X25.7479Y5.3655
G01 X25.7742Y5.3300
G01 X25.7969Y5.2921
G01 X25.8157Y5.2522
G01 X25.8306Y5.2106
G01 X25.8414Y5.1678
G01 X25.8478Y5.1241
G01 X25.8500Y5.0800
G00 X25.8500Y5.0800
G01 Z-0.7500
G01 X25.8478Y5.0359
G01 X25.8414Y4.9922
G01 X25.8306Y4.9494
G01 X25.8157Y4.9078
G01 X25.7969Y4.8679
G01 X25.7742Y4.8300
G01 X25.7479Y4.7945
G01 X25.7182Y4.7618
G01 X25.6855Y4.7321
G01 X25.6500Y4.7058
G01 X25.6121Y4.6831
G01 X25.5722Y4.6643
G01 X25.5306Y4.6494
G01 X25.4878Y4.6386
G01 X25.4441Y4.6322
G01 X25.4000Y4.6300
G01 X25.3559Y4.6322
G01 X25.3122Y4.6386
G01 X25.2694Y4.6494
G01 X25.2278Y4.6643
G01 X25.1879Y4.6831
G01 X25.1500Y4.7058
G01 X25.1145Y4.7321
G01 X25.0818Y4.7618
G01 X25.0521Y4.7945
G01 X25.0258Y4.8300
G01 X25.0031Y4.8679
G01 X24.9843Y4.9078
G01 X24.9694Y4.9494
G01 X24.9586Y4.9922
G01 X24.9522Y5.0359
G01 X24.9500Y5.0800
G01 X24.9522Y5.1241
G01 X24.9586Y5.1678
G01 X24.9694Y5.2106
G01 X24.9843Y5.2522
G01 X25.0031Y5.2921
G01 X25.0258Y5.3300
G01 X25.0521Y5.3655
G01 X25.0818Y5.3982
G01 X25.1145Y5.4279
G01 X25.1500Y5.4542
G01 X25.1879Y5.4769
G01 X25.2278Y5.4957
G01 X25.2694Y5.5106
G01 X25.3122Y5.5214
G01 X25.3559Y5.5278
G01 X25.4000Y5.5300
G01 X25.4441Y5.5278
G01 X25.4878Y5.5214
G01 X25.5306Y5.5106
G01 X25.5722Y5.4957
G01 X25.6121Y5.4769
G01 X25.6500Y5.4542
G01 X25.6855Y5.4279
G01 X25.7182Y5.3982
G01 X25.7479Y5.3655
G01 X25.7742Y5.3300
G01 X25.7969Y5.2921
G01 X25.8157Y5.2522
G01 X25.8306Y5.2106
G01 X25.8414Y5.1678
G01 X25.8478Y5.1241
G01 X25.8500Y5.0800
G00 X25.8500Y5.0800
G01 Z-1.0000
G01 X25.8478Y5.0359
G01 X25.8414Y4.9922
G01 X25.8306Y4.9494
G01 X25.8157Y4.9078
G01 X25.7969Y4.8679
G01 X25.7742Y4.8300
G01 X25.7479Y4.7945
G01 X25.7182Y4.7618
G01 X25.6855Y4.7321
G01 X25.6500Y4.7058
G01 X25.6121Y4.6831
G01 X25.5722Y4.6643
G01 X25.5306Y4.6494
G01 X25.4878Y4.6386
G01 X25.4441Y4.6322
G01 X25.4000Y4.6300
G01 X25.3559Y4.6322
G01 X25.3122Y4.6386
G01 X25.2694Y4.6494
G01 X25.2278Y4.6643
G01 X25.1879Y4.6831
G01 X25.1500Y4.7058
G01 X25.1145Y4.7321
G01 X25.0818Y4.7618
G01 X25.0521Y4.7945
G01 X25.0258Y4.8300
G01 X25.0031Y4.8679
G01 X24.9843Y4.9078
G01 X24.9694Y4.9494
G01 X24.9586Y4.9922
G01 X24.9522Y5.0359
G01 X24.9500Y5.0800
G01 X24.9522Y5.1241
G01 X24.9586Y5.1678
G01 X24.9694Y5.2106
G01 X24.9843Y5.2522
G01 X25.0031Y5.2921
G01 X25.0258Y5.3300
G01 X25.0521Y5.3655
G01 X25.0818Y5.3982
G01 X25.1145Y5.4279
G01 X25.1500Y5.4542
G01 X25.1879Y5.4769
G01 X25.2278Y5.4957
G01 X25.2694Y5.5106
G01 X25.3122Y5.5214
G01 X25.3559Y5.5278
G01 X25.4000Y5.5300
G01 X25.4441Y5.5278
G01 X25.4878Y5.5214
G01 X25.5306Y5.5106
G01 X25.5722Y5.4957
G01 X25.6121Y5.4769
G01 X25.6500Y5.4542
G01 X25.6855Y5.4279
G01 X25.7182Y5.3982
G01 X25.7479Y5.3655
G01 X25.7742Y5.3300
G01 X25.7969Y5.2921
G01 X25.8157Y5.2522
G01 X25.8306Y5.2106
G01 X25.8414Y5.1678
G01 X25.8478Y5.1241
G01 X25.8500Y5.0800
G00 X25.8500Y5.0800
G01 Z-1.2500
G01 X25.8478Y5.0359
G01 X25.8414Y4.9922
G01 X25.8306Y4.9494
G01 X25.8157Y4.9078
G01 X25.7969Y4.8679
G01 X25.7742Y4.8300
G01 X25.7479Y4.7945
G01 X25.7182Y4.7618
G01 X25.6855Y4.7321
G01 X25.6500Y4.7058
G01 X25.6121Y4.6831
G01 X25.5722Y4.6643
G01 X25.5306Y4.6494
G01 X25.4878Y4.6386
G01 X25.4441Y4.6322
G01 X25.4000Y4.6300
G01 X25.3559Y4.6322
G01 X25.3122Y4.6386
G01 X25.2694Y4.6494
G01 X25.2278Y4.6643
G01 X25.1879Y4.6831
G01 X25.1500Y4.7058
G01 X25.1145Y4.7321
G01 X25.0818Y4.7618
G01 X25.0521Y4.7945
G01 X25.0258Y4.8300
G01 X25.0031Y4.8679
G01 X24.9843Y4.9078
G01 X24.9694Y4.9494
G01 X24.9586Y4.9922
G01 X24.9522Y5.0359
G01 X24.9500Y5.0800
G01 X24.9522Y5.1241
G01 X24.9586Y5.1678
G01 X24.9694Y5.2106
G01 X24.9843Y5.2522
G01 X25.0031Y5.2921
G01 X25.0258Y5.3300
G01 X25.0521Y5.3655
G01 X25.0818Y5.3982
G01 X25.1145Y5.4279
G01 X25.1500Y5.4542
G01 X25.1879Y5.4769
G01 X25.2278Y5.4957
G01 X25.2694Y5.5106
G01 X25.3122Y5.5214
G01 X25.3559Y5.5278
G01 X25.4000Y5.5300
G01 X25.4441Y5.5278
G01 X25.4878Y5.5214
G01 X25.5306Y5.5106
G01 X25.5722Y5.4957
G01 X25.6121Y5.4769
G01 X25.6500Y5.4542
G01 X25.6855Y5.4279
G01 X25.7182Y5.3982
G01 X25.7479Y5.3655
G01 X25.7742Y5.3300
G01 X25.7969Y5.2921
G01 X25.8157Y5.2522
G01 X25.8306Y5.2106
G01 X25.8414Y5.1678
G01 X25.8478Y5.1241
G01 X25.8500Y5.0800
G00 X25.8500Y5.0800
G01 Z-1.5000
G01 X25.8478Y5.0359
G01 X25.8414Y4.9922
G01 X25.8306Y4.9494
G01 X25.8157Y4.9078
G01 X25.7969Y4.8679
G01 X25.7742Y4.8300
G01 X25.7479Y4.7945
G01 X25.7182Y4.7618
G01 X25.6855Y4.7321
G01 X25.6500Y4.7058
G01 X25.6121Y4.6831
G01 X25.5722Y4.6643
G01 X25.5306Y4.6494
G01 X25.4878Y4.6386
G01 X25.4441Y4.6322
G01 X25.4000Y4.6300
G01 X25.3559Y4.6322
G01 X25.3122Y4.6386
G01 X25.2694Y4.6494
G01 X25.2278Y4.6643
G01 X25.1879Y4.6831
G01 X25.1500Y4.7058
G01 X25.1145Y4.7321
G01 X25.0818Y4.7618
G01 X25.0521Y4.7945
G01 X25.0258Y4.8300
G01 X25.0031Y4.8679
G01 X24.9843Y4.9078
G01 X24.9694Y4.9494
G01 X24.9586Y4.9922
G01 X24.9522Y5.0359
G01 X24.9500Y5.0800
G01 X24.9522Y5.1241
G01 X24.9586Y5.1678
G01 X24.9694Y5.2106
G01 X24.9843Y5.2522
G01 X25.0031Y5.2921
G01 X25.0258Y5.3300
G01 X25.0521Y5.3655
G01 X25.0818Y5.3982
G01 X25.1145Y5.4279
G01 X25.1500Y5.4542
G01 X25.1879Y5.4769
G01 X25.2278Y5.4957
G01 X25.2694Y5.5106
G01 X25.3122Y5.5214
G01 X25.3559Y5.5278
G01 X25.4000Y5.5300
G01 X25.4441Y5.5278
G01 X25.4878Y5.5214
G01 X25.5306Y5.5106
G01 X25.5722Y5.4957
G01 X25.6121Y5.4769
G01 X25.6500Y5.4542
G01 X25.6855Y5.4279
G01 X25.7182Y5.3982
G01 X25.7479Y5.3655
G01 X25.7742Y5.3300
G01 X25.7969Y5.2921
G01 X25.8157Y5.2522
G01 X25.8306Y5.2106
G01 X25.8414Y5.1678
G01 X25.8478Y5.1241
G01 X25.8500Y5.0800
G00 X25.8500Y5.0800
G01 Z-1.7500
G01 X25.8478Y5.0359
G01 X25.8414Y4.9922
G01 X25.8306Y4.9494
G01 X25.8157Y4.9078
G01 X25.7969Y4.8679
G01 X25.7742Y4.8300
G01 X25.7479Y4.7945
G01 X25.7182Y4.7618
G01 X25.6855Y4.7321
G01 X25.6500Y4.7058
G01 X25.6121Y4.6831
G01 X25.5722Y4.6643
G01 X25.5306Y4.6494
G01 X25.4878Y4.6386
G01 X25.4441Y4.6322
G01 X25.4000Y4.6300
G01 X25.3559Y4.6322
G01 X25.3122Y4.6386
G01 X25.2694Y4.6494
G01 X25.2278Y4.6643
G01 X25.1879Y4.6831
G01 X25.1500Y4.7058
G01 X25.1145Y4.7321
G01 X25.0818Y4.7618
G01 X25.0521Y4.7945
G01 X25.0258Y4.8300
G01 X25.0031Y4.8679
G01 X24.9843Y4.9078
G01 X24.9694Y4.9494
G01 X24.9586Y4.9922
G01 X24.9522Y5.0359
G01 X24.9500Y5.0800
G01 X24.9522Y5.1241
G01 X24.9586Y5.1678
G01 X24.9694Y5.2106
G01 X24.9843Y5.2522
G01 X25.0031Y5.2921
G01 X25.0258Y5.3300
G01 X25.0521Y5.3655
G01 X25.0818Y5.3982
G01 X25.1145Y5.4279
G01 X25.1500Y5.4542
G01 X25.1879Y5.4769
G01 X25.2278Y5.4957
G01 X25.2694Y5.5106
G01 X25.3122Y5.5214
G01 X25.3559Y5.5278
G01 X25.4000Y5.5300
G01 X25.4441Y5.5278
G01 X25.4878Y5.5214
G01 X25.5306Y5.5106
G01 X25.5722Y5.4957
G01 X25.6121Y5.4769
G01 X25.6500Y5.4542
G01 X25.6855Y5.4279
G01 X25.7182Y5.3982
G01 X25.7479Y5.3655
G01 X25.7742Y5.3300
G01 X25.7969Y5.2921
G01 X25.8157Y5.2522
G01 X25.8306Y5.2106
G01 X25.8414Y5.1678
G01 X25.8478Y5.1241
G01 X25.8500Y5.0800
G00 X25.8500Y5.0800
G01 Z-2.0000
G01 X25.8478Y5.0359
G01 X25.8414Y4.9922
G01 X25.8306Y4.9494
G01 X25.8157Y4.9078
G01 X25.7969Y4.8679
G01 X25.7742Y4.8300
G01 X25.7479Y4.7945
G01 X25.7182Y4.7618
G01 X25.6855Y4.7321
G01 X25.6500Y4.7058
G01 X25.6121Y4.6831
G01 X25.5722Y4.6643
G01 X25.5306Y4.6494
G01 X25.4878Y4.6386
G01 X25.4441Y4.6322
G01 X25.4000Y4.6300
G01 X25.3559Y4.6322
G01 X25.3122Y4.6386
G01 X25.2694Y4.6494
G01 X25.2278Y4.6643
G01 X25.1879Y4.6831
G01 X25.1500Y4.7058
G01 X25.1145Y4.7321
G01 X25.0818Y4.7618
G01 X25.0521Y4.7945
G01 X25.0258Y4.8300
G01 X25.0031Y4.8679
G01 X24.9843Y4.9078
G01 X24.9694Y4.9494
G01 X24.9586Y4.9922
G01 X24.9522Y5.0359
G01 X24.9500Y5.0800
G01 X24.9522Y5.1241
G01 X24.9586Y5.1678
G01 X24.9694Y5.2106
G01 X24.9843Y5.2522
G01 X25.0031Y5.2921
G01 X25.0258Y5.3300
G01 X25.0521Y5.3655
G01 X25.0818Y5.3982
G01 X25.1145Y5.4279
G01 X25.1500Y5.4542
G01 X25.1879Y5.4769
G01 X25.2278Y5.4957
G01 X25.2694Y5.5106
G01 X25.3122Y5.5214
G01 X25.3559Y5.5278
G01 X25.4000Y5.5300
G01 X25.4441Y5.5278
G01 X25.4878Y5.5214
G01 X25.5306Y5.5106
G01 X25.5722Y5.4957
G01 X25.6121Y5.4769
G01 X25.6500Y5.4542
G01 X25.6855Y5.4279
G01 X25.7182Y5.3982
G01 X25.7479Y5.3655
G01 X25.7742Y5.3300
G01 X25.7969Y5.2921
G01 X25.8157Y5.2522
G01 X25.8306Y5.2106
G01 X25.8414Y5.1678
G01 X25.8478Y5.1241
G01 X25.8500Y5.0800
G00 Z3.0000
G00 Z3.0000
G00 X0Y0
M05
G0 Z20
G0 X0 Y25