G0 Z20
G21
G90
G94
F100.00
G00 Z3.0000
M03 S45
G4 P1
G00 X-0.9739Y-0.0466
G01 Z-0.2500
G01 X-0.9702Y-0.0970
G01 X-0.9646Y-0.1418
G01 X-0.9519Y-0.2110
G01 X-0.9460Y-0.2357
G01 X-0.9339Y-0.2802
G01 X-0.9184Y-0.3273
G01 X-0.8912Y-0.3954
G01 X-0.8718Y-0.4366
G01 X-0.8369Y-0.5002
G01 X-0.8112Y-0.5409
G01 X-0.7824Y-0.5818
G01 X-0.7406Y-0.6341
G01 X-0.7216Y-0.6557
G01 X-0.6894Y-0.6894
G01 X-0.6557Y-0.7216
G01 X-0.6341Y-0.7406
G01 X-0.5818Y-0.7824
G01 X-0.5409Y-0.8112
G01 X-0.5002Y-0.8369
G01 X-0.4366Y-0.8718
G01 X-0.3954Y-0.8912
G01 X-0.3273Y-0.9184
G01 X-0.2802Y-0.9339
G01 X-0.2381Y-0.9455
G01 X-0.2110Y-0.9519
G01 X-0.1443Y-0.9642
G01 X-0.0970Y-0.9702
G01 X-0.0491Y-0.9737
G01 X-0.0000Y-0.9750
G01 X27.9400Y-0.9750
G01 X27.9891Y-0.9737
G01 X28.0370Y-0.9702
G01 X28.0843Y-0.9642
G01 X28.1510Y-0.9519
G01 X28.1781Y-0.9455
G01 X28.2202Y-0.9339
G01 X28.2673Y-0.9184
G01 X28.3354Y-0.8912
G01 X28.3766Y-0.8718
G01 X28.4402Y-0.8369
G01 X28.4809Y-0.8112
G01 X28.5218Y-0.7824
G01 X28.5741Y-0.7406
G01 X28.5957Y-0.7216
G01 X28.6294Y-0.6894
G01 X28.6616Y-0.6557
G01 X28.6806Y-0.6341
G01 X28.7224Y-0.5818
G01 X28.7512Y-0.5409
G01 X28.7769Y-0.5002
G01 X28.8118Y-0.4366
G01 X28.8312Y-0.3954
G01 X28.8584Y-0.3273
G01 X28.8739Y-0.2802
G01 X28.8855Y-0.2381
G01 X28.8919Y-0.2110
G01 X28.9042Y-0.1443
G01 X28.9102Y-0.0970
G01 X28.9137Y-0.0491
G01 X28.9150Y-0.0000
G01 X28.9150Y27.9400
G01 X28.9137Y27.9891
G01 X28.9102Y28.0370
G01 X28.9042Y28.0843
G01 X28.8919Y28.1510
G01 X28.8855Y28.1781
G01 X28.8739Y28.2202
G01 X28.8584Y28.2673
G01 X28.8312Y28.3354
G01 X28.8118Y28.3766
G01 X28.7769Y28.4402
G01 X28.7512Y28.4809
G01 X28.7224Y28.5218
G01 X28.6806Y28.5741
G01 X28.6616Y28.5957
G01 X28.6294Y28.6294
G01 X28.5957Y28.6616
G01 X28.5741Y28.6806
G01 X28.5218Y28.7224
G01 X28.4809Y28.7512
G01 X28.4402Y28.7769
G01 X28.3766Y28.8118
G01 X28.3354Y28.8312
G01 X28.2673Y28.8584
G01 X28.2202Y28.8739
G01 X28.1781Y28.8855
G01 X28.1510Y28.8919
G01 X28.0843Y28.9042
G01 X28.0370Y28.9102
G01 X27.9891Y28.9137
G01 X27.9400Y28.9150
G01 X-0.0000Y28.9150
G01 X-0.0491Y28.9137
G01 X-0.0970Y28.9102
G01 X-0.1443Y28.9042
G01 X-0.2110Y28.8919
G01 X-0.2381Y28.8855
G01 X-0.2802Y28.8739
G01 X-0.3273Y28.8584
G01 X-0.3954Y28.8312
G01 X-0.4366Y28.8118
G01 X-0.5002Y28.7769
G01 X-0.5409Y28.7512
G01 X-0.5818Y28.7224
G01 X-0.6341Y28.6806
G01 X-0.6557Y28.6616
G01 X-0.6894Y28.6294
G01 X-0.7216Y28.5957
G01 X-0.7406Y28.5741
G01 X-0.7824Y28.5218
G01 X-0.8112Y28.4809
G01 X-0.8369Y28.4402
G01 X-0.8718Y28.3766
G01 X-0.8912Y28.3354
G01 X-0.9184Y28.2673
G01 X-0.9339Y28.2202
G01 X-0.9455Y28.1781
G01 X-0.9519Y28.1510
G01 X-0.9642Y28.0843
G01 X-0.9702Y28.0370
G01 X-0.9737Y27.9891
G01 X-0.9750Y27.9400
G01 X-0.9750Y-0.0000
G01 X-0.9739Y-0.0466
G00 X-0.9739Y-0.0466
G01 Z-0.5000
G01 X-0.9702Y-0.0970
G01 X-0.9646Y-0.1418
G01 X-0.9519Y-0.2110
G01 X-0.9460Y-0.2357
G01 X-0.9339Y-0.2802
G01 X-0.9184Y-0.3273
G01 X-0.8912Y-0.3954
G01 X-0.8718Y-0.4366
G01 X-0.8369Y-0.5002
G01 X-0.8112Y-0.5409
G01 X-0.7824Y-0.5818
G01 X-0.7406Y-0.6341
G01 X-0.7216Y-0.6557
G01 X-0.6894Y-0.6894
G01 X-0.6557Y-0.7216
G01 X-0.6341Y-0.7406
G01 X-0.5818Y-0.7824
G01 X-0.5409Y-0.8112
G01 X-0.5002Y-0.8369
G01 X-0.4366Y-0.8718
G01 X-0.3954Y-0.8912
G01 X-0.3273Y-0.9184
G01 X-0.2802Y-0.9339
G01 X-0.2381Y-0.9455
G01 X-0.2110Y-0.9519
G01 X-0.1443Y-0.9642
G01 X-0.0970Y-0.9702
G01 X-0.0491Y-0.9737
G01 X-0.0000Y-0.9750
G01 X27.9400Y-0.9750
G01 X27.9891Y-0.9737
G01 X28.0370Y-0.9702
G01 X28.0843Y-0.9642
G01 X28.1510Y-0.9519
G01 X28.1781Y-0.9455
G01 X28.2202Y-0.9339
G01 X28.2673Y-0.9184
G01 X28.3354Y-0.8912
G01 X28.3766Y-0.8718
G01 X28.4402Y-0.8369
G01 X28.4809Y-0.8112
G01 X28.5218Y-0.7824
G01 X28.5741Y-0.7406
G01 X28.5957Y-0.7216
G01 X28.6294Y-0.6894
G01 X28.6616Y-0.6557
G01 X28.6806Y-0.6341
G01 X28.7224Y-0.5818
G01 X28.7512Y-0.5409
G01 X28.7769Y-0.5002
G01 X28.8118Y-0.4366
G01 X28.8312Y-0.3954
G01 X28.8584Y-0.3273
G01 X28.8739Y-0.2802
G01 X28.8855Y-0.2381
G01 X28.8919Y-0.2110
G01 X28.9042Y-0.1443
G01 X28.9102Y-0.0970
G01 X28.9137Y-0.0491
G01 X28.9150Y-0.0000
G01 X28.9150Y27.9400
G01 X28.9137Y27.9891
G01 X28.9102Y28.0370
G01 X28.9042Y28.0843
G01 X28.8919Y28.1510
G01 X28.8855Y28.1781
G01 X28.8739Y28.2202
G01 X28.8584Y28.2673
G01 X28.8312Y28.3354
G01 X28.8118Y28.3766
G01 X28.7769Y28.4402
G01 X28.7512Y28.4809
G01 X28.7224Y28.5218
G01 X28.6806Y28.5741
G01 X28.6616Y28.5957
G01 X28.6294Y28.6294
G01 X28.5957Y28.6616
G01 X28.5741Y28.6806
G01 X28.5218Y28.7224
G01 X28.4809Y28.7512
G01 X28.4402Y28.7769
G01 X28.3766Y28.8118
G01 X28.3354Y28.8312
G01 X28.2673Y28.8584
G01 X28.2202Y28.8739
G01 X28.1781Y28.8855
G01 X28.1510Y28.8919
G01 X28.0843Y28.9042
G01 X28.0370Y28.9102
G01 X27.9891Y28.9137
G01 X27.9400Y28.9150
G01 X-0.0000Y28.9150
G01 X-0.0491Y28.9137
G01 X-0.0970Y28.9102
G01 X-0.1443Y28.9042
G01 X-0.2110Y28.8919
G01 X-0.2381Y28.8855
G01 X-0.2802Y28.8739
G01 X-0.3273Y28.8584
G01 X-0.3954Y28.8312
G01 X-0.4366Y28.8118
G01 X-0.5002Y28.7769
G01 X-0.5409Y28.7512
G01 X-0.5818Y28.7224
G01 X-0.6341Y28.6806
G01 X-0.6557Y28.6616
G01 X-0.6894Y28.6294
G01 X-0.7216Y28.5957
G01 X-0.7406Y28.5741
G01 X-0.7824Y28.5218
G01 X-0.8112Y28.4809
G01 X-0.8369Y28.4402
G01 X-0.8718Y28.3766
G01 X-0.8912Y28.3354
G01 X-0.9184Y28.2673
G01 X-0.9339Y28.2202
G01 X-0.9455Y28.1781
G01 X-0.9519Y28.1510
G01 X-0.9642Y28.0843
G01 X-0.9702Y28.0370
G01 X-0.9737Y27.9891
G01 X-0.9750Y27.9400
G01 X-0.9750Y-0.0000
G01 X-0.9739Y-0.0466
G00 X-0.9739Y-0.0466
G01 Z-0.7500
G01 X-0.9702Y-0.0970
G01 X-0.9646Y-0.1418
G01 X-0.9519Y-0.2110
G01 X-0.9460Y-0.2357
G01 X-0.9339Y-0.2802
G01 X-0.9184Y-0.3273
G01 X-0.8912Y-0.3954
G01 X-0.8718Y-0.4366
G01 X-0.8369Y-0.5002
G01 X-0.8112Y-0.5409
G01 X-0.7824Y-0.5818
G01 X-0.7406Y-0.6341
G01 X-0.7216Y-0.6557
G01 X-0.6894Y-0.6894
G01 X-0.6557Y-0.7216
G01 X-0.6341Y-0.7406
G01 X-0.5818Y-0.7824
G01 X-0.5409Y-0.8112
G01 X-0.5002Y-0.8369
G01 X-0.4366Y-0.8718
G01 X-0.3954Y-0.8912
G01 X-0.3273Y-0.9184
G01 X-0.2802Y-0.9339
G01 X-0.2381Y-0.9455
G01 X-0.2110Y-0.9519
G01 X-0.1443Y-0.9642
G01 X-0.0970Y-0.9702
G01 X-0.0491Y-0.9737
G01 X-0.0000Y-0.9750
G01 X27.9400Y-0.9750
G01 X27.9891Y-0.9737
G01 X28.0370Y-0.9702
G01 X28.0843Y-0.9642
G01 X28.1510Y-0.9519
G01 X28.1781Y-0.9455
G01 X28.2202Y-0.9339
G01 X28.2673Y-0.9184
G01 X28.3354Y-0.8912
G01 X28.3766Y-0.8718
G01 X28.4402Y-0.8369
G01 X28.4809Y-0.8112
G01 X28.5218Y-0.7824
G01 X28.5741Y-0.7406
G01 X28.5957Y-0.7216
G01 X28.6294Y-0.6894
G01 X28.6616Y-0.6557
G01 X28.6806Y-0.6341
G01 X28.7224Y-0.5818
G01 X28.7512Y-0.5409
G01 X28.7769Y-0.5002
G01 X28.8118Y-0.4366
G01 X28.8312Y-0.3954
G01 X28.8584Y-0.3273
G01 X28.8739Y-0.2802
G01 X28.8855Y-0.2381
G01 X28.8919Y-0.2110
G01 X28.9042Y-0.1443
G01 X28.9102Y-0.0970
G01 X28.9137Y-0.0491
G01 X28.9150Y-0.0000
G01 X28.9150Y27.9400
G01 X28.9137Y27.9891
G01 X28.9102Y28.0370
G01 X28.9042Y28.0843
G01 X28.8919Y28.1510
G01 X28.8855Y28.1781
G01 X28.8739Y28.2202
G01 X28.8584Y28.2673
G01 X28.8312Y28.3354
G01 X28.8118Y28.3766
G01 X28.7769Y28.4402
G01 X28.7512Y28.4809
G01 X28.7224Y28.5218
G01 X28.6806Y28.5741
G01 X28.6616Y28.5957
G01 X28.6294Y28.6294
G01 X28.5957Y28.6616
G01 X28.5741Y28.6806
G01 X28.5218Y28.7224
G01 X28.4809Y28.7512
G01 X28.4402Y28.7769
G01 X28.3766Y28.8118
G01 X28.3354Y28.8312
G01 X28.2673Y28.8584
G01 X28.2202Y28.8739
G01 X28.1781Y28.8855
G01 X28.1510Y28.8919
G01 X28.0843Y28.9042
G01 X28.0370Y28.9102
G01 X27.9891Y28.9137
G01 X27.9400Y28.9150
G01 X-0.0000Y28.9150
G01 X-0.0491Y28.9137
G01 X-0.0970Y28.9102
G01 X-0.1443Y28.9042
G01 X-0.2110Y28.8919
G01 X-0.2381Y28.8855
G01 X-0.2802Y28.8739
G01 X-0.3273Y28.8584
G01 X-0.3954Y28.8312
G01 X-0.4366Y28.8118
G01 X-0.5002Y28.7769
G01 X-0.5409Y28.7512
G01 X-0.5818Y28.7224
G01 X-0.6341Y28.6806
G01 X-0.6557Y28.6616
G01 X-0.6894Y28.6294
G01 X-0.7216Y28.5957
G01 X-0.7406Y28.5741
G01 X-0.7824Y28.5218
G01 X-0.8112Y28.4809
G01 X-0.8369Y28.4402
G01 X-0.8718Y28.3766
G01 X-0.8912Y28.3354
G01 X-0.9184Y28.2673
G01 X-0.9339Y28.2202
G01 X-0.9455Y28.1781
G01 X-0.9519Y28.1510
G01 X-0.9642Y28.0843
G01 X-0.9702Y28.0370
G01 X-0.9737Y27.9891
G01 X-0.9750Y27.9400
G01 X-0.9750Y-0.0000
G01 X-0.9739Y-0.0466
G00 X-0.9739Y-0.0466
G01 Z-1.0000
G01 X-0.9702Y-0.0970
G01 X-0.9646Y-0.1418
G01 X-0.9519Y-0.2110
G01 X-0.9460Y-0.2357
G01 X-0.9339Y-0.2802
G01 X-0.9184Y-0.3273
G01 X-0.8912Y-0.3954
G01 X-0.8718Y-0.4366
G01 X-0.8369Y-0.5002
G01 X-0.8112Y-0.5409
G01 X-0.7824Y-0.5818
G01 X-0.7406Y-0.6341
G01 X-0.7216Y-0.6557
G01 X-0.6894Y-0.6894
G01 X-0.6557Y-0.7216
G01 X-0.6341Y-0.7406
G01 X-0.5818Y-0.7824
G01 X-0.5409Y-0.8112
G01 X-0.5002Y-0.8369
G01 X-0.4366Y-0.8718
G01 X-0.3954Y-0.8912
G01 X-0.3273Y-0.9184
G01 X-0.2802Y-0.9339
G01 X-0.2381Y-0.9455
G01 X-0.2110Y-0.9519
G01 X-0.1443Y-0.9642
G01 X-0.0970Y-0.9702
G01 X-0.0491Y-0.9737
G01 X-0.0000Y-0.9750
G01 X27.9400Y-0.9750
G01 X27.9891Y-0.9737
G01 X28.0370Y-0.9702
G01 X28.0843Y-0.9642
G01 X28.1510Y-0.9519
G01 X28.1781Y-0.9455
G01 X28.2202Y-0.9339
G01 X28.2673Y-0.9184
G01 X28.3354Y-0.8912
G01 X28.3766Y-0.8718
G01 X28.4402Y-0.8369
G01 X28.4809Y-0.8112
G01 X28.5218Y-0.7824
G01 X28.5741Y-0.7406
G01 X28.5957Y-0.7216
G01 X28.6294Y-0.6894
G01 X28.6616Y-0.6557
G01 X28.6806Y-0.6341
G01 X28.7224Y-0.5818
G01 X28.7512Y-0.5409
G01 X28.7769Y-0.5002
G01 X28.8118Y-0.4366
G01 X28.8312Y-0.3954
G01 X28.8584Y-0.3273
G01 X28.8739Y-0.2802
G01 X28.8855Y-0.2381
G01 X28.8919Y-0.2110
G01 X28.9042Y-0.1443
G01 X28.9102Y-0.0970
G01 X28.9137Y-0.0491
G01 X28.9150Y-0.0000
G01 X28.9150Y27.9400
G01 X28.9137Y27.9891
G01 X28.9102Y28.0370
G01 X28.9042Y28.0843
G01 X28.8919Y28.1510
G01 X28.8855Y28.1781
G01 X28.8739Y28.2202
G01 X28.8584Y28.2673
G01 X28.8312Y28.3354
G01 X28.8118Y28.3766
G01 X28.7769Y28.4402
G01 X28.7512Y28.4809
G01 X28.7224Y28.5218
G01 X28.6806Y28.5741
G01 X28.6616Y28.5957
G01 X28.6294Y28.6294
G01 X28.5957Y28.6616
G01 X28.5741Y28.6806
G01 X28.5218Y28.7224
G01 X28.4809Y28.7512
G01 X28.4402Y28.7769
G01 X28.3766Y28.8118
G01 X28.3354Y28.8312
G01 X28.2673Y28.8584
G01 X28.2202Y28.8739
G01 X28.1781Y28.8855
G01 X28.1510Y28.8919
G01 X28.0843Y28.9042
G01 X28.0370Y28.9102
G01 X27.9891Y28.9137
G01 X27.9400Y28.9150
G01 X-0.0000Y28.9150
G01 X-0.0491Y28.9137
G01 X-0.0970Y28.9102
G01 X-0.1443Y28.9042
G01 X-0.2110Y28.8919
G01 X-0.2381Y28.8855
G01 X-0.2802Y28.8739
G01 X-0.3273Y28.8584
G01 X-0.3954Y28.8312
G01 X-0.4366Y28.8118
G01 X-0.5002Y28.7769
G01 X-0.5409Y28.7512
G01 X-0.5818Y28.7224
G01 X-0.6341Y28.6806
G01 X-0.6557Y28.6616
G01 X-0.6894Y28.6294
G01 X-0.7216Y28.5957
G01 X-0.7406Y28.5741
G01 X-0.7824Y28.5218
G01 X-0.8112Y28.4809
G01 X-0.8369Y28.4402
G01 X-0.8718Y28.3766
G01 X-0.8912Y28.3354
G01 X-0.9184Y28.2673
G01 X-0.9339Y28.2202
G01 X-0.9455Y28.1781
G01 X-0.9519Y28.1510
G01 X-0.9642Y28.0843
G01 X-0.9702Y28.0370
G01 X-0.9737Y27.9891
G01 X-0.9750Y27.9400
G01 X-0.9750Y-0.0000
G01 X-0.9739Y-0.0466
G00 X-0.9739Y-0.0466
G01 Z-1.2500
G01 X-0.9702Y-0.0970
G01 X-0.9646Y-0.1418
G01 X-0.9519Y-0.2110
G01 X-0.9460Y-0.2357
G01 X-0.9339Y-0.2802
G01 X-0.9184Y-0.3273
G01 X-0.8912Y-0.3954
G01 X-0.8718Y-0.4366
G01 X-0.8369Y-0.5002
G01 X-0.8112Y-0.5409
G01 X-0.7824Y-0.5818
G01 X-0.7406Y-0.6341
G01 X-0.7216Y-0.6557
G01 X-0.6894Y-0.6894
G01 X-0.6557Y-0.7216
G01 X-0.6341Y-0.7406
G01 X-0.5818Y-0.7824
G01 X-0.5409Y-0.8112
G01 X-0.5002Y-0.8369
G01 X-0.4366Y-0.8718
G01 X-0.3954Y-0.8912
G01 X-0.3273Y-0.9184
G01 X-0.2802Y-0.9339
G01 X-0.2381Y-0.9455
G01 X-0.2110Y-0.9519
G01 X-0.1443Y-0.9642
G01 X-0.0970Y-0.9702
G01 X-0.0491Y-0.9737
G01 X-0.0000Y-0.9750
G01 X27.9400Y-0.9750
G01 X27.9891Y-0.9737
G01 X28.0370Y-0.9702
G01 X28.0843Y-0.9642
G01 X28.1510Y-0.9519
G01 X28.1781Y-0.9455
G01 X28.2202Y-0.9339
G01 X28.2673Y-0.9184
G01 X28.3354Y-0.8912
G01 X28.3766Y-0.8718
G01 X28.4402Y-0.8369
G01 X28.4809Y-0.8112
G01 X28.5218Y-0.7824
G01 X28.5741Y-0.7406
G01 X28.5957Y-0.7216
G01 X28.6294Y-0.6894
G01 X28.6616Y-0.6557
G01 X28.6806Y-0.6341
G01 X28.7224Y-0.5818
G01 X28.7512Y-0.5409
G01 X28.7769Y-0.5002
G01 X28.8118Y-0.4366
G01 X28.8312Y-0.3954
G01 X28.8584Y-0.3273
G01 X28.8739Y-0.2802
G01 X28.8855Y-0.2381
G01 X28.8919Y-0.2110
G01 X28.9042Y-0.1443
G01 X28.9102Y-0.0970
G01 X28.9137Y-0.0491
G01 X28.9150Y-0.0000
G01 X28.9150Y27.9400
G01 X28.9137Y27.9891
G01 X28.9102Y28.0370
G01 X28.9042Y28.0843
G01 X28.8919Y28.1510
G01 X28.8855Y28.1781
G01 X28.8739Y28.2202
G01 X28.8584Y28.2673
G01 X28.8312Y28.3354
G01 X28.8118Y28.3766
G01 X28.7769Y28.4402
G01 X28.7512Y28.4809
G01 X28.7224Y28.5218
G01 X28.6806Y28.5741
G01 X28.6616Y28.5957
G01 X28.6294Y28.6294
G01 X28.5957Y28.6616
G01 X28.5741Y28.6806
G01 X28.5218Y28.7224
G01 X28.4809Y28.7512
G01 X28.4402Y28.7769
G01 X28.3766Y28.8118
G01 X28.3354Y28.8312
G01 X28.2673Y28.8584
G01 X28.2202Y28.8739
G01 X28.1781Y28.8855
G01 X28.1510Y28.8919
G01 X28.0843Y28.9042
G01 X28.0370Y28.9102
G01 X27.9891Y28.9137
G01 X27.9400Y28.9150
G01 X-0.0000Y28.9150
G01 X-0.0491Y28.9137
G01 X-0.0970Y28.9102
G01 X-0.1443Y28.9042
G01 X-0.2110Y28.8919
G01 X-0.2381Y28.8855
G01 X-0.2802Y28.8739
G01 X-0.3273Y28.8584
G01 X-0.3954Y28.8312
G01 X-0.4366Y28.8118
G01 X-0.5002Y28.7769
G01 X-0.5409Y28.7512
G01 X-0.5818Y28.7224
G01 X-0.6341Y28.6806
G01 X-0.6557Y28.6616
G01 X-0.6894Y28.6294
G01 X-0.7216Y28.5957
G01 X-0.7406Y28.5741
G01 X-0.7824Y28.5218
G01 X-0.8112Y28.4809
G01 X-0.8369Y28.4402
G01 X-0.8718Y28.3766
G01 X-0.8912Y28.3354
G01 X-0.9184Y28.2673
G01 X-0.9339Y28.2202
G01 X-0.9455Y28.1781
G01 X-0.9519Y28.1510
G01 X-0.9642Y28.0843
G01 X-0.9702Y28.0370
G01 X-0.9737Y27.9891
G01 X-0.9750Y27.9400
G01 X-0.9750Y-0.0000
G01 X-0.9739Y-0.0466
G00 X-0.9739Y-0.0466
G01 Z-1.5000
G01 X-0.9702Y-0.0970
G01 X-0.9646Y-0.1418
G01 X-0.9519Y-0.2110
G01 X-0.9460Y-0.2357
G01 X-0.9339Y-0.2802
G01 X-0.9184Y-0.3273
G01 X-0.8912Y-0.3954
G01 X-0.8718Y-0.4366
G01 X-0.8369Y-0.5002
G01 X-0.8112Y-0.5409
G01 X-0.7824Y-0.5818
G01 X-0.7406Y-0.6341
G01 X-0.7216Y-0.6557
G01 X-0.6894Y-0.6894
G01 X-0.6557Y-0.7216
G01 X-0.6341Y-0.7406
G01 X-0.5818Y-0.7824
G01 X-0.5409Y-0.8112
G01 X-0.5002Y-0.8369
G01 X-0.4366Y-0.8718
G01 X-0.3954Y-0.8912
G01 X-0.3273Y-0.9184
G01 X-0.2802Y-0.9339
G01 X-0.2381Y-0.9455
G01 X-0.2110Y-0.9519
G01 X-0.1443Y-0.9642
G01 X-0.0970Y-0.9702
G01 X-0.0491Y-0.9737
G01 X-0.0000Y-0.9750
G01 X27.9400Y-0.9750
G01 X27.9891Y-0.9737
G01 X28.0370Y-0.9702
G01 X28.0843Y-0.9642
G01 X28.1510Y-0.9519
G01 X28.1781Y-0.9455
G01 X28.2202Y-0.9339
G01 X28.2673Y-0.9184
G01 X28.3354Y-0.8912
G01 X28.3766Y-0.8718
G01 X28.4402Y-0.8369
G01 X28.4809Y-0.8112
G01 X28.5218Y-0.7824
G01 X28.5741Y-0.7406
G01 X28.5957Y-0.7216
G01 X28.6294Y-0.6894
G01 X28.6616Y-0.6557
G01 X28.6806Y-0.6341
G01 X28.7224Y-0.5818
G01 X28.7512Y-0.5409
G01 X28.7769Y-0.5002
G01 X28.8118Y-0.4366
G01 X28.8312Y-0.3954
G01 X28.8584Y-0.3273
G01 X28.8739Y-0.2802
G01 X28.8855Y-0.2381
G01 X28.8919Y-0.2110
G01 X28.9042Y-0.1443
G01 X28.9102Y-0.0970
G01 X28.9137Y-0.0491
G01 X28.9150Y-0.0000
G01 X28.9150Y27.9400
G01 X28.9137Y27.9891
G01 X28.9102Y28.0370
G01 X28.9042Y28.0843
G01 X28.8919Y28.1510
G01 X28.8855Y28.1781
G01 X28.8739Y28.2202
G01 X28.8584Y28.2673
G01 X28.8312Y28.3354
G01 X28.8118Y28.3766
G01 X28.7769Y28.4402
G01 X28.7512Y28.4809
G01 X28.7224Y28.5218
G01 X28.6806Y28.5741
G01 X28.6616Y28.5957
G01 X28.6294Y28.6294
G01 X28.5957Y28.6616
G01 X28.5741Y28.6806
G01 X28.5218Y28.7224
G01 X28.4809Y28.7512
G01 X28.4402Y28.7769
G01 X28.3766Y28.8118
G01 X28.3354Y28.8312
G01 X28.2673Y28.8584
G01 X28.2202Y28.8739
G01 X28.1781Y28.8855
G01 X28.1510Y28.8919
G01 X28.0843Y28.9042
G01 X28.0370Y28.9102
G01 X27.9891Y28.9137
G01 X27.9400Y28.9150
G01 X-0.0000Y28.9150
G01 X-0.0491Y28.9137
G01 X-0.0970Y28.9102
G01 X-0.1443Y28.9042
G01 X-0.2110Y28.8919
G01 X-0.2381Y28.8855
G01 X-0.2802Y28.8739
G01 X-0.3273Y28.8584
G01 X-0.3954Y28.8312
G01 X-0.4366Y28.8118
G01 X-0.5002Y28.7769
G01 X-0.5409Y28.7512
G01 X-0.5818Y28.7224
G01 X-0.6341Y28.6806
G01 X-0.6557Y28.6616
G01 X-0.6894Y28.6294
G01 X-0.7216Y28.5957
G01 X-0.7406Y28.5741
G01 X-0.7824Y28.5218
G01 X-0.8112Y28.4809
G01 X-0.8369Y28.4402
G01 X-0.8718Y28.3766
G01 X-0.8912Y28.3354
G01 X-0.9184Y28.2673
G01 X-0.9339Y28.2202
G01 X-0.9455Y28.1781
G01 X-0.9519Y28.1510
G01 X-0.9642Y28.0843
G01 X-0.9702Y28.0370
G01 X-0.9737Y27.9891
G01 X-0.9750Y27.9400
G01 X-0.9750Y-0.0000
G01 X-0.9739Y-0.0466
G00 X-0.9739Y-0.0466
G01 Z-1.7500
G01 X-0.9702Y-0.0970
G01 X-0.9646Y-0.1418
G01 X-0.9519Y-0.2110
G01 X-0.9460Y-0.2357
G01 X-0.9339Y-0.2802
G01 X-0.9184Y-0.3273
G01 X-0.8912Y-0.3954
G01 X-0.8718Y-0.4366
G01 X-0.8369Y-0.5002
G01 X-0.8112Y-0.5409
G01 X-0.7824Y-0.5818
G01 X-0.7406Y-0.6341
G01 X-0.7216Y-0.6557
G01 X-0.6894Y-0.6894
G01 X-0.6557Y-0.7216
G01 X-0.6341Y-0.7406
G01 X-0.5818Y-0.7824
G01 X-0.5409Y-0.8112
G01 X-0.5002Y-0.8369
G01 X-0.4366Y-0.8718
G01 X-0.3954Y-0.8912
G01 X-0.3273Y-0.9184
G01 X-0.2802Y-0.9339
G01 X-0.2381Y-0.9455
G01 X-0.2110Y-0.9519
G01 X-0.1443Y-0.9642
G01 X-0.0970Y-0.9702
G01 X-0.0491Y-0.9737
G01 X-0.0000Y-0.9750
G01 X27.9400Y-0.9750
G01 X27.9891Y-0.9737
G01 X28.0370Y-0.9702
G01 X28.0843Y-0.9642
G01 X28.1510Y-0.9519
G01 X28.1781Y-0.9455
G01 X28.2202Y-0.9339
G01 X28.2673Y-0.9184
G01 X28.3354Y-0.8912
G01 X28.3766Y-0.8718
G01 X28.4402Y-0.8369
G01 X28.4809Y-0.8112
G01 X28.5218Y-0.7824
G01 X28.5741Y-0.7406
G01 X28.5957Y-0.7216
G01 X28.6294Y-0.6894
G01 X28.6616Y-0.6557
G01 X28.6806Y-0.6341
G01 X28.7224Y-0.5818
G01 X28.7512Y-0.5409
G01 X28.7769Y-0.5002
G01 X28.8118Y-0.4366
G01 X28.8312Y-0.3954
G01 X28.8584Y-0.3273
G01 X28.8739Y-0.2802
G01 X28.8855Y-0.2381
G01 X28.8919Y-0.2110
G01 X28.9042Y-0.1443
G01 X28.9102Y-0.0970
G01 X28.9137Y-0.0491
G01 X28.9150Y-0.0000
G01 X28.9150Y27.9400
G01 X28.9137Y27.9891
G01 X28.9102Y28.0370
G01 X28.9042Y28.0843
G01 X28.8919Y28.1510
G01 X28.8855Y28.1781
G01 X28.8739Y28.2202
G01 X28.8584Y28.2673
G01 X28.8312Y28.3354
G01 X28.8118Y28.3766
G01 X28.7769Y28.4402
G01 X28.7512Y28.4809
G01 X28.7224Y28.5218
G01 X28.6806Y28.5741
G01 X28.6616Y28.5957
G01 X28.6294Y28.6294
G01 X28.5957Y28.6616
G01 X28.5741Y28.6806
G01 X28.5218Y28.7224
G01 X28.4809Y28.7512
G01 X28.4402Y28.7769
G01 X28.3766Y28.8118
G01 X28.3354Y28.8312
G01 X28.2673Y28.8584
G01 X28.2202Y28.8739
G01 X28.1781Y28.8855
G01 X28.1510Y28.8919
G01 X28.0843Y28.9042
G01 X28.0370Y28.9102
G01 X27.9891Y28.9137
G01 X27.9400Y28.9150
G01 X-0.0000Y28.9150
G01 X-0.0491Y28.9137
G01 X-0.0970Y28.9102
G01 X-0.1443Y28.9042
G01 X-0.2110Y28.8919
G01 X-0.2381Y28.8855
G01 X-0.2802Y28.8739
G01 X-0.3273Y28.8584
G01 X-0.3954Y28.8312
G01 X-0.4366Y28.8118
G01 X-0.5002Y28.7769
G01 X-0.5409Y28.7512
G01 X-0.5818Y28.7224
G01 X-0.6341Y28.6806
G01 X-0.6557Y28.6616
G01 X-0.6894Y28.6294
G01 X-0.7216Y28.5957
G01 X-0.7406Y28.5741
G01 X-0.7824Y28.5218
G01 X-0.8112Y28.4809
G01 X-0.8369Y28.4402
G01 X-0.8718Y28.3766
G01 X-0.8912Y28.3354
G01 X-0.9184Y28.2673
G01 X-0.9339Y28.2202
G01 X-0.9455Y28.1781
G01 X-0.9519Y28.1510
G01 X-0.9642Y28.0843
G01 X-0.9702Y28.0370
G01 X-0.9737Y27.9891
G01 X-0.9750Y27.9400
G01 X-0.9750Y-0.0000
G01 X-0.9739Y-0.0466
G00 X-0.9739Y-0.0466
G01 Z-2.0000
G01 X-0.9702Y-0.0970
G01 X-0.9646Y-0.1418
G01 X-0.9519Y-0.2110
G01 X-0.9460Y-0.2357
G01 X-0.9339Y-0.2802
G01 X-0.9184Y-0.3273
G01 X-0.8912Y-0.3954
G01 X-0.8718Y-0.4366
G01 X-0.8369Y-0.5002
G01 X-0.8112Y-0.5409
G01 X-0.7824Y-0.5818
G01 X-0.7406Y-0.6341
G01 X-0.7216Y-0.6557
G01 X-0.6894Y-0.6894
G01 X-0.6557Y-0.7216
G01 X-0.6341Y-0.7406
G01 X-0.5818Y-0.7824
G01 X-0.5409Y-0.8112
G01 X-0.5002Y-0.8369
G01 X-0.4366Y-0.8718
G01 X-0.3954Y-0.8912
G01 X-0.3273Y-0.9184
G01 X-0.2802Y-0.9339
G01 X-0.2381Y-0.9455
G01 X-0.2110Y-0.9519
G01 X-0.1443Y-0.9642
G01 X-0.0970Y-0.9702
G01 X-0.0491Y-0.9737
G01 X-0.0000Y-0.9750
G01 X27.9400Y-0.9750
G01 X27.9891Y-0.9737
G01 X28.0370Y-0.9702
G01 X28.0843Y-0.9642
G01 X28.1510Y-0.9519
G01 X28.1781Y-0.9455
G01 X28.2202Y-0.9339
G01 X28.2673Y-0.9184
G01 X28.3354Y-0.8912
G01 X28.3766Y-0.8718
G01 X28.4402Y-0.8369
G01 X28.4809Y-0.8112
G01 X28.5218Y-0.7824
G01 X28.5741Y-0.7406
G01 X28.5957Y-0.7216
G01 X28.6294Y-0.6894
G01 X28.6616Y-0.6557
G01 X28.6806Y-0.6341
G01 X28.7224Y-0.5818
G01 X28.7512Y-0.5409
G01 X28.7769Y-0.5002
G01 X28.8118Y-0.4366
G01 X28.8312Y-0.3954
G01 X28.8584Y-0.3273
G01 X28.8739Y-0.2802
G01 X28.8855Y-0.2381
G01 X28.8919Y-0.2110
G01 X28.9042Y-0.1443
G01 X28.9102Y-0.0970
G01 X28.9137Y-0.0491
G01 X28.9150Y-0.0000
G01 X28.9150Y27.9400
G01 X28.9137Y27.9891
G01 X28.9102Y28.0370
G01 X28.9042Y28.0843
G01 X28.8919Y28.1510
G01 X28.8855Y28.1781
G01 X28.8739Y28.2202
G01 X28.8584Y28.2673
G01 X28.8312Y28.3354
G01 X28.8118Y28.3766
G01 X28.7769Y28.4402
G01 X28.7512Y28.4809
G01 X28.7224Y28.5218
G01 X28.6806Y28.5741
G01 X28.6616Y28.5957
G01 X28.6294Y28.6294
G01 X28.5957Y28.6616
G01 X28.5741Y28.6806
G01 X28.5218Y28.7224
G01 X28.4809Y28.7512
G01 X28.4402Y28.7769
G01 X28.3766Y28.8118
G01 X28.3354Y28.8312
G01 X28.2673Y28.8584
G01 X28.2202Y28.8739
G01 X28.1781Y28.8855
G01 X28.1510Y28.8919
G01 X28.0843Y28.9042
G01 X28.0370Y28.9102
G01 X27.9891Y28.9137
G01 X27.9400Y28.9150
G01 X-0.0000Y28.9150
G01 X-0.0491Y28.9137
G01 X-0.0970Y28.9102
G01 X-0.1443Y28.9042
G01 X-0.2110Y28.8919
G01 X-0.2381Y28.8855
G01 X-0.2802Y28.8739
G01 X-0.3273Y28.8584
G01 X-0.3954Y28.8312
G01 X-0.4366Y28.8118
G01 X-0.5002Y28.7769
G01 X-0.5409Y28.7512
G01 X-0.5818Y28.7224
G01 X-0.6341Y28.6806
G01 X-0.6557Y28.6616
G01 X-0.6894Y28.6294
G01 X-0.7216Y28.5957
G01 X-0.7406Y28.5741
G01 X-0.7824Y28.5218
G01 X-0.8112Y28.4809
G01 X-0.8369Y28.4402
G01 X-0.8718Y28.3766
G01 X-0.8912Y28.3354
G01 X-0.9184Y28.2673
G01 X-0.9339Y28.2202
G01 X-0.9455Y28.1781
G01 X-0.9519Y28.1510
G01 X-0.9642Y28.0843
G01 X-0.9702Y28.0370
G01 X-0.9737Y27.9891
G01 X-0.9750Y27.9400
G01 X-0.9750Y-0.0000
G01 X-0.9739Y-0.0466
G00 Z3.0000
G00 Z3.0000
G00 X0Y0
M05
G0 Z20
G0 X0 Y25