G0 Z20
G21
G90
G94
F120.00
G00 Z3.0000
M03 S45
G4 P1
G00 X-1.3350Y1.2414
G01 Z-0.2500
G01 X-1.3350Y12.2850
G01 X-0.5474Y12.2850
G01 X-0.4939Y12.2473
G01 X-0.4369Y12.2107
G01 X-0.3729Y12.1731
G01 X-0.3120Y12.1408
G01 X-0.3003Y1.2443
G01 X-1.3350Y1.2414
G01 X-1.4550Y1.1211
G01 X-1.4550Y12.4050
G01 X-0.5075Y12.4050
G01 X-0.4678Y12.3755
G01 X-0.4296Y12.3487
G01 X-0.3897Y12.3226
G01 X-0.3493Y12.2980
G01 X-0.3108Y12.2758
G01 X-0.2724Y12.2553
G01 X-0.2362Y12.2372
G01 X-0.1908Y12.2160
G01 X-0.1802Y1.1246
G01 X-1.4550Y1.1211
G01 X-1.5750Y1.0007
G01 X-1.5750Y12.5258
G01 X-1.5307Y12.5250
G01 X-0.4658Y12.5250
G01 X-0.4228Y12.4914
G01 X-0.3710Y12.4540
G01 X-0.3251Y12.4238
G01 X-0.2738Y12.3928
G01 X-0.2255Y12.3662
G01 X-0.1789Y12.3428
G01 X-0.1241Y12.3178
G01 X-0.0700Y12.2958
G01 X-0.0601Y1.0050
G01 X-1.5750Y1.0007
G01 X-1.6950Y0.8804
G01 X-1.6950Y12.6554
G01 X-1.6565Y12.6511
G01 X-1.6215Y12.6482
G01 X-1.5767Y12.6459
G01 X-1.5394Y12.6450
G01 X-0.4220Y12.6450
G01 X-0.3968Y12.6236
G01 X-0.3685Y12.6009
G01 X-0.3096Y12.5574
G01 X-0.2566Y12.5224
G01 X-0.1952Y12.4861
G01 X-0.1363Y12.4555
G01 X-0.0711Y12.4256
G01 X-0.0130Y12.4026
G01 X0.0542Y12.3796
G01 X0.0601Y0.8832
G01 X-1.6950Y0.8804
G01 X-1.8150Y0.7602
G01 X-1.8150Y12.7993
G01 X-1.7822Y12.7917
G01 X-1.7503Y12.7853
G01 X-1.6826Y12.7748
G01 X-1.6248Y12.7688
G01 X-1.5541Y12.7653
G01 X-0.3759Y12.7650
G01 X-0.3437Y12.7360
G01 X-0.3140Y12.7109
G01 X-0.2845Y12.6877
G01 X-0.2508Y12.6628
G01 X-0.2191Y12.6410
G01 X-0.1903Y12.6225
G01 X-0.1521Y12.5997
G01 X-0.1179Y12.5808
G01 X-0.0866Y12.5648
G01 X-0.0462Y12.5457
G01 X-0.0109Y12.5305
G01 X0.0208Y12.5181
G01 X0.0609Y12.5037
G01 X0.0944Y12.4928
G01 X0.1319Y12.4821
G01 X0.1751Y12.4712
G01 X0.1800Y0.8996
G01 X0.1807Y0.8633
G01 X0.1825Y0.8285
G01 X0.1891Y0.7623
G01 X-1.8150Y0.7602
G01 X-1.9350Y0.6401
G01 X-1.9350Y12.9635
G01 X-1.8867Y12.9455
G01 X-1.8486Y12.9329
G01 X-1.8069Y12.9211
G01 X-1.7565Y12.9090
G01 X-1.7131Y12.9007
G01 X-1.6632Y12.8933
G01 X-1.6210Y12.8889
G01 X-1.5761Y12.8861
G01 X-1.5303Y12.8850
G01 X-0.3271Y12.8850
G01 X-0.2957Y12.8543
G01 X-0.2564Y12.8191
G01 X-0.2259Y12.7941
G01 X-0.1889Y12.7662
G01 X-0.1581Y12.7446
G01 X-0.1215Y12.7211
G01 X-0.0799Y12.6967
G01 X-0.0416Y12.6764
G01 X0.0016Y12.6558
G01 X0.0395Y12.6395
G01 X0.0748Y12.6261
G01 X0.1244Y12.6092
G01 X0.1651Y12.5974
G01 X0.2160Y12.5850
G01 X0.2539Y12.5774
G01 X0.2982Y12.5704
G01 X0.3000Y0.8978
G01 X0.3006Y0.8662
G01 X0.3025Y0.8326
G01 X0.3089Y0.7716
G01 X0.3145Y0.7359
G01 X0.3203Y0.7062
G01 X0.3267Y0.6781
G01 X0.3363Y0.6416
G01 X-1.9350Y0.6401
G01 X-2.0550Y0.5200
G01 X-2.0550Y13.1604
G01 X-2.0004Y13.1275
G01 X-1.9547Y13.1036
G01 X-1.9241Y13.0893
G01 X-1.8966Y13.0774
G01 X-1.8417Y13.0569
G01 X-1.7884Y13.0403
G01 X-1.7300Y13.0260
G01 X-1.6794Y13.0168
G01 X-1.6474Y13.0122
G01 X-1.6160Y13.0089
G01 X-1.5680Y13.0059
G01 X-1.5315Y13.0050
G01 X-0.2749Y13.0050
G01 X-0.2414Y12.9689
G01 X-0.2101Y12.9386
G01 X-0.1714Y12.9044
G01 X-0.1334Y12.8743
G01 X-0.0865Y12.8410
G01 X-0.0425Y12.8136
G01 X-0.0012Y12.7905
G01 X0.0434Y12.7687
G01 X0.0893Y12.7488
G01 X0.1395Y12.7305
G01 X0.1821Y12.7172
G01 X0.2314Y12.7045
G01 X0.2755Y12.6954
G01 X0.3280Y12.6875
G01 X0.3694Y12.6832
G01 X0.4200Y12.6805
G01 X0.4200Y0.8948
G01 X0.4220Y0.8443
G01 X0.4266Y0.7972
G01 X0.4335Y0.7525
G01 X0.4433Y0.7065
G01 X0.4573Y0.6559
G01 X0.4730Y0.6103
G01 X0.4919Y0.5645
G01 X0.5134Y0.5201
G01 X-2.0550Y0.5200
G01 X-2.1750Y0.4000
G01 X-2.1750Y13.4242
G01 X-2.1497Y13.3957
G01 X-2.1296Y13.3746
G01 X-2.1064Y13.3523
G01 X-2.0771Y13.3260
G01 X-2.0546Y13.3076
G01 X-2.0229Y13.2838
G01 X-1.9967Y13.2656
G01 X-1.9722Y13.2501
G01 X-1.9412Y13.2319
G01 X-1.9162Y13.2185
G01 X-1.8799Y13.2010
G01 X-1.8493Y13.1877
G01 X-1.8215Y13.1770
G01 X-1.7820Y13.1635
G01 X-1.7523Y13.1549
G01 X-1.7160Y13.1458
G01 X-1.6741Y13.1375
G01 X-1.6260Y13.1305
G01 X-1.5879Y13.1271
G01 X-1.5404Y13.1251
G01 X-0.2188Y13.1250
G01 X-0.1872Y13.0869
G01 X-0.1480Y13.0452
G01 X-0.1071Y13.0073
G01 X-0.0702Y12.9770
G01 X-0.0250Y12.9443
G01 X0.0234Y12.9141
G01 X0.0668Y12.8905
G01 X0.1170Y12.8672
G01 X0.1698Y12.8470
G01 X0.2118Y12.8335
G01 X0.2631Y12.8204
G01 X0.3109Y12.8112
G01 X0.3610Y12.8044
G01 X0.4128Y12.8008
G01 X0.4427Y12.8000
G01 X0.5400Y12.8000
G01 X0.5401Y0.8891
G01 X0.5417Y0.8522
G01 X0.5447Y0.8199
G01 X0.5496Y0.7849
G01 X0.5559Y0.7522
G01 X0.5642Y0.7178
G01 X0.5737Y0.6858
G01 X0.5853Y0.6525
G01 X0.5976Y0.6222
G01 X0.6127Y0.5895
G01 X0.6283Y0.5599
G01 X0.6462Y0.5295
G01 X0.6641Y0.5022
G01 X0.6854Y0.4731
G01 X0.7059Y0.4477
G01 X0.7294Y0.4213
G01 X0.7502Y0.4000
G01 X-2.1750Y0.4000
G01 X-2.2950Y0.2800
G01 X-2.2950Y17.7950
G01 X14.2950Y17.7950
G01 X14.2950Y0.2800
G01 X-2.2950Y0.2800
G01 X-2.4150Y0.1600
G01 X-2.4150Y17.9150
G01 X14.4150Y17.9150
G01 X14.4150Y0.1600
G01 X-2.4150Y0.1600
G01 X-2.5350Y0.0400
G01 X-2.5350Y18.0350
G01 X14.5350Y18.0350
G01 X14.5350Y0.0400
G01 X-2.5350Y0.0400
G01 X-2.6550Y-0.0800
G01 X-2.6550Y18.1550
G01 X14.6550Y18.1550
G01 X14.6550Y-0.0800
G01 X-2.6550Y-0.0800
G01 X-2.7750Y-0.2000
G01 X-2.7750Y18.2750
G01 X14.7750Y18.2750
G01 X14.7750Y-0.2000
G01 X-2.7750Y-0.2000
G00 Z3.0000
G00 X-1.2150Y1.3617
G01 Z-0.2500
G01 X-1.2150Y12.1650
G01 X-0.5860Y12.1650
G01 X-0.5493Y12.1400
G01 X-0.5132Y12.1168
G01 X-0.4692Y12.0901
G01 X-0.4319Y12.0686
G01 X-0.4205Y1.3639
G01 X-1.2150Y1.3617
G01 X-1.0950Y1.4821
G01 X-1.0950Y12.0450
G01 X-0.6231Y12.0450
G01 X-0.5537Y12.0008
G01 X-0.5406Y1.4836
G01 X-1.0950Y1.4821
G01 X-0.9750Y1.6024
G01 X-0.9750Y11.9250
G01 X-0.6743Y11.9250
G01 X-0.6608Y1.6033
G01 X-0.9750Y1.6024
G01 X-0.8550Y1.7227
G01 X-0.8550Y11.8050
G01 X-0.7941Y11.8050
G01 X-0.7809Y1.7229
G01 X-0.8550Y1.7227
G00 Z3.0000
G00 X3.6001Y1.3951
G01 Z-0.2500
G01 X3.6030Y1.3757
G01 X3.6096Y1.3572
G01 X3.6197Y1.3404
G01 X3.6328Y1.3259
G01 X3.6486Y1.3142
G01 X3.6663Y1.3058
G01 X3.6853Y1.3011
G01 X3.7000Y1.3000
G01 X5.7049Y1.3001
G01 X5.7147Y1.3011
G01 X5.7337Y1.3058
G01 X5.7514Y1.3142
G01 X5.7672Y1.3259
G01 X5.7803Y1.3404
G01 X5.7904Y1.3572
G01 X5.7970Y1.3757
G01 X5.7989Y1.3853
G01 X5.8000Y1.4000
G01 X5.8000Y16.0000
G01 X5.7989Y16.0147
G01 X5.7942Y16.0337
G01 X5.7858Y16.0514
G01 X5.7741Y16.0672
G01 X5.7596Y16.0803
G01 X5.7514Y16.0858
G01 X5.7337Y16.0942
G01 X5.7147Y16.0989
G01 X5.7000Y16.1000
G01 X3.6951Y16.0999
G01 X3.6853Y16.0989
G01 X3.6663Y16.0942
G01 X3.6486Y16.0858
G01 X3.6328Y16.0741
G01 X3.6259Y16.0672
G01 X3.6142Y16.0514
G01 X3.6058Y16.0337
G01 X3.6011Y16.0147
G01 X3.6000Y16.0000
G01 X3.6001Y1.3951
G00 Z3.0000
G00 X3.8665Y0.5200
G01 Z-0.2500
G01 X3.8837Y0.5548
G01 X3.8949Y0.5800
G01 X5.7234Y0.5804
G01 X5.7598Y0.5823
G01 X5.7955Y0.5857
G01 X5.8334Y0.5910
G01 X5.8662Y0.5971
G01 X5.8935Y0.6033
G01 X5.9319Y0.6136
G01 X5.9637Y0.6237
G01 X6.0000Y0.6369
G01 X6.0363Y0.6237
G01 X6.0681Y0.6136
G01 X6.1065Y0.6033
G01 X6.1338Y0.5971
G01 X6.1666Y0.5910
G01 X6.2045Y0.5857
G01 X6.2402Y0.5823
G01 X6.2766Y0.5804
G01 X8.1051Y0.5800
G01 X8.1163Y0.5548
G01 X8.1334Y0.5201
G01 X3.8665Y0.5200
G01 X3.6298Y0.4000
G01 X3.6625Y0.4344
G01 X3.6878Y0.4644
G01 X3.7146Y0.5004
G01 X3.7373Y0.5352
G01 X3.7599Y0.5751
G01 X3.7789Y0.6141
G01 X3.7960Y0.6559
G01 X3.8107Y0.7000
G01 X5.7213Y0.7003
G01 X5.7571Y0.7024
G01 X5.7910Y0.7060
G01 X5.8259Y0.7115
G01 X5.8622Y0.7192
G01 X5.8956Y0.7280
G01 X5.9295Y0.7388
G01 X5.9626Y0.7512
G01 X6.0000Y0.7677
G01 X6.0374Y0.7512
G01 X6.0705Y0.7388
G01 X6.1044Y0.7280
G01 X6.1378Y0.7192
G01 X6.1741Y0.7115
G01 X6.2090Y0.7060
G01 X6.2429Y0.7024
G01 X6.2787Y0.7003
G01 X8.1893Y0.7000
G01 X8.2040Y0.6559
G01 X8.2211Y0.6141
G01 X8.2401Y0.5751
G01 X8.2627Y0.5352
G01 X8.2854Y0.5004
G01 X8.3122Y0.4644
G01 X8.3375Y0.4344
G01 X8.3702Y0.4000
G01 X3.6298Y0.4000
G00 Z3.0000
G00 X6.2001Y1.3951
G01 Z-0.2500
G01 X6.2030Y1.3757
G01 X6.2096Y1.3572
G01 X6.2197Y1.3404
G01 X6.2328Y1.3259
G01 X6.2486Y1.3142
G01 X6.2663Y1.3058
G01 X6.2853Y1.3011
G01 X6.3000Y1.3000
G01 X8.3049Y1.3001
G01 X8.3147Y1.3011
G01 X8.3337Y1.3058
G01 X8.3514Y1.3142
G01 X8.3672Y1.3259
G01 X8.3741Y1.3328
G01 X8.3858Y1.3486
G01 X8.3942Y1.3663
G01 X8.3989Y1.3853
G01 X8.4000Y1.4000
G01 X8.4000Y15.0000
G01 X8.3989Y15.0147
G01 X8.3942Y15.0337
G01 X8.3858Y15.0514
G01 X8.3741Y15.0672
G01 X8.3596Y15.0803
G01 X8.3428Y15.0904
G01 X8.3243Y15.0970
G01 X8.3147Y15.0989
G01 X8.3000Y15.1000
G01 X6.2951Y15.0999
G01 X6.2853Y15.0989
G01 X6.2663Y15.0942
G01 X6.2486Y15.0858
G01 X6.2328Y15.0741
G01 X6.2197Y15.0596
G01 X6.2142Y15.0514
G01 X6.2058Y15.0337
G01 X6.2011Y15.0147
G01 X6.2000Y15.0000
G01 X6.2001Y1.3951
G00 Z3.0000
G00 X8.7601Y0.8951
G01 Z-0.2500
G01 X8.7630Y0.8757
G01 X8.7696Y0.8572
G01 X8.7797Y0.8404
G01 X8.7928Y0.8259
G01 X8.8086Y0.8142
G01 X8.8263Y0.8058
G01 X8.8453Y0.8011
G01 X8.8600Y0.8000
G01 X10.7649Y0.8001
G01 X10.7747Y0.8011
G01 X10.7937Y0.8058
G01 X10.8114Y0.8142
G01 X10.8272Y0.8259
G01 X10.8341Y0.8328
G01 X10.8458Y0.8486
G01 X10.8542Y0.8663
G01 X10.8589Y0.8853
G01 X10.8600Y0.9000
G01 X10.8600Y14.0000
G01 X10.8589Y14.0147
G01 X10.8542Y14.0337
G01 X10.8458Y14.0514
G01 X10.8341Y14.0672
G01 X10.8196Y14.0803
G01 X10.8028Y14.0904
G01 X10.7843Y14.0970
G01 X10.7747Y14.0989
G01 X10.7600Y14.1000
G01 X8.8551Y14.0999
G01 X8.8453Y14.0989
G01 X8.8263Y14.0942
G01 X8.8086Y14.0858
G01 X8.7928Y14.0741
G01 X8.7797Y14.0596
G01 X8.7696Y14.0428
G01 X8.7630Y14.0243
G01 X8.7611Y14.0147
G01 X8.7600Y14.0000
G01 X8.7601Y0.8951
G00 Z3.0000
G00 X11.2498Y0.4000
G01 Z-0.2500
G01 X11.2706Y0.4213
G01 X11.2941Y0.4477
G01 X11.3146Y0.4731
G01 X11.3359Y0.5022
G01 X11.3538Y0.5295
G01 X11.3717Y0.5599
G01 X11.3873Y0.5895
G01 X11.4024Y0.6222
G01 X11.4147Y0.6525
G01 X11.4263Y0.6858
G01 X11.4358Y0.7178
G01 X11.4441Y0.7522
G01 X11.4504Y0.7849
G01 X11.4553Y0.8199
G01 X11.4583Y0.8522
G01 X11.4599Y0.8891
G01 X11.4600Y12.8000
G01 X11.5573Y12.8000
G01 X11.5871Y12.8008
G01 X11.6390Y12.8044
G01 X11.6891Y12.8112
G01 X11.7369Y12.8204
G01 X11.7882Y12.8335
G01 X11.8302Y12.8470
G01 X11.8830Y12.8672
G01 X11.9332Y12.8905
G01 X11.9766Y12.9141
G01 X12.0250Y12.9443
G01 X12.0702Y12.9770
G01 X12.1071Y13.0073
G01 X12.1480Y13.0452
G01 X12.1872Y13.0869
G01 X12.2186Y13.1247
G01 X13.5404Y13.1251
G01 X13.5879Y13.1271
G01 X13.6255Y13.1305
G01 X13.6741Y13.1375
G01 X13.7160Y13.1458
G01 X13.7514Y13.1546
G01 X13.7807Y13.1631
G01 X13.8218Y13.1771
G01 X13.8513Y13.1885
G01 X13.8808Y13.2014
G01 X13.9166Y13.2187
G01 X13.9412Y13.2319
G01 X13.9722Y13.2501
G01 X13.9988Y13.2670
G01 X14.0229Y13.2838
G01 X14.0507Y13.3046
G01 X14.0768Y13.3258
G01 X14.1055Y13.3514
G01 X14.1275Y13.3725
G01 X14.1486Y13.3945
G01 X14.1750Y13.4242
G01 X14.1750Y0.4000
G01 X11.2498Y0.4000
G01 X11.4865Y0.5200
G01 X11.5069Y0.5618
G01 X11.5237Y0.6017
G01 X11.5399Y0.6471
G01 X11.5528Y0.6912
G01 X11.5631Y0.7349
G01 X11.5720Y0.7866
G01 X11.5770Y0.8311
G01 X11.5796Y0.8766
G01 X11.5800Y12.6805
G01 X11.6306Y12.6832
G01 X11.6720Y12.6875
G01 X11.7245Y12.6954
G01 X11.7685Y12.7045
G01 X11.8179Y12.7172
G01 X11.8604Y12.7304
G01 X11.9107Y12.7488
G01 X11.9565Y12.7686
G01 X12.0012Y12.7905
G01 X12.0424Y12.8136
G01 X12.0865Y12.8410
G01 X12.1333Y12.8743
G01 X12.1712Y12.9042
G01 X12.2101Y12.9386
G01 X12.2414Y12.9689
G01 X12.2743Y13.0043
G01 X13.5322Y13.0050
G01 X13.5691Y13.0059
G01 X13.6175Y13.0090
G01 X13.6480Y13.0123
G01 X13.6793Y13.0168
G01 X13.7291Y13.0258
G01 X13.7881Y13.0402
G01 X13.8417Y13.0568
G01 X13.8992Y13.0784
G01 X13.9546Y13.1036
G01 X14.0002Y13.1274
G01 X14.0537Y13.1595
G01 X14.0550Y0.5200
G01 X11.4865Y0.5200
G01 X11.6632Y0.6400
G01 X11.6782Y0.6990
G01 X11.6888Y0.7561
G01 X11.6933Y0.7891
G01 X11.6966Y0.8206
G01 X11.6989Y0.8547
G01 X11.6999Y0.8849
G01 X11.7000Y12.5702
G01 X11.7452Y12.5772
G01 X11.7836Y12.5849
G01 X11.8317Y12.5966
G01 X11.8748Y12.6089
G01 X11.9114Y12.6211
G01 X11.9602Y12.6394
G01 X11.9973Y12.6553
G01 X12.0403Y12.6758
G01 X12.0784Y12.6958
G01 X12.1196Y12.7200
G01 X12.1525Y12.7408
G01 X12.1873Y12.7649
G01 X12.2253Y12.7936
G01 X12.2553Y12.8181
G01 X12.2930Y12.8518
G01 X12.3246Y12.8824
G01 X13.5326Y12.8850
G01 X13.5903Y12.8868
G01 X13.6310Y12.8897
G01 X13.6699Y12.8942
G01 X13.7160Y12.9011
G01 X13.7595Y12.9096
G01 X13.8067Y12.9210
G01 X13.8458Y12.9320
G01 X13.8853Y12.9450
G01 X13.9314Y12.9620
G01 X13.9350Y0.6400
G01 X11.6632Y0.6400
G01 X11.8106Y0.7600
G01 X11.8171Y0.8227
G01 X11.8199Y0.8864
G01 X11.8200Y12.4701
G01 X11.8617Y12.4804
G01 X11.8975Y12.4904
G01 X11.9336Y12.5018
G01 X11.9744Y12.5163
G01 X12.0082Y12.5294
G01 X12.0428Y12.5442
G01 X12.0820Y12.5625
G01 X12.1150Y12.5792
G01 X12.1490Y12.5979
G01 X12.1859Y12.6199
G01 X12.2168Y12.6394
G01 X12.2470Y12.6601
G01 X12.2822Y12.6860
G01 X12.3108Y12.7083
G01 X12.3402Y12.7329
G01 X12.3706Y12.7601
G01 X13.5586Y12.7654
G01 X13.6257Y12.7689
G01 X13.6827Y12.7748
G01 X13.7502Y12.7853
G01 X13.8109Y12.7983
G01 X13.8149Y0.7600
G01 X11.8106Y0.7600
G01 X11.9398Y0.8800
G01 X11.9399Y0.8887
G01 X11.9400Y12.3779
G01 X12.0091Y12.4012
G01 X12.0664Y12.4236
G01 X12.1321Y12.4535
G01 X12.1884Y12.4824
G01 X12.2497Y12.5182
G01 X12.3036Y12.5533
G01 X12.3622Y12.5961
G01 X12.4132Y12.6374
G01 X13.5462Y12.6451
G01 X13.6202Y12.6482
G01 X13.6859Y12.6543
G01 X13.6948Y0.8800
G01 X11.9398Y0.8800
G01 X12.0600Y1.0000
G01 X12.0600Y12.2920
G01 X12.1112Y12.3123
G01 X12.1593Y12.3336
G01 X12.2142Y12.3603
G01 X12.2641Y12.3872
G01 X12.3167Y12.4185
G01 X12.3615Y12.4475
G01 X12.4042Y12.4776
G01 X12.4538Y12.5153
G01 X13.5612Y12.5254
G01 X13.5747Y1.0000
G01 X12.0600Y1.0000
G01 X12.1800Y1.1200
G01 X12.1800Y12.2112
G01 X12.2289Y12.2337
G01 X12.2647Y12.2513
G01 X12.3025Y12.2713
G01 X12.3391Y12.2920
G01 X12.3804Y12.3168
G01 X12.4166Y12.3400
G01 X12.4549Y12.3662
G01 X12.4931Y12.3941
G01 X13.4380Y12.4040
G01 X13.4545Y1.1200
G01 X12.1800Y1.1200
G01 X12.3000Y1.2400
G01 X12.3000Y12.1348
G01 X12.3574Y12.1645
G01 X12.4124Y12.1959
G01 X12.4742Y12.2342
G01 X12.5306Y12.2728
G01 X13.3182Y12.2825
G01 X13.3343Y1.2400
G01 X12.3000Y1.2400
G01 X12.4200Y1.3600
G01 X12.4200Y12.0620
G01 X12.4563Y12.0825
G01 X12.4986Y12.1078
G01 X12.5331Y12.1294
G01 X12.5677Y12.1524
G01 X13.1983Y12.1609
G01 X13.2142Y1.3600
G01 X12.4200Y1.3600
G01 X12.5400Y1.4800
G01 X12.5400Y11.9926
G01 X12.6024Y12.0313
G01 X13.0785Y12.0390
G01 X13.0940Y1.4800
G01 X12.5400Y1.4800
G00 Z3.0000
G00 X12.7800Y11.7930
G01 Z-0.2500
G01 X12.8389Y11.7941
G01 X12.8536Y1.7200
G01 X12.7800Y1.7200
G01 X12.7800Y11.7930
G01 X12.6600Y11.9106
G01 X12.9587Y11.9165
G01 X12.9738Y1.6000
G01 X12.6600Y1.6000
G01 X12.6600Y11.9106
G00 Z3.0000
G00 X14.1750Y17.5758
G01 Z-0.2500
G01 X14.1482Y17.6059
G01 X14.1254Y17.6296
G01 X14.1043Y17.6497
G01 X14.0758Y17.6750
G01 X14.1750Y17.6750
G01 X14.1750Y17.5758
G00 Z3.0000
G00 X-0.0001Y13.7261
G01 Z-0.2500
G01 X0.0441Y13.7217
G01 X0.0865Y13.7089
G01 X0.1256Y13.6880
G01 X0.1599Y13.6599
G01 X0.1880Y13.6256
G01 X0.2089Y13.5865
G01 X0.2208Y13.5512
G01 X0.2311Y13.5295
G01 X0.2435Y13.5089
G01 X0.2610Y13.4859
G01 X0.2739Y13.4718
G01 X0.2880Y13.4588
G01 X0.3110Y13.4413
G01 X0.3361Y13.4267
G01 X0.3534Y13.4186
G01 X0.3760Y13.4105
G01 X0.4042Y13.4039
G01 X0.4231Y13.4012
G01 X0.4447Y13.4000
G01 X1.1400Y13.4000
G01 X1.1400Y0.9000
G01 X1.1411Y0.8853
G01 X1.1430Y0.8757
G01 X1.1458Y0.8663
G01 X1.1542Y0.8486
G01 X1.1597Y0.8404
G01 X1.1728Y0.8259
G01 X1.1886Y0.8142
G01 X1.2063Y0.8058
G01 X1.2157Y0.8030
G01 X1.2351Y0.8001
G01 X3.1400Y0.8000
G01 X3.1547Y0.8011
G01 X3.1643Y0.8030
G01 X3.1828Y0.8096
G01 X3.1914Y0.8142
G01 X3.2072Y0.8259
G01 X3.2203Y0.8404
G01 X3.2304Y0.8572
G01 X3.2342Y0.8663
G01 X3.2389Y0.8853
G01 X3.2400Y0.9000
G01 X3.2400Y13.4000
G01 X3.2578Y13.4001
G01 X3.2817Y13.4018
G01 X3.3006Y13.4047
G01 X3.3286Y13.4121
G01 X3.3466Y13.4186
G01 X3.3683Y13.4289
G01 X3.3890Y13.4413
G01 X3.4083Y13.4556
G01 X3.4261Y13.4718
G01 X3.4422Y13.4896
G01 X3.4566Y13.5089
G01 X3.4689Y13.5295
G01 X3.4792Y13.5512
G01 X3.4873Y13.5739
G01 X3.4931Y13.5972
G01 X3.4967Y13.6210
G01 X3.4978Y13.6450
G01 X3.4978Y15.9880
G01 X3.5029Y16.0392
G01 X3.5143Y16.0769
G01 X3.5329Y16.1117
G01 X3.5579Y16.1421
G01 X3.5883Y16.1671
G01 X3.6231Y16.1857
G01 X3.6608Y16.1971
G01 X3.7120Y16.2022
G01 X5.6880Y16.2022
G01 X5.7392Y16.1971
G01 X5.7769Y16.1857
G01 X5.8117Y16.1671
G01 X5.8421Y16.1421
G01 X5.8671Y16.1117
G01 X5.8857Y16.0769
G01 X5.8971Y16.0392
G01 X5.9022Y15.9880
G01 X5.9022Y15.4162
G01 X5.9039Y15.3898
G01 X5.9069Y15.3709
G01 X5.9114Y15.3523
G01 X5.9208Y15.3249
G01 X5.9311Y15.3032
G01 X5.9434Y15.2825
G01 X5.9578Y15.2632
G01 X5.9739Y15.2454
G01 X5.9917Y15.2293
G01 X6.0110Y15.2149
G01 X6.0360Y15.2004
G01 X6.0580Y15.1905
G01 X6.0760Y15.1842
G01 X6.0946Y15.1794
G01 X6.1231Y15.1748
G01 X6.1472Y15.1737
G01 X6.1712Y15.1748
G01 X6.1949Y15.1784
G01 X6.2159Y15.1835
G01 X6.2608Y15.1971
G01 X6.3120Y15.2022
G01 X8.2880Y15.2022
G01 X8.3392Y15.1971
G01 X8.3769Y15.1857
G01 X8.4117Y15.1671
G01 X8.4421Y15.1421
G01 X8.4671Y15.1117
G01 X8.4857Y15.0769
G01 X8.4971Y15.0392
G01 X8.5022Y14.9880
G01 X8.5022Y14.4308
G01 X8.5033Y14.4068
G01 X8.5060Y14.3878
G01 X8.5127Y14.3597
G01 X8.5208Y14.3370
G01 X8.5311Y14.3153
G01 X8.5463Y14.2907
G01 X8.5610Y14.2716
G01 X8.5739Y14.2576
G01 X8.5880Y14.2446
G01 X8.6110Y14.2271
G01 X8.6317Y14.2147
G01 X8.6534Y14.2044
G01 X8.6808Y14.1950
G01 X8.6994Y14.1905
G01 X8.7183Y14.1876
G01 X8.7472Y14.1858
G01 X8.7760Y14.1876
G01 X8.7949Y14.1905
G01 X8.8208Y14.1971
G01 X8.8720Y14.2022
G01 X10.7480Y14.2022
G01 X10.7992Y14.1971
G01 X10.8369Y14.1857
G01 X10.8717Y14.1671
G01 X10.9021Y14.1421
G01 X10.9271Y14.1117
G01 X10.9457Y14.0769
G01 X10.9571Y14.0392
G01 X10.9622Y13.9880
G01 X10.9622Y13.6450
G01 X10.9639Y13.6161
G01 X10.9669Y13.5972
G01 X10.9727Y13.5739
G01 X10.9808Y13.5512
G01 X10.9889Y13.5339
G01 X11.0063Y13.5049
G01 X11.0178Y13.4896
G01 X11.0339Y13.4718
G01 X11.0517Y13.4556
G01 X11.0670Y13.4441
G01 X11.0960Y13.4267
G01 X11.1134Y13.4186
G01 X11.1360Y13.4105
G01 X11.1594Y13.4047
G01 X11.1783Y13.4018
G01 X11.2072Y13.4000
G01 X11.5528Y13.4000
G01 X11.5769Y13.4012
G01 X11.6054Y13.4058
G01 X11.6240Y13.4105
G01 X11.6466Y13.4186
G01 X11.6683Y13.4289
G01 X11.6848Y13.4387
G01 X11.7083Y13.4556
G01 X11.7261Y13.4718
G01 X11.7390Y13.4859
G01 X11.7565Y13.5089
G01 X11.7711Y13.5339
G01 X11.7810Y13.5558
G01 X11.7911Y13.5865
G01 X11.8120Y13.6256
G01 X11.8401Y13.6599
G01 X11.8744Y13.6880
G01 X11.9135Y13.7089
G01 X11.9559Y13.7217
G01 X12.0001Y13.7261
G01 X12.0231Y13.7250
G01 X13.5300Y13.7250
G01 X13.5540Y13.7262
G01 X13.5778Y13.7297
G01 X13.6058Y13.7371
G01 X13.6238Y13.7436
G01 X13.6411Y13.7517
G01 X13.6661Y13.7663
G01 X13.6854Y13.7806
G01 X13.7066Y13.8003
G01 X13.7194Y13.8146
G01 X13.7309Y13.8299
G01 X13.7461Y13.8545
G01 X13.7564Y13.8762
G01 X13.7658Y13.9036
G01 X13.7703Y13.9222
G01 X13.7732Y13.9411
G01 X13.7750Y13.9700
G01 X13.7750Y17.0300
G01 X13.7738Y17.0540
G01 X13.7711Y17.0730
G01 X13.7629Y17.1058
G01 X13.7564Y17.1238
G01 X13.7461Y17.1455
G01 X13.7337Y17.1661
G01 X13.7194Y17.1854
G01 X13.7032Y17.2032
G01 X13.6854Y17.2194
G01 X13.6661Y17.2337
G01 X13.6411Y17.2483
G01 X13.6238Y17.2564
G01 X13.6058Y17.2629
G01 X13.5826Y17.2692
G01 X13.5540Y17.2738
G01 X13.5300Y17.2750
G01 X-1.5300Y17.2750
G01 X-1.5540Y17.2738
G01 X-1.5730Y17.2711
G01 X-1.6058Y17.2629
G01 X-1.6238Y17.2564
G01 X-1.6455Y17.2461
G01 X-1.6661Y17.2337
G01 X-1.6854Y17.2194
G01 X-1.7032Y17.2032
G01 X-1.7162Y17.1891
G01 X-1.7363Y17.1620
G01 X-1.7461Y17.1455
G01 X-1.7564Y17.1238
G01 X-1.7645Y17.1011
G01 X-1.7703Y17.0778
G01 X-1.7738Y17.0540
G01 X-1.7750Y17.0300
G01 X-1.7750Y13.9700
G01 X-1.7738Y13.9460
G01 X-1.7711Y13.9270
G01 X-1.7645Y13.8989
G01 X-1.7564Y13.8762
G01 X-1.7483Y13.8589
G01 X-1.7309Y13.8299
G01 X-1.7194Y13.8146
G01 X-1.6997Y13.7934
G01 X-1.6854Y13.7806
G01 X-1.6701Y13.7691
G01 X-1.6498Y13.7563
G01 X-1.6238Y13.7436
G01 X-1.6011Y13.7355
G01 X-1.5778Y13.7297
G01 X-1.5491Y13.7258
G01 X-1.5300Y13.7250
G01 X-0.0231Y13.7250
G01 X-0.0001Y13.7261
G01 X-0.0024Y13.6057
G01 X0.0206Y13.6035
G01 X0.0404Y13.5975
G01 X0.0586Y13.5877
G01 X0.0746Y13.5746
G01 X0.0877Y13.5586
G01 X0.0975Y13.5404
G01 X0.1111Y13.5026
G01 X0.1217Y13.4799
G01 X0.1291Y13.4661
G01 X0.1453Y13.4398
G01 X0.1602Y13.4196
G01 X0.1701Y13.4075
G01 X0.1870Y13.3890
G01 X0.1969Y13.3795
G01 X0.2179Y13.3610
G01 X0.2356Y13.3477
G01 X0.2510Y13.3373
G01 X0.2725Y13.3245
G01 X0.3048Y13.3089
G01 X0.3384Y13.2966
G01 X0.3731Y13.2876
G01 X0.4085Y13.2821
G01 X0.4378Y13.2802
G01 X1.0200Y13.2800
G01 X1.0200Y0.9000
G01 X1.0207Y0.8833
G01 X1.0234Y0.8619
G01 X1.0310Y0.8315
G01 X1.0387Y0.8113
G01 X1.0484Y0.7920
G01 X1.0545Y0.7819
G01 X1.0669Y0.7643
G01 X1.0811Y0.7480
G01 X1.0967Y0.7331
G01 X1.1219Y0.7145
G01 X1.1407Y0.7038
G01 X1.1604Y0.6950
G01 X1.1809Y0.6882
G01 X1.2019Y0.6834
G01 X1.2321Y0.6802
G01 X3.1479Y0.6802
G01 X3.1664Y0.6817
G01 X3.1877Y0.6853
G01 X3.1991Y0.6882
G01 X3.2196Y0.6950
G01 X3.2480Y0.7084
G01 X3.2662Y0.7199
G01 X3.2833Y0.7331
G01 X3.2989Y0.7480
G01 X3.3131Y0.7643
G01 X3.3201Y0.7738
G01 X3.3316Y0.7920
G01 X3.3413Y0.8113
G01 X3.3490Y0.8315
G01 X3.3566Y0.8619
G01 X3.3593Y0.8833
G01 X3.3600Y0.9000
G01 X3.3600Y13.2961
G01 X3.3898Y13.3067
G01 X3.4223Y13.3217
G01 X3.4532Y13.3399
G01 X3.4800Y13.3594
G01 X3.4800Y1.4000
G01 X3.4817Y1.3736
G01 X3.4853Y1.3523
G01 X3.4910Y1.3315
G01 X3.4950Y1.3204
G01 X3.5038Y1.3007
G01 X3.5145Y1.2819
G01 X3.5331Y1.2567
G01 X3.5480Y1.2411
G01 X3.5643Y1.2269
G01 X3.5738Y1.2199
G01 X3.5920Y1.2084
G01 X3.6113Y1.1987
G01 X3.6315Y1.1910
G01 X3.6619Y1.1834
G01 X3.6833Y1.1807
G01 X3.7000Y1.1800
G01 X5.7000Y1.1800
G01 X5.7167Y1.1807
G01 X5.7477Y1.1853
G01 X5.7591Y1.1882
G01 X5.7796Y1.1950
G01 X5.8080Y1.2084
G01 X5.8181Y1.2145
G01 X5.8357Y1.2269
G01 X5.8589Y1.2480
G01 X5.8731Y1.2643
G01 X5.8801Y1.2738
G01 X5.8962Y1.3007
G01 X5.9013Y1.3113
G01 X5.9090Y1.3315
G01 X5.9166Y1.3619
G01 X5.9193Y1.3833
G01 X5.9200Y1.4000
G01 X5.9200Y15.1330
G01 X5.9419Y15.1168
G01 X5.9657Y15.1021
G01 X5.9821Y15.0932
G01 X6.0048Y15.0826
G01 X6.0440Y15.0686
G01 X6.0683Y15.0624
G01 X6.0880Y15.0586
G01 X6.0834Y15.0381
G01 X6.0817Y15.0264
G01 X6.0800Y15.0000
G01 X6.0800Y1.4000
G01 X6.0807Y1.3833
G01 X6.0834Y1.3619
G01 X6.0910Y1.3315
G01 X6.0987Y1.3113
G01 X6.1038Y1.3007
G01 X6.1199Y1.2738
G01 X6.1269Y1.2643
G01 X6.1411Y1.2480
G01 X6.1643Y1.2269
G01 X6.1819Y1.2145
G01 X6.1920Y1.2084
G01 X6.2204Y1.1950
G01 X6.2409Y1.1882
G01 X6.2523Y1.1853
G01 X6.2833Y1.1807
G01 X6.3000Y1.1800
G01 X8.3029Y1.1800
G01 X8.3167Y1.1807
G01 X8.3381Y1.1834
G01 X8.3591Y1.1882
G01 X8.3796Y1.1950
G01 X8.3993Y1.2038
G01 X8.4181Y1.2145
G01 X8.4433Y1.2331
G01 X8.4589Y1.2480
G01 X8.4731Y1.2643
G01 X8.4801Y1.2738
G01 X8.4916Y1.2920
G01 X8.5013Y1.3113
G01 X8.5090Y1.3315
G01 X8.5166Y1.3619
G01 X8.5193Y1.3833
G01 X8.5200Y1.4000
G01 X8.5200Y14.1452
G01 X8.5468Y14.1257
G01 X8.5682Y14.1127
G01 X8.5821Y14.1053
G01 X8.6148Y14.0907
G01 X8.6384Y14.0824
G01 X8.6544Y14.0779
G01 X8.6482Y14.0591
G01 X8.6434Y14.0381
G01 X8.6407Y14.0167
G01 X8.6400Y14.0000
G01 X8.6400Y0.9000
G01 X8.6407Y0.8833
G01 X8.6434Y0.8619
G01 X8.6510Y0.8315
G01 X8.6587Y0.8113
G01 X8.6684Y0.7920
G01 X8.6745Y0.7819
G01 X8.6869Y0.7643
G01 X8.7080Y0.7411
G01 X8.7167Y0.7331
G01 X8.7338Y0.7199
G01 X8.7520Y0.7084
G01 X8.7713Y0.6987
G01 X8.8009Y0.6882
G01 X8.8219Y0.6834
G01 X8.8433Y0.6807
G01 X8.8600Y0.6800
G01 X10.7600Y0.6800
G01 X10.7864Y0.6817
G01 X10.7981Y0.6834
G01 X10.8191Y0.6882
G01 X10.8487Y0.6987
G01 X10.8680Y0.7084
G01 X10.8862Y0.7199
G01 X10.9033Y0.7331
G01 X10.9120Y0.7411
G01 X10.9331Y0.7643
G01 X10.9455Y0.7819
G01 X10.9562Y0.8007
G01 X10.9650Y0.8204
G01 X10.9690Y0.8315
G01 X10.9766Y0.8619
G01 X10.9793Y0.8833
G01 X10.9800Y0.8971
G01 X10.9800Y13.3594
G01 X11.0019Y13.3432
G01 X11.0257Y13.3284
G01 X11.0421Y13.3195
G01 X11.0702Y13.3067
G01 X11.0937Y13.2981
G01 X11.1116Y13.2928
G01 X11.1388Y13.2865
G01 X11.1684Y13.2821
G01 X11.2072Y13.2800
G01 X11.5528Y13.2800
G01 X11.5808Y13.2811
G01 X11.5993Y13.2831
G01 X11.6269Y13.2876
G01 X11.6512Y13.2936
G01 X11.6690Y13.2991
G01 X11.6952Y13.3089
G01 X11.7223Y13.3217
G01 X11.7465Y13.3357
G01 X11.7621Y13.3460
G01 X11.7866Y13.3647
G01 X11.8088Y13.3848
G01 X11.8279Y13.4053
G01 X11.8398Y13.4196
G01 X11.8579Y13.4447
G01 X11.8709Y13.4661
G01 X11.8796Y13.4826
G01 X11.8911Y13.5081
G01 X11.9025Y13.5404
G01 X11.9123Y13.5586
G01 X11.9254Y13.5746
G01 X11.9414Y13.5877
G01 X11.9596Y13.5975
G01 X11.9794Y13.6035
G01 X12.0024Y13.6057
G01 X12.0231Y13.6050
G01 X13.5300Y13.6050
G01 X13.5628Y13.6065
G01 X13.6012Y13.6120
G01 X13.6360Y13.6207
G01 X13.6697Y13.6328
G01 X13.6951Y13.6445
G01 X13.7089Y13.6519
G01 X13.7392Y13.6710
G01 X13.7593Y13.6860
G01 X13.7697Y13.6949
G01 X13.7955Y13.7197
G01 X13.8121Y13.7384
G01 X13.8273Y13.7584
G01 X13.8393Y13.7763
G01 X13.8555Y13.8049
G01 X13.8683Y13.8331
G01 X13.8784Y13.8612
G01 X13.8863Y13.8911
G01 X13.8898Y13.9094
G01 X13.8932Y13.9342
G01 X13.8950Y13.9661
G01 X13.8950Y17.0300
G01 X13.8935Y17.0628
G01 X13.8885Y17.0983
G01 X13.8801Y17.1331
G01 X13.8711Y17.1596
G01 X13.8628Y17.1796
G01 X13.8466Y17.2115
G01 X13.8318Y17.2352
G01 X13.8103Y17.2638
G01 X13.7860Y17.2902
G01 X13.7675Y17.3070
G01 X13.7530Y17.3188
G01 X13.7237Y17.3393
G01 X13.6994Y17.3533
G01 X13.6796Y17.3628
G01 X13.6624Y17.3701
G01 X13.6388Y17.3784
G01 X13.6041Y17.3874
G01 X13.5687Y17.3929
G01 X13.5315Y17.3950
G01 X-1.5315Y17.3950
G01 X-1.5628Y17.3935
G01 X-1.5983Y17.3885
G01 X-1.6331Y17.3801
G01 X-1.6596Y17.3711
G01 X-1.6796Y17.3628
G01 X-1.7115Y17.3466
G01 X-1.7352Y17.3318
G01 X-1.7638Y17.3103
G01 X-1.7902Y17.2860
G01 X-1.8103Y17.2638
G01 X-1.8318Y17.2352
G01 X-1.8466Y17.2115
G01 X-1.8568Y17.1924
G01 X-1.8711Y17.1596
G01 X-1.8801Y17.1331
G01 X-1.8885Y17.0983
G01 X-1.8935Y17.0628
G01 X-1.8950Y17.0300
G01 X-1.8950Y13.9661
G01 X-1.8935Y13.9372
G01 X-1.8898Y13.9094
G01 X-1.8863Y13.8911
G01 X-1.8784Y13.8612
G01 X-1.8683Y13.8331
G01 X-1.8555Y13.8049
G01 X-1.8393Y13.7763
G01 X-1.8290Y13.7608
G01 X-1.8140Y13.7407
G01 X-1.8051Y13.7303
G01 X-1.7860Y13.7098
G01 X-1.7697Y13.6949
G01 X-1.7593Y13.6860
G01 X-1.7392Y13.6710
G01 X-1.7089Y13.6519
G01 X-1.6951Y13.6445
G01 X-1.6724Y13.6339
G01 X-1.6388Y13.6216
G01 X-1.5983Y13.6115
G01 X-1.5628Y13.6065
G01 X-1.5300Y13.6050
G01 X-0.0231Y13.6050
G01 X-0.0024Y13.6057
G01 X-0.0106Y13.4852
G01 X0.0040Y13.4482
G01 X0.0167Y13.4216
G01 X0.0269Y13.4031
G01 X0.0456Y13.3731
G01 X0.0686Y13.3419
G01 X0.0927Y13.3141
G01 X0.1120Y13.2946
G01 X0.1418Y13.2682
G01 X0.1688Y13.2479
G01 X0.2040Y13.2255
G01 X0.2295Y13.2117
G01 X0.2670Y13.1947
G01 X0.2919Y13.1856
G01 X0.3120Y13.1792
G01 X0.3554Y13.1688
G01 X0.3845Y13.1642
G01 X0.4055Y13.1618
G01 X0.4464Y13.1600
G01 X0.9000Y13.1600
G01 X0.9000Y0.9000
G01 X0.9013Y0.8716
G01 X0.9047Y0.8443
G01 X0.9089Y0.8231
G01 X0.9180Y0.7911
G01 X0.9279Y0.7654
G01 X0.9426Y0.7355
G01 X0.9547Y0.7153
G01 X0.9705Y0.6928
G01 X0.9842Y0.6761
G01 X0.9962Y0.6631
G01 X1.0206Y0.6404
G01 X1.0328Y0.6305
G01 X1.0553Y0.6147
G01 X1.0841Y0.5979
G01 X1.1145Y0.5841
G01 X1.1310Y0.5780
G01 X1.1517Y0.5718
G01 X1.1843Y0.5647
G01 X1.2018Y0.5622
G01 X1.2248Y0.5604
G01 X3.1400Y0.5600
G01 X3.1552Y0.5604
G01 X3.1782Y0.5622
G01 X3.1957Y0.5647
G01 X3.2169Y0.5689
G01 X3.2340Y0.5733
G01 X3.2600Y0.5820
G01 X3.2800Y0.5903
G01 X3.2959Y0.5979
G01 X3.3097Y0.6055
G01 X3.3329Y0.6201
G01 X3.3472Y0.6305
G01 X3.3639Y0.6442
G01 X3.3769Y0.6562
G01 X3.3958Y0.6761
G01 X3.4095Y0.6928
G01 X3.4199Y0.7071
G01 X3.4345Y0.7303
G01 X3.4421Y0.7441
G01 X3.4559Y0.7745
G01 X3.4667Y0.8060
G01 X3.4743Y0.8385
G01 X3.4787Y0.8716
G01 X3.4800Y0.9000
G01 X3.4800Y1.1409
G01 X3.5071Y1.1201
G01 X3.5303Y1.1055
G01 X3.5494Y1.0953
G01 X3.5800Y1.0820
G01 X3.6060Y1.0733
G01 X3.6289Y1.0676
G01 X3.6618Y1.0622
G01 X3.6892Y1.0602
G01 X5.7108Y1.0602
G01 X5.7382Y1.0622
G01 X5.7557Y1.0647
G01 X5.7769Y1.0689
G01 X5.8034Y1.0762
G01 X5.8200Y1.0820
G01 X5.8400Y1.0903
G01 X5.8559Y1.0979
G01 X5.8798Y1.1115
G01 X5.8977Y1.1235
G01 X5.9194Y1.1404
G01 X5.9326Y1.1521
G01 X5.9479Y1.1674
G01 X5.9596Y1.1806
G01 X5.9765Y1.2023
G01 X5.9885Y1.2202
G01 X6.0000Y1.2403
G01 X6.0115Y1.2202
G01 X6.0235Y1.2023
G01 X6.0404Y1.1806
G01 X6.0521Y1.1674
G01 X6.0674Y1.1521
G01 X6.0806Y1.1404
G01 X6.1023Y1.1235
G01 X6.1202Y1.1115
G01 X6.1441Y1.0979
G01 X6.1600Y1.0903
G01 X6.1800Y1.0820
G01 X6.1966Y1.0762
G01 X6.2231Y1.0689
G01 X6.2443Y1.0647
G01 X6.2618Y1.0622
G01 X6.2892Y1.0602
G01 X8.3108Y1.0602
G01 X8.3382Y1.0622
G01 X8.3711Y1.0676
G01 X8.3940Y1.0733
G01 X8.4200Y1.0820
G01 X8.4506Y1.0953
G01 X8.4697Y1.1055
G01 X8.4929Y1.1201
G01 X8.5200Y1.1409
G01 X8.5200Y0.9000
G01 X8.5213Y0.8716
G01 X8.5257Y0.8385
G01 X8.5333Y0.8060
G01 X8.5441Y0.7745
G01 X8.5579Y0.7441
G01 X8.5715Y0.7202
G01 X8.5801Y0.7071
G01 X8.5905Y0.6928
G01 X8.6042Y0.6761
G01 X8.6162Y0.6631
G01 X8.6361Y0.6442
G01 X8.6528Y0.6305
G01 X8.6671Y0.6201
G01 X8.6802Y0.6115
G01 X8.7041Y0.5979
G01 X8.7200Y0.5903
G01 X8.7400Y0.5820
G01 X8.7717Y0.5718
G01 X8.7985Y0.5657
G01 X8.8160Y0.5630
G01 X8.8360Y0.5609
G01 X8.8600Y0.5600
G01 X10.7600Y0.5600
G01 X10.7840Y0.5609
G01 X10.8040Y0.5630
G01 X10.8215Y0.5657
G01 X10.8483Y0.5718
G01 X10.8800Y0.5820
G01 X10.9000Y0.5903
G01 X10.9245Y0.6026
G01 X10.9447Y0.6147
G01 X10.9718Y0.6342
G01 X10.9926Y0.6521
G01 X11.0079Y0.6674
G01 X11.0258Y0.6882
G01 X11.0399Y0.7071
G01 X11.0545Y0.7303
G01 X11.0647Y0.7494
G01 X11.0780Y0.7800
G01 X11.0867Y0.8060
G01 X11.0943Y0.8385
G01 X11.0978Y0.8618
G01 X11.0999Y0.8941
G01 X11.1000Y13.1721
G01 X11.1232Y13.1674
G01 X11.1538Y13.1630
G01 X11.1973Y13.1601
G01 X11.5597Y13.1601
G01 X11.5974Y13.1621
G01 X11.6368Y13.1674
G01 X11.6775Y13.1764
G01 X11.7053Y13.1847
G01 X11.7330Y13.1947
G01 X11.7537Y13.2037
G01 X11.7840Y13.2187
G01 X11.8094Y13.2336
G01 X11.8312Y13.2479
G01 X11.8559Y13.2664
G01 X11.8721Y13.2800
G01 X11.8937Y13.3000
G01 X11.9168Y13.3247
G01 X11.9296Y13.3396
G01 X11.9491Y13.3655
G01 X11.9619Y13.3846
G01 X11.9777Y13.4112
G01 X11.9874Y13.4300
G01 X11.9998Y13.4567
G01 X12.0106Y13.4852
G01 X13.5307Y13.4850
G01 X13.5775Y13.4873
G01 X13.6203Y13.4935
G01 X13.6395Y13.4976
G01 X13.6694Y13.5055
G01 X13.7142Y13.5214
G01 X13.7560Y13.5409
G01 X13.7982Y13.5659
G01 X13.8377Y13.5951
G01 X13.8729Y13.6271
G01 X13.9049Y13.6623
G01 X13.9316Y13.6981
G01 X13.9517Y13.7307
G01 X13.9646Y13.7550
G01 X13.9792Y13.7871
G01 X13.9928Y13.8250
G01 X14.0024Y13.8605
G01 X14.0078Y13.8875
G01 X14.0127Y13.9225
G01 X14.0149Y13.9602
G01 X14.0150Y17.0322
G01 X14.0129Y17.0746
G01 X14.0076Y17.1140
G01 X14.0045Y17.1304
G01 X13.9982Y17.1561
G01 X13.9889Y17.1866
G01 X13.9758Y17.2210
G01 X13.9646Y17.2450
G01 X13.9549Y17.2638
G01 X13.9316Y17.3019
G01 X13.9068Y17.3354
G01 X13.8940Y17.3503
G01 X13.8708Y17.3750
G01 X13.8492Y17.3950
G01 X13.8331Y17.4086
G01 X13.8119Y17.4245
G01 X13.7945Y17.4365
G01 X13.7638Y17.4549
G01 X13.7437Y17.4652
G01 X13.7129Y17.4792
G01 X13.6866Y17.4889
G01 X13.6651Y17.4958
G01 X13.6366Y17.5031
G01 X13.6140Y17.5076
G01 X13.5834Y17.5120
G01 X13.5624Y17.5138
G01 X13.5329Y17.5150
G01 X-1.5354Y17.5150
G01 X-1.5805Y17.5123
G01 X-1.6217Y17.5062
G01 X-1.6651Y17.4958
G01 X-1.7014Y17.4836
G01 X-1.7309Y17.4713
G01 X-1.7534Y17.4604
G01 X-1.7693Y17.4517
G01 X-1.8043Y17.4299
G01 X-1.8399Y17.4030
G01 X-1.8750Y17.3708
G01 X-1.9030Y17.3399
G01 X-1.9299Y17.3043
G01 X-1.9503Y17.2719
G01 X-1.9652Y17.2437
G01 X-1.9758Y17.2210
G01 X-1.9836Y17.2014
G01 X-1.9958Y17.1651
G01 X-2.0024Y17.1395
G01 X-2.0068Y17.1188
G01 X-2.0129Y17.0746
G01 X-2.0150Y17.0300
G01 X-2.0149Y13.9631
G01 X-2.0129Y13.9254
G01 X-2.0083Y13.8904
G01 X-2.0031Y13.8634
G01 X-1.9932Y13.8264
G01 X-1.9803Y13.7899
G01 X-1.9652Y13.7563
G01 X-1.9517Y13.7307
G01 X-1.9316Y13.6981
G01 X-1.9143Y13.6743
G01 X-1.9011Y13.6578
G01 X-1.8804Y13.6348
G01 X-1.8641Y13.6185
G01 X-1.8422Y13.5989
G01 X-1.8245Y13.5848
G01 X-1.7970Y13.5651
G01 X-1.7731Y13.5505
G01 X-1.7534Y13.5396
G01 X-1.7210Y13.5242
G01 X-1.7014Y13.5164
G01 X-1.6764Y13.5077
G01 X-1.6561Y13.5018
G01 X-1.6275Y13.4949
G01 X-1.5805Y13.4877
G01 X-1.5609Y13.4861
G01 X-1.5300Y13.4850
G01 X-0.0106Y13.4852
G01 X-0.0891Y13.3650
G01 X-0.0649Y13.3229
G01 X-0.0442Y13.2922
G01 X-0.0158Y13.2556
G01 X0.0163Y13.2204
G01 X0.0507Y13.1882
G01 X0.0788Y13.1652
G01 X0.1147Y13.1395
G01 X0.1542Y13.1157
G01 X0.1768Y13.1039
G01 X0.2089Y13.0889
G01 X0.2339Y13.0789
G01 X0.2645Y13.0683
G01 X0.2904Y13.0608
G01 X0.3219Y13.0531
G01 X0.3456Y13.0487
G01 X0.3791Y13.0439
G01 X0.4074Y13.0414
G01 X0.4431Y13.0400
G01 X0.7800Y13.0400
G01 X0.7800Y0.8978
G01 X0.7817Y0.8620
G01 X0.7865Y0.8238
G01 X0.7954Y0.7826
G01 X0.8050Y0.7506
G01 X0.8182Y0.7168
G01 X0.8367Y0.6789
G01 X0.8549Y0.6486
G01 X0.8759Y0.6190
G01 X0.8934Y0.5977
G01 X0.9093Y0.5804
G01 X0.9247Y0.5652
G01 X0.9422Y0.5495
G01 X0.9590Y0.5359
G01 X0.9780Y0.5220
G01 X0.9960Y0.5101
G01 X1.0189Y0.4967
G01 X1.0487Y0.4818
G01 X1.0685Y0.4732
G01 X1.0906Y0.4650
G01 X1.1112Y0.4585
G01 X1.1368Y0.4518
G01 X1.1580Y0.4475
G01 X1.1813Y0.4439
G01 X1.2064Y0.4413
G01 X1.2400Y0.4400
G01 X3.1400Y0.4400
G01 X3.1780Y0.4417
G01 X3.1987Y0.4439
G01 X3.2220Y0.4475
G01 X3.2432Y0.4518
G01 X3.2660Y0.4577
G01 X3.2866Y0.4641
G01 X3.3087Y0.4722
G01 X3.3286Y0.4806
G01 X3.3498Y0.4908
G01 X3.3688Y0.5011
G01 X3.3889Y0.5133
G01 X3.4068Y0.5254
G01 X3.4257Y0.5396
G01 X3.4423Y0.5534
G01 X3.4596Y0.5693
G01 X3.4748Y0.5847
G01 X3.4924Y0.6045
G01 X3.5059Y0.6213
G01 X3.5196Y0.6404
G01 X3.5314Y0.6585
G01 X3.5433Y0.6789
G01 X3.5532Y0.6981
G01 X3.5630Y0.7195
G01 X3.5710Y0.7395
G01 X3.5787Y0.7618
G01 X3.5895Y0.8026
G01 X3.5935Y0.8238
G01 X3.5969Y0.8471
G01 X3.5998Y0.8863
G01 X3.6000Y0.9511
G01 X3.6238Y0.9465
G01 X3.6471Y0.9431
G01 X3.6774Y0.9406
G01 X3.6993Y0.9400
G01 X5.7159Y0.9403
G01 X5.7529Y0.9431
G01 X5.7945Y0.9499
G01 X5.8288Y0.9585
G01 X5.8687Y0.9722
G01 X5.9046Y0.9881
G01 X5.9415Y1.0086
G01 X5.9692Y1.0271
G01 X6.0000Y1.0514
G01 X6.0308Y1.0271
G01 X6.0585Y1.0086
G01 X6.0954Y0.9881
G01 X6.1313Y0.9722
G01 X6.1712Y0.9585
G01 X6.2055Y0.9499
G01 X6.2471Y0.9431
G01 X6.2841Y0.9403
G01 X8.3007Y0.9400
G01 X8.3226Y0.9406
G01 X8.3529Y0.9431
G01 X8.3762Y0.9465
G01 X8.3999Y0.9511
G01 X8.4002Y0.8855
G01 X8.4028Y0.8500
G01 X8.4080Y0.8151
G01 X8.4125Y0.7940
G01 X8.4185Y0.7712
G01 X8.4250Y0.7506
G01 X8.4332Y0.7285
G01 X8.4418Y0.7087
G01 X8.4521Y0.6875
G01 X8.4625Y0.6686
G01 X8.4749Y0.6486
G01 X8.4871Y0.6308
G01 X8.5014Y0.6120
G01 X8.5293Y0.5804
G01 X8.5447Y0.5652
G01 X8.5622Y0.5495
G01 X8.5790Y0.5359
G01 X8.5980Y0.5220
G01 X8.6160Y0.5101
G01 X8.6363Y0.4982
G01 X8.6554Y0.4881
G01 X8.6768Y0.4782
G01 X8.6968Y0.4700
G01 X8.7190Y0.4622
G01 X8.7397Y0.4561
G01 X8.7626Y0.4505
G01 X8.7838Y0.4465
G01 X8.8071Y0.4431
G01 X8.8374Y0.4406
G01 X8.8600Y0.4400
G01 X10.7622Y0.4400
G01 X10.7936Y0.4413
G01 X10.8217Y0.4443
G01 X10.8545Y0.4499
G01 X10.8803Y0.4561
G01 X10.9205Y0.4690
G01 X10.9486Y0.4806
G01 X10.9811Y0.4967
G01 X11.0114Y0.5149
G01 X11.0457Y0.5396
G01 X11.0732Y0.5632
G01 X11.0968Y0.5868
G01 X11.1204Y0.6143
G01 X11.1451Y0.6486
G01 X11.1618Y0.6763
G01 X11.1782Y0.7087
G01 X11.1910Y0.7395
G01 X11.2023Y0.7740
G01 X11.2120Y0.8151
G01 X11.2172Y0.8500
G01 X11.2198Y0.8863
G01 X11.2200Y13.0400
G01 X11.5543Y13.0400
G01 X11.5984Y13.0418
G01 X11.6338Y13.0456
G01 X11.6795Y13.0535
G01 X11.7256Y13.0652
G01 X11.7688Y13.0800
G01 X11.7925Y13.0895
G01 X11.8238Y13.1042
G01 X11.8458Y13.1157
G01 X11.8705Y13.1303
G01 X11.8914Y13.1436
G01 X11.9074Y13.1550
G01 X11.9309Y13.1727
G01 X11.9521Y13.1906
G01 X11.9868Y13.2235
G01 X12.0097Y13.2485
G01 X12.0260Y13.2681
G01 X12.0446Y13.2928
G01 X12.0583Y13.3126
G01 X12.0764Y13.3421
G01 X12.0891Y13.3650
G01 X13.5333Y13.3650
G01 X13.5675Y13.3663
G01 X13.5915Y13.3681
G01 X13.6280Y13.3731
G01 X13.6538Y13.3778
G01 X13.6860Y13.3856
G01 X13.7077Y13.3917
G01 X13.7412Y13.4032
G01 X13.7636Y13.4119
G01 X13.7957Y13.4266
G01 X13.8178Y13.4379
G01 X13.8477Y13.4553
G01 X13.8686Y13.4686
G01 X13.8960Y13.4884
G01 X13.9144Y13.5028
G01 X13.9420Y13.5271
G01 X13.9599Y13.5443
G01 X13.9834Y13.5696
G01 X13.9995Y13.5885
G01 X14.0218Y13.6178
G01 X14.0379Y13.6413
G01 X14.0625Y13.6829
G01 X14.0807Y13.7198
G01 X14.0943Y13.7519
G01 X14.1087Y13.7937
G01 X14.1200Y13.8364
G01 X14.1268Y13.8713
G01 X14.1322Y13.9114
G01 X14.1348Y13.9565
G01 X14.1350Y17.0344
G01 X14.1323Y17.0864
G01 X14.1296Y17.1095
G01 X14.1247Y17.1408
G01 X14.1198Y17.1643
G01 X14.1114Y17.1971
G01 X14.0963Y17.2425
G01 X14.0801Y17.2815
G01 X14.0670Y17.3087
G01 X14.0554Y17.3298
G01 X14.0289Y17.3722
G01 X14.0098Y17.3984
G01 X13.9948Y17.4172
G01 X13.9719Y17.4431
G01 X13.9546Y17.4609
G01 X13.9287Y17.4849
G01 X13.9069Y17.5032
G01 X13.8780Y17.5248
G01 X13.8546Y17.5405
G01 X13.8217Y17.5600
G01 X13.7950Y17.5737
G01 X13.7588Y17.5900
G01 X13.7264Y17.6021
G01 X13.6986Y17.6110
G01 X13.6643Y17.6198
G01 X13.6345Y17.6258
G01 X13.5981Y17.6311
G01 X13.5727Y17.6334
G01 X13.5369Y17.6349
G01 X-1.5376Y17.6349
G01 X-1.5690Y17.6336
G01 X-1.5922Y17.6318
G01 X-1.6437Y17.6242
G01 X-1.6672Y17.6191
G01 X-1.6986Y17.6110
G01 X-1.7460Y17.5950
G01 X-1.7683Y17.5861
G01 X-1.7957Y17.5734
G01 X-1.8329Y17.5536
G01 X-1.8734Y17.5280
G01 X-1.9007Y17.5080
G01 X-1.9194Y17.4929
G01 X-1.9431Y17.4719
G01 X-1.9599Y17.4557
G01 X-1.9948Y17.4172
G01 X-2.0098Y17.3984
G01 X-2.0289Y17.3722
G01 X-2.0417Y17.3527
G01 X-2.0558Y17.3291
G01 X-2.0676Y17.3074
G01 X-2.0801Y17.2815
G01 X-2.0900Y17.2588
G01 X-2.0971Y17.2405
G01 X-2.1063Y17.2140
G01 X-2.1129Y17.1917
G01 X-2.1205Y17.1615
G01 X-2.1260Y17.1338
G01 X-2.1325Y17.0849
G01 X-2.1350Y17.0304
G01 X-2.1348Y13.9572
G01 X-2.1323Y13.9136
G01 X-2.1263Y13.8684
G01 X-2.1191Y13.8328
G01 X-2.1076Y13.7902
G01 X-2.0917Y13.7453
G01 X-2.0737Y13.7050
G01 X-2.0569Y13.6728
G01 X-2.0346Y13.6363
G01 X-2.0200Y13.6154
G01 X-1.9958Y13.5839
G01 X-1.9729Y13.5580
G01 X-1.9546Y13.5391
G01 X-1.9287Y13.5151
G01 X-1.9081Y13.4977
G01 X-1.8780Y13.4752
G01 X-1.8539Y13.4591
G01 X-1.8272Y13.4431
G01 X-1.8023Y13.4298
G01 X-1.7683Y13.4139
G01 X-1.7412Y13.4032
G01 X-1.7084Y13.3919
G01 X-1.6701Y13.3816
G01 X-1.6408Y13.3753
G01 X-1.6095Y13.3704
G01 X-1.5749Y13.3667
G01 X-1.5311Y13.3650
G01 X-0.0891Y13.3650
G01 X-0.1575Y13.2450
G01 X-0.1306Y13.2072
G01 X-0.1095Y13.1805
G01 X-0.0791Y13.1465
G01 X-0.0527Y13.1200
G01 X-0.0212Y13.0917
G01 X0.0073Y13.0688
G01 X0.0419Y13.0439
G01 X0.0816Y13.0191
G01 X0.1080Y13.0043
G01 X0.1308Y12.9928
G01 X0.1643Y12.9775
G01 X0.1935Y12.9659
G01 X0.2262Y12.9545
G01 X0.2538Y12.9463
G01 X0.2894Y12.9374
G01 X0.3225Y12.9309
G01 X0.3732Y12.9238
G01 X0.4285Y12.9203
G01 X0.6600Y12.9200
G01 X0.6600Y0.8960
G01 X0.6621Y0.8513
G01 X0.6648Y0.8266
G01 X0.6682Y0.8033
G01 X0.6731Y0.7777
G01 X0.6790Y0.7534
G01 X0.6921Y0.7102
G01 X0.7007Y0.6867
G01 X0.7108Y0.6628
G01 X0.7316Y0.6210
G01 X0.7551Y0.5819
G01 X0.7682Y0.5629
G01 X0.7859Y0.5394
G01 X0.8035Y0.5183
G01 X0.8234Y0.4966
G01 X0.8430Y0.4773
G01 X0.8672Y0.4558
G01 X0.8887Y0.4386
G01 X0.9125Y0.4214
G01 X0.9356Y0.4064
G01 X0.9623Y0.3909
G01 X0.9974Y0.3733
G01 X1.0226Y0.3624
G01 X1.0516Y0.3516
G01 X1.0764Y0.3437
G01 X1.1062Y0.3357
G01 X1.1331Y0.3300
G01 X1.1622Y0.3253
G01 X1.1891Y0.3223
G01 X1.2145Y0.3206
G01 X1.2400Y0.3200
G01 X3.1400Y0.3200
G01 X3.1798Y0.3214
G01 X3.2061Y0.3239
G01 X3.2309Y0.3273
G01 X3.2752Y0.3361
G01 X3.2994Y0.3424
G01 X3.3242Y0.3501
G01 X3.3464Y0.3581
G01 X3.3719Y0.3685
G01 X3.3972Y0.3803
G01 X3.4177Y0.3909
G01 X3.4569Y0.4143
G01 X3.4771Y0.4282
G01 X3.4995Y0.4450
G01 X3.5162Y0.4587
G01 X3.5370Y0.4773
G01 X3.5566Y0.4966
G01 X3.5736Y0.5150
G01 X3.6014Y0.5487
G01 X3.6169Y0.5701
G01 X3.6312Y0.5918
G01 X3.6434Y0.6120
G01 X3.6558Y0.6349
G01 X3.6685Y0.6614
G01 X3.6776Y0.6826
G01 X3.6930Y0.7256
G01 X3.7053Y0.7705
G01 X3.7105Y0.7960
G01 X3.7143Y0.8200
G01 X5.7200Y0.8204
G01 X5.7617Y0.8234
G01 X5.7953Y0.8280
G01 X5.8295Y0.8347
G01 X5.8636Y0.8437
G01 X5.9009Y0.8560
G01 X5.9319Y0.8685
G01 X5.9651Y0.8842
G01 X6.0000Y0.9038
G01 X6.0349Y0.8842
G01 X6.0681Y0.8685
G01 X6.0991Y0.8560
G01 X6.1364Y0.8437
G01 X6.1705Y0.8347
G01 X6.2047Y0.8280
G01 X6.2383Y0.8234
G01 X6.2800Y0.8204
G01 X8.2857Y0.8200
G01 X8.2895Y0.7960
G01 X8.2947Y0.7705
G01 X8.3070Y0.7256
G01 X8.3224Y0.6826
G01 X8.3315Y0.6614
G01 X8.3442Y0.6349
G01 X8.3566Y0.6120
G01 X8.3688Y0.5918
G01 X8.3831Y0.5701
G01 X8.3986Y0.5487
G01 X8.4264Y0.5150
G01 X8.4434Y0.4966
G01 X8.4619Y0.4783
G01 X8.4794Y0.4625
G01 X8.5005Y0.4450
G01 X8.5229Y0.4282
G01 X8.5419Y0.4151
G01 X8.5810Y0.3916
G01 X8.6228Y0.3708
G01 X8.6467Y0.3607
G01 X8.6702Y0.3521
G01 X8.7120Y0.3393
G01 X8.7377Y0.3331
G01 X8.7633Y0.3282
G01 X8.7866Y0.3248
G01 X8.8113Y0.3221
G01 X8.8345Y0.3206
G01 X8.8600Y0.3200
G01 X10.7600Y0.3200
G01 X10.7899Y0.3208
G01 X10.8349Y0.3250
G01 X10.8625Y0.3292
G01 X10.8837Y0.3334
G01 X10.9109Y0.3401
G01 X10.9330Y0.3465
G01 X10.9760Y0.3618
G01 X10.9986Y0.3715
G01 X11.0238Y0.3836
G01 X11.0644Y0.4064
G01 X11.1007Y0.4307
G01 X11.1206Y0.4459
G01 X11.1417Y0.4635
G01 X11.1634Y0.4834
G01 X11.1827Y0.5030
G01 X11.2023Y0.5249
G01 X11.2222Y0.5499
G01 X11.2394Y0.5738
G01 X11.2604Y0.6069
G01 X11.2744Y0.6323
G01 X11.2873Y0.6587
G01 X11.2993Y0.6867
G01 X11.3094Y0.7144
G01 X11.3180Y0.7420
G01 X11.3253Y0.7705
G01 X11.3318Y0.8033
G01 X11.3360Y0.8324
G01 X11.3386Y0.8602
G01 X11.3399Y0.8915
G01 X11.3400Y12.9200
G01 X11.5615Y12.9201
G01 X11.5996Y12.9216
G01 X11.6290Y12.9240
G01 X11.6779Y12.9309
G01 X11.7217Y12.9401
G01 X11.7717Y12.9539
G01 X11.8221Y12.9719
G01 X11.8466Y12.9823
G01 X11.8732Y12.9947
G01 X11.9165Y13.0179
G01 X11.9413Y13.0329
G01 X11.9629Y13.0472
G01 X12.0099Y13.0823
G01 X12.0514Y13.1187
G01 X12.0851Y13.1530
G01 X12.1057Y13.1760
G01 X12.1202Y13.1937
G01 X12.1417Y13.2222
G01 X12.1575Y13.2450
G01 X13.5383Y13.2451
G01 X13.5804Y13.2468
G01 X13.6128Y13.2498
G01 X13.6602Y13.2568
G01 X13.6964Y13.2645
G01 X13.7320Y13.2737
G01 X13.7602Y13.2826
G01 X13.7992Y13.2969
G01 X13.8295Y13.3099
G01 X13.8633Y13.3262
G01 X13.8902Y13.3409
G01 X13.9263Y13.3629
G01 X13.9558Y13.3834
G01 X13.9842Y13.4049
G01 X14.0085Y13.4255
G01 X14.0395Y13.4542
G01 X14.0623Y13.4780
G01 X14.0904Y13.5101
G01 X14.1164Y13.5439
G01 X14.1360Y13.5721
G01 X14.1555Y13.6038
G01 X14.1747Y13.6384
G01 X14.1963Y13.6844
G01 X14.2101Y13.7191
G01 X14.2263Y13.7680
G01 X14.2386Y13.8170
G01 X14.2457Y13.8552
G01 X14.2518Y13.9019
G01 X14.2548Y13.9532
G01 X14.2549Y17.0417
G01 X14.2534Y17.0767
G01 X14.2511Y17.1047
G01 X14.2480Y17.1293
G01 X14.2418Y17.1678
G01 X14.2356Y17.1960
G01 X14.2263Y17.2320
G01 X14.2177Y17.2591
G01 X14.2061Y17.2916
G01 X14.1932Y17.3228
G01 X14.1777Y17.3556
G01 X14.1648Y17.3802
G01 X14.1479Y17.4091
G01 X14.1344Y17.4303
G01 X14.1173Y17.4549
G01 X14.0964Y17.4825
G01 X14.0767Y17.5060
G01 X14.0504Y17.5348
G01 X14.0277Y17.5570
G01 X13.9967Y17.5848
G01 X13.9678Y17.6077
G01 X13.9303Y17.6344
G01 X13.8962Y17.6555
G01 X13.8665Y17.6721
G01 X13.8305Y17.6897
G01 X13.7972Y17.7039
G01 X13.7563Y17.7187
G01 X13.7233Y17.7287
G01 X13.6830Y17.7386
G01 X13.6510Y17.7447
G01 X13.6098Y17.7506
G01 X13.5771Y17.7534
G01 X13.5383Y17.7549
G01 X-1.5307Y17.7550
G01 X-1.5579Y17.7543
G01 X-1.5974Y17.7518
G01 X-1.6260Y17.7485
G01 X-1.6620Y17.7428
G01 X-1.6917Y17.7366
G01 X-1.7291Y17.7271
G01 X-1.7517Y17.7202
G01 X-1.7823Y17.7096
G01 X-1.8231Y17.6930
G01 X-1.8691Y17.6707
G01 X-1.9160Y17.6436
G01 X-1.9537Y17.6182
G01 X-1.9945Y17.5867
G01 X-2.0348Y17.5504
G01 X-2.0509Y17.5342
G01 X-2.0726Y17.5107
G01 X-2.1010Y17.4766
G01 X-2.1311Y17.4352
G01 X-2.1593Y17.3899
G01 X-2.1803Y17.3503
G01 X-2.2017Y17.3027
G01 X-2.2211Y17.2489
G01 X-2.2348Y17.1992
G01 X-2.2441Y17.1550
G01 X-2.2510Y17.1062
G01 X-2.2535Y17.0738
G01 X-2.2550Y17.0302
G01 X-2.2550Y13.9641
G01 X-2.2536Y13.9270
G01 X-2.2518Y13.9019
G01 X-2.2485Y13.8740
G01 X-2.2427Y13.8372
G01 X-2.2366Y13.8083
G01 X-2.2271Y13.7709
G01 X-2.2202Y13.7483
G01 X-2.2096Y13.7177
G01 X-2.1952Y13.6817
G01 X-2.1735Y13.6361
G01 X-2.1480Y13.5913
G01 X-2.1274Y13.5593
G01 X-2.0978Y13.5193
G01 X-2.0738Y13.4907
G01 X-2.0400Y13.4548
G01 X-2.0049Y13.4223
G01 X-1.9742Y13.3972
G01 X-1.9358Y13.3693
G01 X-1.8953Y13.3439
G01 X-1.8613Y13.3252
G01 X-1.8176Y13.3045
G01 X-1.7819Y13.2903
G01 X-1.7369Y13.2752
G01 X-1.6892Y13.2628
G01 X-1.6536Y13.2557
G01 X-1.6106Y13.2495
G01 X-1.5771Y13.2466
G01 X-1.5359Y13.2450
G01 X-0.1575Y13.2450
G00 Z3.0000
G00 X-2.0758Y17.6750
G01 Z-0.2500
G01 X-2.1059Y17.6482
G01 X-2.1296Y17.6254
G01 X-2.1497Y17.6043
G01 X-2.1750Y17.5758
G01 X-2.1750Y17.6750
G01 X-2.0758Y17.6750
G00 Z3.0000
G00 Z3.0000
G00 X0Y0
M05
G0 Z20
G0 X0 Y25