G0 Z20
G21
G90
G94
F60.00
G00 Z3.0000
M03 S45
G4 P1
G00 X-2.4745Y13.4779
G01 Z-0.2500
G01 X-2.4726Y13.4528
G01 X-2.4700Y13.4315
G01 X-2.4638Y13.3975
G01 X-2.4549Y13.3634
G01 X-2.4468Y13.3388
G01 X-2.4288Y13.2958
G01 X-2.4080Y13.2569
G01 X-2.3952Y13.2365
G01 X-2.3822Y13.2180
G01 X-2.3610Y13.1913
G01 X-2.3359Y13.1641
G01 X-2.3087Y13.1390
G01 X-2.2820Y13.1178
G01 X-2.2635Y13.1048
G01 X-2.2452Y13.0932
G01 X-2.2042Y13.0712
G01 X-2.1612Y13.0532
G01 X-2.1366Y13.0451
G01 X-2.1025Y13.0362
G01 X-2.0709Y13.0304
G01 X-2.0472Y13.0274
G01 X-2.0245Y13.0257
G01 X-2.0000Y13.0250
G01 X-0.4750Y13.0250
G01 X-0.4750Y-0.0000
G01 X-0.4743Y-0.0245
G01 X-0.4726Y-0.0472
G01 X-0.4696Y-0.0709
G01 X-0.4638Y-0.1025
G01 X-0.4549Y-0.1366
G01 X-0.4468Y-0.1612
G01 X-0.4343Y-0.1923
G01 X-0.4245Y-0.2130
G01 X-0.4080Y-0.2431
G01 X-0.3952Y-0.2635
G01 X-0.3822Y-0.2820
G01 X-0.3528Y-0.3181
G01 X-0.3359Y-0.3359
G01 X-0.3199Y-0.3511
G01 X-0.3087Y-0.3610
G01 X-0.2839Y-0.3808
G01 X-0.2635Y-0.3952
G01 X-0.2452Y-0.4068
G01 X-0.2042Y-0.4288
G01 X-0.1612Y-0.4468
G01 X-0.1366Y-0.4549
G01 X-0.1166Y-0.4604
G01 X-0.1025Y-0.4638
G01 X-0.0709Y-0.4696
G01 X-0.0472Y-0.4726
G01 X-0.0245Y-0.4743
G01 X-0.0000Y-0.4750
G01 X12.0000Y-0.4750
G01 X12.0245Y-0.4743
G01 X12.0472Y-0.4726
G01 X12.0709Y-0.4696
G01 X12.1025Y-0.4638
G01 X12.1366Y-0.4549
G01 X12.1612Y-0.4468
G01 X12.1923Y-0.4343
G01 X12.2130Y-0.4245
G01 X12.2431Y-0.4080
G01 X12.2635Y-0.3952
G01 X12.2820Y-0.3822
G01 X12.3181Y-0.3528
G01 X12.3359Y-0.3359
G01 X12.3511Y-0.3199
G01 X12.3610Y-0.3087
G01 X12.3808Y-0.2839
G01 X12.3952Y-0.2635
G01 X12.4068Y-0.2452
G01 X12.4288Y-0.2042
G01 X12.4468Y-0.1612
G01 X12.4549Y-0.1366
G01 X12.4604Y-0.1166
G01 X12.4638Y-0.1025
G01 X12.4696Y-0.0709
G01 X12.4726Y-0.0472
G01 X12.4743Y-0.0245
G01 X12.4750Y-0.0000
G01 X12.4750Y13.0250
G01 X14.0000Y13.0250
G01 X14.0245Y13.0257
G01 X14.0472Y13.0274
G01 X14.0709Y13.0304
G01 X14.1025Y13.0362
G01 X14.1366Y13.0451
G01 X14.1612Y13.0532
G01 X14.1923Y13.0657
G01 X14.2130Y13.0755
G01 X14.2452Y13.0932
G01 X14.2635Y13.1048
G01 X14.2820Y13.1178
G01 X14.3087Y13.1390
G01 X14.3359Y13.1641
G01 X14.3528Y13.1819
G01 X14.3808Y13.2161
G01 X14.3952Y13.2365
G01 X14.4080Y13.2569
G01 X14.4245Y13.2870
G01 X14.4343Y13.3077
G01 X14.4468Y13.3388
G01 X14.4549Y13.3634
G01 X14.4604Y13.3834
G01 X14.4638Y13.3975
G01 X14.4696Y13.4291
G01 X14.4726Y13.4528
G01 X14.4743Y13.4755
G01 X14.4750Y13.5000
G01 X14.4750Y17.5000
G01 X14.4745Y17.5221
G01 X14.4726Y17.5472
G01 X14.4700Y17.5685
G01 X14.4610Y17.6142
G01 X14.4549Y17.6366
G01 X14.4476Y17.6589
G01 X14.4299Y17.7020
G01 X14.4080Y17.7431
G01 X14.3952Y17.7635
G01 X14.3822Y17.7820
G01 X14.3528Y17.8181
G01 X14.3359Y17.8359
G01 X14.3199Y17.8511
G01 X14.3087Y17.8610
G01 X14.2839Y17.8808
G01 X14.2635Y17.8952
G01 X14.2452Y17.9068
G01 X14.2042Y17.9288
G01 X14.1612Y17.9468
G01 X14.1366Y17.9549
G01 X14.1166Y17.9604
G01 X14.1025Y17.9638
G01 X14.0709Y17.9696
G01 X14.0472Y17.9726
G01 X14.0245Y17.9743
G01 X14.0000Y17.9750
G01 X-2.0000Y17.9750
G01 X-2.0245Y17.9743
G01 X-2.0472Y17.9726
G01 X-2.0685Y17.9700
G01 X-2.1025Y17.9638
G01 X-2.1166Y17.9604
G01 X-2.1366Y17.9549
G01 X-2.1589Y17.9476
G01 X-2.1923Y17.9343
G01 X-2.2130Y17.9245
G01 X-2.2452Y17.9068
G01 X-2.2635Y17.8952
G01 X-2.2820Y17.8822
G01 X-2.3087Y17.8610
G01 X-2.3359Y17.8359
G01 X-2.3610Y17.8087
G01 X-2.3822Y17.7820
G01 X-2.3952Y17.7635
G01 X-2.4068Y17.7452
G01 X-2.4245Y17.7130
G01 X-2.4343Y17.6923
G01 X-2.4476Y17.6589
G01 X-2.4549Y17.6366
G01 X-2.4604Y17.6166
G01 X-2.4638Y17.6025
G01 X-2.4696Y17.5709
G01 X-2.4726Y17.5472
G01 X-2.4743Y17.5245
G01 X-2.4750Y17.5000
G01 X-2.4750Y13.5000
G01 X-2.4745Y13.4779
G00 X-2.4745Y13.4779
G01 Z-0.5000
G01 X-2.4726Y13.4528
G01 X-2.4700Y13.4315
G01 X-2.4638Y13.3975
G01 X-2.4549Y13.3634
G01 X-2.4468Y13.3388
G01 X-2.4288Y13.2958
G01 X-2.4080Y13.2569
G01 X-2.3952Y13.2365
G01 X-2.3822Y13.2180
G01 X-2.3610Y13.1913
G01 X-2.3359Y13.1641
G01 X-2.3087Y13.1390
G01 X-2.2820Y13.1178
G01 X-2.2635Y13.1048
G01 X-2.2452Y13.0932
G01 X-2.2042Y13.0712
G01 X-2.1612Y13.0532
G01 X-2.1366Y13.0451
G01 X-2.1025Y13.0362
G01 X-2.0709Y13.0304
G01 X-2.0472Y13.0274
G01 X-2.0245Y13.0257
G01 X-2.0000Y13.0250
G01 X-0.4750Y13.0250
G01 X-0.4750Y-0.0000
G01 X-0.4743Y-0.0245
G01 X-0.4726Y-0.0472
G01 X-0.4696Y-0.0709
G01 X-0.4638Y-0.1025
G01 X-0.4549Y-0.1366
G01 X-0.4468Y-0.1612
G01 X-0.4343Y-0.1923
G01 X-0.4245Y-0.2130
G01 X-0.4080Y-0.2431
G01 X-0.3952Y-0.2635
G01 X-0.3822Y-0.2820
G01 X-0.3528Y-0.3181
G01 X-0.3359Y-0.3359
G01 X-0.3199Y-0.3511
G01 X-0.3087Y-0.3610
G01 X-0.2839Y-0.3808
G01 X-0.2635Y-0.3952
G01 X-0.2452Y-0.4068
G01 X-0.2042Y-0.4288
G01 X-0.1612Y-0.4468
G01 X-0.1366Y-0.4549
G01 X-0.1166Y-0.4604
G01 X-0.1025Y-0.4638
G01 X-0.0709Y-0.4696
G01 X-0.0472Y-0.4726
G01 X-0.0245Y-0.4743
G01 X-0.0000Y-0.4750
G01 X12.0000Y-0.4750
G01 X12.0245Y-0.4743
G01 X12.0472Y-0.4726
G01 X12.0709Y-0.4696
G01 X12.1025Y-0.4638
G01 X12.1366Y-0.4549
G01 X12.1612Y-0.4468
G01 X12.1923Y-0.4343
G01 X12.2130Y-0.4245
G01 X12.2431Y-0.4080
G01 X12.2635Y-0.3952
G01 X12.2820Y-0.3822
G01 X12.3181Y-0.3528
G01 X12.3359Y-0.3359
G01 X12.3511Y-0.3199
G01 X12.3610Y-0.3087
G01 X12.3808Y-0.2839
G01 X12.3952Y-0.2635
G01 X12.4068Y-0.2452
G01 X12.4288Y-0.2042
G01 X12.4468Y-0.1612
G01 X12.4549Y-0.1366
G01 X12.4604Y-0.1166
G01 X12.4638Y-0.1025
G01 X12.4696Y-0.0709
G01 X12.4726Y-0.0472
G01 X12.4743Y-0.0245
G01 X12.4750Y-0.0000
G01 X12.4750Y13.0250
G01 X14.0000Y13.0250
G01 X14.0245Y13.0257
G01 X14.0472Y13.0274
G01 X14.0709Y13.0304
G01 X14.1025Y13.0362
G01 X14.1366Y13.0451
G01 X14.1612Y13.0532
G01 X14.1923Y13.0657
G01 X14.2130Y13.0755
G01 X14.2452Y13.0932
G01 X14.2635Y13.1048
G01 X14.2820Y13.1178
G01 X14.3087Y13.1390
G01 X14.3359Y13.1641
G01 X14.3528Y13.1819
G01 X14.3808Y13.2161
G01 X14.3952Y13.2365
G01 X14.4080Y13.2569
G01 X14.4245Y13.2870
G01 X14.4343Y13.3077
G01 X14.4468Y13.3388
G01 X14.4549Y13.3634
G01 X14.4604Y13.3834
G01 X14.4638Y13.3975
G01 X14.4696Y13.4291
G01 X14.4726Y13.4528
G01 X14.4743Y13.4755
G01 X14.4750Y13.5000
G01 X14.4750Y17.5000
G01 X14.4745Y17.5221
G01 X14.4726Y17.5472
G01 X14.4700Y17.5685
G01 X14.4610Y17.6142
G01 X14.4549Y17.6366
G01 X14.4476Y17.6589
G01 X14.4299Y17.7020
G01 X14.4080Y17.7431
G01 X14.3952Y17.7635
G01 X14.3822Y17.7820
G01 X14.3528Y17.8181
G01 X14.3359Y17.8359
G01 X14.3199Y17.8511
G01 X14.3087Y17.8610
G01 X14.2839Y17.8808
G01 X14.2635Y17.8952
G01 X14.2452Y17.9068
G01 X14.2042Y17.9288
G01 X14.1612Y17.9468
G01 X14.1366Y17.9549
G01 X14.1166Y17.9604
G01 X14.1025Y17.9638
G01 X14.0709Y17.9696
G01 X14.0472Y17.9726
G01 X14.0245Y17.9743
G01 X14.0000Y17.9750
G01 X-2.0000Y17.9750
G01 X-2.0245Y17.9743
G01 X-2.0472Y17.9726
G01 X-2.0685Y17.9700
G01 X-2.1025Y17.9638
G01 X-2.1166Y17.9604
G01 X-2.1366Y17.9549
G01 X-2.1589Y17.9476
G01 X-2.1923Y17.9343
G01 X-2.2130Y17.9245
G01 X-2.2452Y17.9068
G01 X-2.2635Y17.8952
G01 X-2.2820Y17.8822
G01 X-2.3087Y17.8610
G01 X-2.3359Y17.8359
G01 X-2.3610Y17.8087
G01 X-2.3822Y17.7820
G01 X-2.3952Y17.7635
G01 X-2.4068Y17.7452
G01 X-2.4245Y17.7130
G01 X-2.4343Y17.6923
G01 X-2.4476Y17.6589
G01 X-2.4549Y17.6366
G01 X-2.4604Y17.6166
G01 X-2.4638Y17.6025
G01 X-2.4696Y17.5709
G01 X-2.4726Y17.5472
G01 X-2.4743Y17.5245
G01 X-2.4750Y17.5000
G01 X-2.4750Y13.5000
G01 X-2.4745Y13.4779
G00 X-2.4745Y13.4779
G01 Z-0.7500
G01 X-2.4726Y13.4528
G01 X-2.4700Y13.4315
G01 X-2.4638Y13.3975
G01 X-2.4549Y13.3634
G01 X-2.4468Y13.3388
G01 X-2.4288Y13.2958
G01 X-2.4080Y13.2569
G01 X-2.3952Y13.2365
G01 X-2.3822Y13.2180
G01 X-2.3610Y13.1913
G01 X-2.3359Y13.1641
G01 X-2.3087Y13.1390
G01 X-2.2820Y13.1178
G01 X-2.2635Y13.1048
G01 X-2.2452Y13.0932
G01 X-2.2042Y13.0712
G01 X-2.1612Y13.0532
G01 X-2.1366Y13.0451
G01 X-2.1025Y13.0362
G01 X-2.0709Y13.0304
G01 X-2.0472Y13.0274
G01 X-2.0245Y13.0257
G01 X-2.0000Y13.0250
G01 X-0.4750Y13.0250
G01 X-0.4750Y-0.0000
G01 X-0.4743Y-0.0245
G01 X-0.4726Y-0.0472
G01 X-0.4696Y-0.0709
G01 X-0.4638Y-0.1025
G01 X-0.4549Y-0.1366
G01 X-0.4468Y-0.1612
G01 X-0.4343Y-0.1923
G01 X-0.4245Y-0.2130
G01 X-0.4080Y-0.2431
G01 X-0.3952Y-0.2635
G01 X-0.3822Y-0.2820
G01 X-0.3528Y-0.3181
G01 X-0.3359Y-0.3359
G01 X-0.3199Y-0.3511
G01 X-0.3087Y-0.3610
G01 X-0.2839Y-0.3808
G01 X-0.2635Y-0.3952
G01 X-0.2452Y-0.4068
G01 X-0.2042Y-0.4288
G01 X-0.1612Y-0.4468
G01 X-0.1366Y-0.4549
G01 X-0.1166Y-0.4604
G01 X-0.1025Y-0.4638
G01 X-0.0709Y-0.4696
G01 X-0.0472Y-0.4726
G01 X-0.0245Y-0.4743
G01 X-0.0000Y-0.4750
G01 X12.0000Y-0.4750
G01 X12.0245Y-0.4743
G01 X12.0472Y-0.4726
G01 X12.0709Y-0.4696
G01 X12.1025Y-0.4638
G01 X12.1366Y-0.4549
G01 X12.1612Y-0.4468
G01 X12.1923Y-0.4343
G01 X12.2130Y-0.4245
G01 X12.2431Y-0.4080
G01 X12.2635Y-0.3952
G01 X12.2820Y-0.3822
G01 X12.3181Y-0.3528
G01 X12.3359Y-0.3359
G01 X12.3511Y-0.3199
G01 X12.3610Y-0.3087
G01 X12.3808Y-0.2839
G01 X12.3952Y-0.2635
G01 X12.4068Y-0.2452
G01 X12.4288Y-0.2042
G01 X12.4468Y-0.1612
G01 X12.4549Y-0.1366
G01 X12.4604Y-0.1166
G01 X12.4638Y-0.1025
G01 X12.4696Y-0.0709
G01 X12.4726Y-0.0472
G01 X12.4743Y-0.0245
G01 X12.4750Y-0.0000
G01 X12.4750Y13.0250
G01 X14.0000Y13.0250
G01 X14.0245Y13.0257
G01 X14.0472Y13.0274
G01 X14.0709Y13.0304
G01 X14.1025Y13.0362
G01 X14.1366Y13.0451
G01 X14.1612Y13.0532
G01 X14.1923Y13.0657
G01 X14.2130Y13.0755
G01 X14.2452Y13.0932
G01 X14.2635Y13.1048
G01 X14.2820Y13.1178
G01 X14.3087Y13.1390
G01 X14.3359Y13.1641
G01 X14.3528Y13.1819
G01 X14.3808Y13.2161
G01 X14.3952Y13.2365
G01 X14.4080Y13.2569
G01 X14.4245Y13.2870
G01 X14.4343Y13.3077
G01 X14.4468Y13.3388
G01 X14.4549Y13.3634
G01 X14.4604Y13.3834
G01 X14.4638Y13.3975
G01 X14.4696Y13.4291
G01 X14.4726Y13.4528
G01 X14.4743Y13.4755
G01 X14.4750Y13.5000
G01 X14.4750Y17.5000
G01 X14.4745Y17.5221
G01 X14.4726Y17.5472
G01 X14.4700Y17.5685
G01 X14.4610Y17.6142
G01 X14.4549Y17.6366
G01 X14.4476Y17.6589
G01 X14.4299Y17.7020
G01 X14.4080Y17.7431
G01 X14.3952Y17.7635
G01 X14.3822Y17.7820
G01 X14.3528Y17.8181
G01 X14.3359Y17.8359
G01 X14.3199Y17.8511
G01 X14.3087Y17.8610
G01 X14.2839Y17.8808
G01 X14.2635Y17.8952
G01 X14.2452Y17.9068
G01 X14.2042Y17.9288
G01 X14.1612Y17.9468
G01 X14.1366Y17.9549
G01 X14.1166Y17.9604
G01 X14.1025Y17.9638
G01 X14.0709Y17.9696
G01 X14.0472Y17.9726
G01 X14.0245Y17.9743
G01 X14.0000Y17.9750
G01 X-2.0000Y17.9750
G01 X-2.0245Y17.9743
G01 X-2.0472Y17.9726
G01 X-2.0685Y17.9700
G01 X-2.1025Y17.9638
G01 X-2.1166Y17.9604
G01 X-2.1366Y17.9549
G01 X-2.1589Y17.9476
G01 X-2.1923Y17.9343
G01 X-2.2130Y17.9245
G01 X-2.2452Y17.9068
G01 X-2.2635Y17.8952
G01 X-2.2820Y17.8822
G01 X-2.3087Y17.8610
G01 X-2.3359Y17.8359
G01 X-2.3610Y17.8087
G01 X-2.3822Y17.7820
G01 X-2.3952Y17.7635
G01 X-2.4068Y17.7452
G01 X-2.4245Y17.7130
G01 X-2.4343Y17.6923
G01 X-2.4476Y17.6589
G01 X-2.4549Y17.6366
G01 X-2.4604Y17.6166
G01 X-2.4638Y17.6025
G01 X-2.4696Y17.5709
G01 X-2.4726Y17.5472
G01 X-2.4743Y17.5245
G01 X-2.4750Y17.5000
G01 X-2.4750Y13.5000
G01 X-2.4745Y13.4779
G00 X-2.4745Y13.4779
G01 Z-1.0000
G01 X-2.4726Y13.4528
G01 X-2.4700Y13.4315
G01 X-2.4638Y13.3975
G01 X-2.4549Y13.3634
G01 X-2.4468Y13.3388
G01 X-2.4288Y13.2958
G01 X-2.4080Y13.2569
G01 X-2.3952Y13.2365
G01 X-2.3822Y13.2180
G01 X-2.3610Y13.1913
G01 X-2.3359Y13.1641
G01 X-2.3087Y13.1390
G01 X-2.2820Y13.1178
G01 X-2.2635Y13.1048
G01 X-2.2452Y13.0932
G01 X-2.2042Y13.0712
G01 X-2.1612Y13.0532
G01 X-2.1366Y13.0451
G01 X-2.1025Y13.0362
G01 X-2.0709Y13.0304
G01 X-2.0472Y13.0274
G01 X-2.0245Y13.0257
G01 X-2.0000Y13.0250
G01 X-0.4750Y13.0250
G01 X-0.4750Y-0.0000
G01 X-0.4743Y-0.0245
G01 X-0.4726Y-0.0472
G01 X-0.4696Y-0.0709
G01 X-0.4638Y-0.1025
G01 X-0.4549Y-0.1366
G01 X-0.4468Y-0.1612
G01 X-0.4343Y-0.1923
G01 X-0.4245Y-0.2130
G01 X-0.4080Y-0.2431
G01 X-0.3952Y-0.2635
G01 X-0.3822Y-0.2820
G01 X-0.3528Y-0.3181
G01 X-0.3359Y-0.3359
G01 X-0.3199Y-0.3511
G01 X-0.3087Y-0.3610
G01 X-0.2839Y-0.3808
G01 X-0.2635Y-0.3952
G01 X-0.2452Y-0.4068
G01 X-0.2042Y-0.4288
G01 X-0.1612Y-0.4468
G01 X-0.1366Y-0.4549
G01 X-0.1166Y-0.4604
G01 X-0.1025Y-0.4638
G01 X-0.0709Y-0.4696
G01 X-0.0472Y-0.4726
G01 X-0.0245Y-0.4743
G01 X-0.0000Y-0.4750
G01 X12.0000Y-0.4750
G01 X12.0245Y-0.4743
G01 X12.0472Y-0.4726
G01 X12.0709Y-0.4696
G01 X12.1025Y-0.4638
G01 X12.1366Y-0.4549
G01 X12.1612Y-0.4468
G01 X12.1923Y-0.4343
G01 X12.2130Y-0.4245
G01 X12.2431Y-0.4080
G01 X12.2635Y-0.3952
G01 X12.2820Y-0.3822
G01 X12.3181Y-0.3528
G01 X12.3359Y-0.3359
G01 X12.3511Y-0.3199
G01 X12.3610Y-0.3087
G01 X12.3808Y-0.2839
G01 X12.3952Y-0.2635
G01 X12.4068Y-0.2452
G01 X12.4288Y-0.2042
G01 X12.4468Y-0.1612
G01 X12.4549Y-0.1366
G01 X12.4604Y-0.1166
G01 X12.4638Y-0.1025
G01 X12.4696Y-0.0709
G01 X12.4726Y-0.0472
G01 X12.4743Y-0.0245
G01 X12.4750Y-0.0000
G01 X12.4750Y13.0250
G01 X14.0000Y13.0250
G01 X14.0245Y13.0257
G01 X14.0472Y13.0274
G01 X14.0709Y13.0304
G01 X14.1025Y13.0362
G01 X14.1366Y13.0451
G01 X14.1612Y13.0532
G01 X14.1923Y13.0657
G01 X14.2130Y13.0755
G01 X14.2452Y13.0932
G01 X14.2635Y13.1048
G01 X14.2820Y13.1178
G01 X14.3087Y13.1390
G01 X14.3359Y13.1641
G01 X14.3528Y13.1819
G01 X14.3808Y13.2161
G01 X14.3952Y13.2365
G01 X14.4080Y13.2569
G01 X14.4245Y13.2870
G01 X14.4343Y13.3077
G01 X14.4468Y13.3388
G01 X14.4549Y13.3634
G01 X14.4604Y13.3834
G01 X14.4638Y13.3975
G01 X14.4696Y13.4291
G01 X14.4726Y13.4528
G01 X14.4743Y13.4755
G01 X14.4750Y13.5000
G01 X14.4750Y17.5000
G01 X14.4745Y17.5221
G01 X14.4726Y17.5472
G01 X14.4700Y17.5685
G01 X14.4610Y17.6142
G01 X14.4549Y17.6366
G01 X14.4476Y17.6589
G01 X14.4299Y17.7020
G01 X14.4080Y17.7431
G01 X14.3952Y17.7635
G01 X14.3822Y17.7820
G01 X14.3528Y17.8181
G01 X14.3359Y17.8359
G01 X14.3199Y17.8511
G01 X14.3087Y17.8610
G01 X14.2839Y17.8808
G01 X14.2635Y17.8952
G01 X14.2452Y17.9068
G01 X14.2042Y17.9288
G01 X14.1612Y17.9468
G01 X14.1366Y17.9549
G01 X14.1166Y17.9604
G01 X14.1025Y17.9638
G01 X14.0709Y17.9696
G01 X14.0472Y17.9726
G01 X14.0245Y17.9743
G01 X14.0000Y17.9750
G01 X-2.0000Y17.9750
G01 X-2.0245Y17.9743
G01 X-2.0472Y17.9726
G01 X-2.0685Y17.9700
G01 X-2.1025Y17.9638
G01 X-2.1166Y17.9604
G01 X-2.1366Y17.9549
G01 X-2.1589Y17.9476
G01 X-2.1923Y17.9343
G01 X-2.2130Y17.9245
G01 X-2.2452Y17.9068
G01 X-2.2635Y17.8952
G01 X-2.2820Y17.8822
G01 X-2.3087Y17.8610
G01 X-2.3359Y17.8359
G01 X-2.3610Y17.8087
G01 X-2.3822Y17.7820
G01 X-2.3952Y17.7635
G01 X-2.4068Y17.7452
G01 X-2.4245Y17.7130
G01 X-2.4343Y17.6923
G01 X-2.4476Y17.6589
G01 X-2.4549Y17.6366
G01 X-2.4604Y17.6166
G01 X-2.4638Y17.6025
G01 X-2.4696Y17.5709
G01 X-2.4726Y17.5472
G01 X-2.4743Y17.5245
G01 X-2.4750Y17.5000
G01 X-2.4750Y13.5000
G01 X-2.4745Y13.4779
G00 X-2.4745Y13.4779
G01 Z-1.2500
G01 X-2.4726Y13.4528
G01 X-2.4700Y13.4315
G01 X-2.4638Y13.3975
G01 X-2.4549Y13.3634
G01 X-2.4468Y13.3388
G01 X-2.4288Y13.2958
G01 X-2.4080Y13.2569
G01 X-2.3952Y13.2365
G01 X-2.3822Y13.2180
G01 X-2.3610Y13.1913
G01 X-2.3359Y13.1641
G01 X-2.3087Y13.1390
G01 X-2.2820Y13.1178
G01 X-2.2635Y13.1048
G01 X-2.2452Y13.0932
G01 X-2.2042Y13.0712
G01 X-2.1612Y13.0532
G01 X-2.1366Y13.0451
G01 X-2.1025Y13.0362
G01 X-2.0709Y13.0304
G01 X-2.0472Y13.0274
G01 X-2.0245Y13.0257
G01 X-2.0000Y13.0250
G01 X-0.4750Y13.0250
G01 X-0.4750Y-0.0000
G01 X-0.4743Y-0.0245
G01 X-0.4726Y-0.0472
G01 X-0.4696Y-0.0709
G01 X-0.4638Y-0.1025
G01 X-0.4549Y-0.1366
G01 X-0.4468Y-0.1612
G01 X-0.4343Y-0.1923
G01 X-0.4245Y-0.2130
G01 X-0.4080Y-0.2431
G01 X-0.3952Y-0.2635
G01 X-0.3822Y-0.2820
G01 X-0.3528Y-0.3181
G01 X-0.3359Y-0.3359
G01 X-0.3199Y-0.3511
G01 X-0.3087Y-0.3610
G01 X-0.2839Y-0.3808
G01 X-0.2635Y-0.3952
G01 X-0.2452Y-0.4068
G01 X-0.2042Y-0.4288
G01 X-0.1612Y-0.4468
G01 X-0.1366Y-0.4549
G01 X-0.1166Y-0.4604
G01 X-0.1025Y-0.4638
G01 X-0.0709Y-0.4696
G01 X-0.0472Y-0.4726
G01 X-0.0245Y-0.4743
G01 X-0.0000Y-0.4750
G01 X12.0000Y-0.4750
G01 X12.0245Y-0.4743
G01 X12.0472Y-0.4726
G01 X12.0709Y-0.4696
G01 X12.1025Y-0.4638
G01 X12.1366Y-0.4549
G01 X12.1612Y-0.4468
G01 X12.1923Y-0.4343
G01 X12.2130Y-0.4245
G01 X12.2431Y-0.4080
G01 X12.2635Y-0.3952
G01 X12.2820Y-0.3822
G01 X12.3181Y-0.3528
G01 X12.3359Y-0.3359
G01 X12.3511Y-0.3199
G01 X12.3610Y-0.3087
G01 X12.3808Y-0.2839
G01 X12.3952Y-0.2635
G01 X12.4068Y-0.2452
G01 X12.4288Y-0.2042
G01 X12.4468Y-0.1612
G01 X12.4549Y-0.1366
G01 X12.4604Y-0.1166
G01 X12.4638Y-0.1025
G01 X12.4696Y-0.0709
G01 X12.4726Y-0.0472
G01 X12.4743Y-0.0245
G01 X12.4750Y-0.0000
G01 X12.4750Y13.0250
G01 X14.0000Y13.0250
G01 X14.0245Y13.0257
G01 X14.0472Y13.0274
G01 X14.0709Y13.0304
G01 X14.1025Y13.0362
G01 X14.1366Y13.0451
G01 X14.1612Y13.0532
G01 X14.1923Y13.0657
G01 X14.2130Y13.0755
G01 X14.2452Y13.0932
G01 X14.2635Y13.1048
G01 X14.2820Y13.1178
G01 X14.3087Y13.1390
G01 X14.3359Y13.1641
G01 X14.3528Y13.1819
G01 X14.3808Y13.2161
G01 X14.3952Y13.2365
G01 X14.4080Y13.2569
G01 X14.4245Y13.2870
G01 X14.4343Y13.3077
G01 X14.4468Y13.3388
G01 X14.4549Y13.3634
G01 X14.4604Y13.3834
G01 X14.4638Y13.3975
G01 X14.4696Y13.4291
G01 X14.4726Y13.4528
G01 X14.4743Y13.4755
G01 X14.4750Y13.5000
G01 X14.4750Y17.5000
G01 X14.4745Y17.5221
G01 X14.4726Y17.5472
G01 X14.4700Y17.5685
G01 X14.4610Y17.6142
G01 X14.4549Y17.6366
G01 X14.4476Y17.6589
G01 X14.4299Y17.7020
G01 X14.4080Y17.7431
G01 X14.3952Y17.7635
G01 X14.3822Y17.7820
G01 X14.3528Y17.8181
G01 X14.3359Y17.8359
G01 X14.3199Y17.8511
G01 X14.3087Y17.8610
G01 X14.2839Y17.8808
G01 X14.2635Y17.8952
G01 X14.2452Y17.9068
G01 X14.2042Y17.9288
G01 X14.1612Y17.9468
G01 X14.1366Y17.9549
G01 X14.1166Y17.9604
G01 X14.1025Y17.9638
G01 X14.0709Y17.9696
G01 X14.0472Y17.9726
G01 X14.0245Y17.9743
G01 X14.0000Y17.9750
G01 X-2.0000Y17.9750
G01 X-2.0245Y17.9743
G01 X-2.0472Y17.9726
G01 X-2.0685Y17.9700
G01 X-2.1025Y17.9638
G01 X-2.1166Y17.9604
G01 X-2.1366Y17.9549
G01 X-2.1589Y17.9476
G01 X-2.1923Y17.9343
G01 X-2.2130Y17.9245
G01 X-2.2452Y17.9068
G01 X-2.2635Y17.8952
G01 X-2.2820Y17.8822
G01 X-2.3087Y17.8610
G01 X-2.3359Y17.8359
G01 X-2.3610Y17.8087
G01 X-2.3822Y17.7820
G01 X-2.3952Y17.7635
G01 X-2.4068Y17.7452
G01 X-2.4245Y17.7130
G01 X-2.4343Y17.6923
G01 X-2.4476Y17.6589
G01 X-2.4549Y17.6366
G01 X-2.4604Y17.6166
G01 X-2.4638Y17.6025
G01 X-2.4696Y17.5709
G01 X-2.4726Y17.5472
G01 X-2.4743Y17.5245
G01 X-2.4750Y17.5000
G01 X-2.4750Y13.5000
G01 X-2.4745Y13.4779
G00 X-2.4745Y13.4779
G01 Z-1.5000
G01 X-2.4726Y13.4528
G01 X-2.4700Y13.4315
G01 X-2.4638Y13.3975
G01 X-2.4549Y13.3634
G01 X-2.4468Y13.3388
G01 X-2.4288Y13.2958
G01 X-2.4080Y13.2569
G01 X-2.3952Y13.2365
G01 X-2.3822Y13.2180
G01 X-2.3610Y13.1913
G01 X-2.3359Y13.1641
G01 X-2.3087Y13.1390
G01 X-2.2820Y13.1178
G01 X-2.2635Y13.1048
G01 X-2.2452Y13.0932
G01 X-2.2042Y13.0712
G01 X-2.1612Y13.0532
G01 X-2.1366Y13.0451
G01 X-2.1025Y13.0362
G01 X-2.0709Y13.0304
G01 X-2.0472Y13.0274
G01 X-2.0245Y13.0257
G01 X-2.0000Y13.0250
G01 X-0.4750Y13.0250
G01 X-0.4750Y-0.0000
G01 X-0.4743Y-0.0245
G01 X-0.4726Y-0.0472
G01 X-0.4696Y-0.0709
G01 X-0.4638Y-0.1025
G01 X-0.4549Y-0.1366
G01 X-0.4468Y-0.1612
G01 X-0.4343Y-0.1923
G01 X-0.4245Y-0.2130
G01 X-0.4080Y-0.2431
G01 X-0.3952Y-0.2635
G01 X-0.3822Y-0.2820
G01 X-0.3528Y-0.3181
G01 X-0.3359Y-0.3359
G01 X-0.3199Y-0.3511
G01 X-0.3087Y-0.3610
G01 X-0.2839Y-0.3808
G01 X-0.2635Y-0.3952
G01 X-0.2452Y-0.4068
G01 X-0.2042Y-0.4288
G01 X-0.1612Y-0.4468
G01 X-0.1366Y-0.4549
G01 X-0.1166Y-0.4604
G01 X-0.1025Y-0.4638
G01 X-0.0709Y-0.4696
G01 X-0.0472Y-0.4726
G01 X-0.0245Y-0.4743
G01 X-0.0000Y-0.4750
G01 X12.0000Y-0.4750
G01 X12.0245Y-0.4743
G01 X12.0472Y-0.4726
G01 X12.0709Y-0.4696
G01 X12.1025Y-0.4638
G01 X12.1366Y-0.4549
G01 X12.1612Y-0.4468
G01 X12.1923Y-0.4343
G01 X12.2130Y-0.4245
G01 X12.2431Y-0.4080
G01 X12.2635Y-0.3952
G01 X12.2820Y-0.3822
G01 X12.3181Y-0.3528
G01 X12.3359Y-0.3359
G01 X12.3511Y-0.3199
G01 X12.3610Y-0.3087
G01 X12.3808Y-0.2839
G01 X12.3952Y-0.2635
G01 X12.4068Y-0.2452
G01 X12.4288Y-0.2042
G01 X12.4468Y-0.1612
G01 X12.4549Y-0.1366
G01 X12.4604Y-0.1166
G01 X12.4638Y-0.1025
G01 X12.4696Y-0.0709
G01 X12.4726Y-0.0472
G01 X12.4743Y-0.0245
G01 X12.4750Y-0.0000
G01 X12.4750Y13.0250
G01 X14.0000Y13.0250
G01 X14.0245Y13.0257
G01 X14.0472Y13.0274
G01 X14.0709Y13.0304
G01 X14.1025Y13.0362
G01 X14.1366Y13.0451
G01 X14.1612Y13.0532
G01 X14.1923Y13.0657
G01 X14.2130Y13.0755
G01 X14.2452Y13.0932
G01 X14.2635Y13.1048
G01 X14.2820Y13.1178
G01 X14.3087Y13.1390
G01 X14.3359Y13.1641
G01 X14.3528Y13.1819
G01 X14.3808Y13.2161
G01 X14.3952Y13.2365
G01 X14.4080Y13.2569
G01 X14.4245Y13.2870
G01 X14.4343Y13.3077
G01 X14.4468Y13.3388
G01 X14.4549Y13.3634
G01 X14.4604Y13.3834
G01 X14.4638Y13.3975
G01 X14.4696Y13.4291
G01 X14.4726Y13.4528
G01 X14.4743Y13.4755
G01 X14.4750Y13.5000
G01 X14.4750Y17.5000
G01 X14.4745Y17.5221
G01 X14.4726Y17.5472
G01 X14.4700Y17.5685
G01 X14.4610Y17.6142
G01 X14.4549Y17.6366
G01 X14.4476Y17.6589
G01 X14.4299Y17.7020
G01 X14.4080Y17.7431
G01 X14.3952Y17.7635
G01 X14.3822Y17.7820
G01 X14.3528Y17.8181
G01 X14.3359Y17.8359
G01 X14.3199Y17.8511
G01 X14.3087Y17.8610
G01 X14.2839Y17.8808
G01 X14.2635Y17.8952
G01 X14.2452Y17.9068
G01 X14.2042Y17.9288
G01 X14.1612Y17.9468
G01 X14.1366Y17.9549
G01 X14.1166Y17.9604
G01 X14.1025Y17.9638
G01 X14.0709Y17.9696
G01 X14.0472Y17.9726
G01 X14.0245Y17.9743
G01 X14.0000Y17.9750
G01 X-2.0000Y17.9750
G01 X-2.0245Y17.9743
G01 X-2.0472Y17.9726
G01 X-2.0685Y17.9700
G01 X-2.1025Y17.9638
G01 X-2.1166Y17.9604
G01 X-2.1366Y17.9549
G01 X-2.1589Y17.9476
G01 X-2.1923Y17.9343
G01 X-2.2130Y17.9245
G01 X-2.2452Y17.9068
G01 X-2.2635Y17.8952
G01 X-2.2820Y17.8822
G01 X-2.3087Y17.8610
G01 X-2.3359Y17.8359
G01 X-2.3610Y17.8087
G01 X-2.3822Y17.7820
G01 X-2.3952Y17.7635
G01 X-2.4068Y17.7452
G01 X-2.4245Y17.7130
G01 X-2.4343Y17.6923
G01 X-2.4476Y17.6589
G01 X-2.4549Y17.6366
G01 X-2.4604Y17.6166
G01 X-2.4638Y17.6025
G01 X-2.4696Y17.5709
G01 X-2.4726Y17.5472
G01 X-2.4743Y17.5245
G01 X-2.4750Y17.5000
G01 X-2.4750Y13.5000
G01 X-2.4745Y13.4779
G00 X-2.4745Y13.4779
G01 Z-1.7500
G01 X-2.4726Y13.4528
G01 X-2.4700Y13.4315
G01 X-2.4638Y13.3975
G01 X-2.4549Y13.3634
G01 X-2.4468Y13.3388
G01 X-2.4288Y13.2958
G01 X-2.4080Y13.2569
G01 X-2.3952Y13.2365
G01 X-2.3822Y13.2180
G01 X-2.3610Y13.1913
G01 X-2.3359Y13.1641
G01 X-2.3087Y13.1390
G01 X-2.2820Y13.1178
G01 X-2.2635Y13.1048
G01 X-2.2452Y13.0932
G01 X-2.2042Y13.0712
G01 X-2.1612Y13.0532
G01 X-2.1366Y13.0451
G01 X-2.1025Y13.0362
G01 X-2.0709Y13.0304
G01 X-2.0472Y13.0274
G01 X-2.0245Y13.0257
G01 X-2.0000Y13.0250
G01 X-0.4750Y13.0250
G01 X-0.4750Y-0.0000
G01 X-0.4743Y-0.0245
G01 X-0.4726Y-0.0472
G01 X-0.4696Y-0.0709
G01 X-0.4638Y-0.1025
G01 X-0.4549Y-0.1366
G01 X-0.4468Y-0.1612
G01 X-0.4343Y-0.1923
G01 X-0.4245Y-0.2130
G01 X-0.4080Y-0.2431
G01 X-0.3952Y-0.2635
G01 X-0.3822Y-0.2820
G01 X-0.3528Y-0.3181
G01 X-0.3359Y-0.3359
G01 X-0.3199Y-0.3511
G01 X-0.3087Y-0.3610
G01 X-0.2839Y-0.3808
G01 X-0.2635Y-0.3952
G01 X-0.2452Y-0.4068
G01 X-0.2042Y-0.4288
G01 X-0.1612Y-0.4468
G01 X-0.1366Y-0.4549
G01 X-0.1166Y-0.4604
G01 X-0.1025Y-0.4638
G01 X-0.0709Y-0.4696
G01 X-0.0472Y-0.4726
G01 X-0.0245Y-0.4743
G01 X-0.0000Y-0.4750
G01 X12.0000Y-0.4750
G01 X12.0245Y-0.4743
G01 X12.0472Y-0.4726
G01 X12.0709Y-0.4696
G01 X12.1025Y-0.4638
G01 X12.1366Y-0.4549
G01 X12.1612Y-0.4468
G01 X12.1923Y-0.4343
G01 X12.2130Y-0.4245
G01 X12.2431Y-0.4080
G01 X12.2635Y-0.3952
G01 X12.2820Y-0.3822
G01 X12.3181Y-0.3528
G01 X12.3359Y-0.3359
G01 X12.3511Y-0.3199
G01 X12.3610Y-0.3087
G01 X12.3808Y-0.2839
G01 X12.3952Y-0.2635
G01 X12.4068Y-0.2452
G01 X12.4288Y-0.2042
G01 X12.4468Y-0.1612
G01 X12.4549Y-0.1366
G01 X12.4604Y-0.1166
G01 X12.4638Y-0.1025
G01 X12.4696Y-0.0709
G01 X12.4726Y-0.0472
G01 X12.4743Y-0.0245
G01 X12.4750Y-0.0000
G01 X12.4750Y13.0250
G01 X14.0000Y13.0250
G01 X14.0245Y13.0257
G01 X14.0472Y13.0274
G01 X14.0709Y13.0304
G01 X14.1025Y13.0362
G01 X14.1366Y13.0451
G01 X14.1612Y13.0532
G01 X14.1923Y13.0657
G01 X14.2130Y13.0755
G01 X14.2452Y13.0932
G01 X14.2635Y13.1048
G01 X14.2820Y13.1178
G01 X14.3087Y13.1390
G01 X14.3359Y13.1641
G01 X14.3528Y13.1819
G01 X14.3808Y13.2161
G01 X14.3952Y13.2365
G01 X14.4080Y13.2569
G01 X14.4245Y13.2870
G01 X14.4343Y13.3077
G01 X14.4468Y13.3388
G01 X14.4549Y13.3634
G01 X14.4604Y13.3834
G01 X14.4638Y13.3975
G01 X14.4696Y13.4291
G01 X14.4726Y13.4528
G01 X14.4743Y13.4755
G01 X14.4750Y13.5000
G01 X14.4750Y17.5000
G01 X14.4745Y17.5221
G01 X14.4726Y17.5472
G01 X14.4700Y17.5685
G01 X14.4610Y17.6142
G01 X14.4549Y17.6366
G01 X14.4476Y17.6589
G01 X14.4299Y17.7020
G01 X14.4080Y17.7431
G01 X14.3952Y17.7635
G01 X14.3822Y17.7820
G01 X14.3528Y17.8181
G01 X14.3359Y17.8359
G01 X14.3199Y17.8511
G01 X14.3087Y17.8610
G01 X14.2839Y17.8808
G01 X14.2635Y17.8952
G01 X14.2452Y17.9068
G01 X14.2042Y17.9288
G01 X14.1612Y17.9468
G01 X14.1366Y17.9549
G01 X14.1166Y17.9604
G01 X14.1025Y17.9638
G01 X14.0709Y17.9696
G01 X14.0472Y17.9726
G01 X14.0245Y17.9743
G01 X14.0000Y17.9750
G01 X-2.0000Y17.9750
G01 X-2.0245Y17.9743
G01 X-2.0472Y17.9726
G01 X-2.0685Y17.9700
G01 X-2.1025Y17.9638
G01 X-2.1166Y17.9604
G01 X-2.1366Y17.9549
G01 X-2.1589Y17.9476
G01 X-2.1923Y17.9343
G01 X-2.2130Y17.9245
G01 X-2.2452Y17.9068
G01 X-2.2635Y17.8952
G01 X-2.2820Y17.8822
G01 X-2.3087Y17.8610
G01 X-2.3359Y17.8359
G01 X-2.3610Y17.8087
G01 X-2.3822Y17.7820
G01 X-2.3952Y17.7635
G01 X-2.4068Y17.7452
G01 X-2.4245Y17.7130
G01 X-2.4343Y17.6923
G01 X-2.4476Y17.6589
G01 X-2.4549Y17.6366
G01 X-2.4604Y17.6166
G01 X-2.4638Y17.6025
G01 X-2.4696Y17.5709
G01 X-2.4726Y17.5472
G01 X-2.4743Y17.5245
G01 X-2.4750Y17.5000
G01 X-2.4750Y13.5000
G01 X-2.4745Y13.4779
G00 X-2.4745Y13.4779
G01 Z-2.0000
G01 X-2.4726Y13.4528
G01 X-2.4700Y13.4315
G01 X-2.4638Y13.3975
G01 X-2.4549Y13.3634
G01 X-2.4468Y13.3388
G01 X-2.4288Y13.2958
G01 X-2.4080Y13.2569
G01 X-2.3952Y13.2365
G01 X-2.3822Y13.2180
G01 X-2.3610Y13.1913
G01 X-2.3359Y13.1641
G01 X-2.3087Y13.1390
G01 X-2.2820Y13.1178
G01 X-2.2635Y13.1048
G01 X-2.2452Y13.0932
G01 X-2.2042Y13.0712
G01 X-2.1612Y13.0532
G01 X-2.1366Y13.0451
G01 X-2.1025Y13.0362
G01 X-2.0709Y13.0304
G01 X-2.0472Y13.0274
G01 X-2.0245Y13.0257
G01 X-2.0000Y13.0250
G01 X-0.4750Y13.0250
G01 X-0.4750Y-0.0000
G01 X-0.4743Y-0.0245
G01 X-0.4726Y-0.0472
G01 X-0.4696Y-0.0709
G01 X-0.4638Y-0.1025
G01 X-0.4549Y-0.1366
G01 X-0.4468Y-0.1612
G01 X-0.4343Y-0.1923
G01 X-0.4245Y-0.2130
G01 X-0.4080Y-0.2431
G01 X-0.3952Y-0.2635
G01 X-0.3822Y-0.2820
G01 X-0.3528Y-0.3181
G01 X-0.3359Y-0.3359
G01 X-0.3199Y-0.3511
G01 X-0.3087Y-0.3610
G01 X-0.2839Y-0.3808
G01 X-0.2635Y-0.3952
G01 X-0.2452Y-0.4068
G01 X-0.2042Y-0.4288
G01 X-0.1612Y-0.4468
G01 X-0.1366Y-0.4549
G01 X-0.1166Y-0.4604
G01 X-0.1025Y-0.4638
G01 X-0.0709Y-0.4696
G01 X-0.0472Y-0.4726
G01 X-0.0245Y-0.4743
G01 X-0.0000Y-0.4750
G01 X12.0000Y-0.4750
G01 X12.0245Y-0.4743
G01 X12.0472Y-0.4726
G01 X12.0709Y-0.4696
G01 X12.1025Y-0.4638
G01 X12.1366Y-0.4549
G01 X12.1612Y-0.4468
G01 X12.1923Y-0.4343
G01 X12.2130Y-0.4245
G01 X12.2431Y-0.4080
G01 X12.2635Y-0.3952
G01 X12.2820Y-0.3822
G01 X12.3181Y-0.3528
G01 X12.3359Y-0.3359
G01 X12.3511Y-0.3199
G01 X12.3610Y-0.3087
G01 X12.3808Y-0.2839
G01 X12.3952Y-0.2635
G01 X12.4068Y-0.2452
G01 X12.4288Y-0.2042
G01 X12.4468Y-0.1612
G01 X12.4549Y-0.1366
G01 X12.4604Y-0.1166
G01 X12.4638Y-0.1025
G01 X12.4696Y-0.0709
G01 X12.4726Y-0.0472
G01 X12.4743Y-0.0245
G01 X12.4750Y-0.0000
G01 X12.4750Y13.0250
G01 X14.0000Y13.0250
G01 X14.0245Y13.0257
G01 X14.0472Y13.0274
G01 X14.0709Y13.0304
G01 X14.1025Y13.0362
G01 X14.1366Y13.0451
G01 X14.1612Y13.0532
G01 X14.1923Y13.0657
G01 X14.2130Y13.0755
G01 X14.2452Y13.0932
G01 X14.2635Y13.1048
G01 X14.2820Y13.1178
G01 X14.3087Y13.1390
G01 X14.3359Y13.1641
G01 X14.3528Y13.1819
G01 X14.3808Y13.2161
G01 X14.3952Y13.2365
G01 X14.4080Y13.2569
G01 X14.4245Y13.2870
G01 X14.4343Y13.3077
G01 X14.4468Y13.3388
G01 X14.4549Y13.3634
G01 X14.4604Y13.3834
G01 X14.4638Y13.3975
G01 X14.4696Y13.4291
G01 X14.4726Y13.4528
G01 X14.4743Y13.4755
G01 X14.4750Y13.5000
G01 X14.4750Y17.5000
G01 X14.4745Y17.5221
G01 X14.4726Y17.5472
G01 X14.4700Y17.5685
G01 X14.4610Y17.6142
G01 X14.4549Y17.6366
G01 X14.4476Y17.6589
G01 X14.4299Y17.7020
G01 X14.4080Y17.7431
G01 X14.3952Y17.7635
G01 X14.3822Y17.7820
G01 X14.3528Y17.8181
G01 X14.3359Y17.8359
G01 X14.3199Y17.8511
G01 X14.3087Y17.8610
G01 X14.2839Y17.8808
G01 X14.2635Y17.8952
G01 X14.2452Y17.9068
G01 X14.2042Y17.9288
G01 X14.1612Y17.9468
G01 X14.1366Y17.9549
G01 X14.1166Y17.9604
G01 X14.1025Y17.9638
G01 X14.0709Y17.9696
G01 X14.0472Y17.9726
G01 X14.0245Y17.9743
G01 X14.0000Y17.9750
G01 X-2.0000Y17.9750
G01 X-2.0245Y17.9743
G01 X-2.0472Y17.9726
G01 X-2.0685Y17.9700
G01 X-2.1025Y17.9638
G01 X-2.1166Y17.9604
G01 X-2.1366Y17.9549
G01 X-2.1589Y17.9476
G01 X-2.1923Y17.9343
G01 X-2.2130Y17.9245
G01 X-2.2452Y17.9068
G01 X-2.2635Y17.8952
G01 X-2.2820Y17.8822
G01 X-2.3087Y17.8610
G01 X-2.3359Y17.8359
G01 X-2.3610Y17.8087
G01 X-2.3822Y17.7820
G01 X-2.3952Y17.7635
G01 X-2.4068Y17.7452
G01 X-2.4245Y17.7130
G01 X-2.4343Y17.6923
G01 X-2.4476Y17.6589
G01 X-2.4549Y17.6366
G01 X-2.4604Y17.6166
G01 X-2.4638Y17.6025
G01 X-2.4696Y17.5709
G01 X-2.4726Y17.5472
G01 X-2.4743Y17.5245
G01 X-2.4750Y17.5000
G01 X-2.4750Y13.5000
G01 X-2.4745Y13.4779
G00 Z3.0000
G00 X-3.1037Y13.4470
G01 Z-0.2500
G01 X-3.1050Y13.5000
G01 X-3.1050Y17.5000
G01 X-3.1036Y17.5554
G01 X-3.0995Y17.6099
G01 X-3.0928Y17.6633
G01 X-3.0788Y17.7392
G01 X-3.0716Y17.7697
G01 X-3.0584Y17.8176
G01 X-3.0400Y17.8734
G01 X-3.0100Y17.9482
G01 X-2.9984Y17.9735
G01 X-2.9880Y17.9948
G01 X-2.9484Y18.0670
G01 X-2.9194Y18.1130
G01 X-2.8868Y18.1592
G01 X-2.8393Y18.2187
G01 X-2.8179Y18.2430
G01 X-2.7814Y18.2814
G01 X-2.7430Y18.3179
G01 X-2.7187Y18.3393
G01 X-2.6572Y18.3883
G01 X-2.6130Y18.4194
G01 X-2.5670Y18.4484
G01 X-2.4948Y18.4880
G01 X-2.4482Y18.5100
G01 X-2.3711Y18.5408
G01 X-2.3176Y18.5584
G01 X-2.2697Y18.5716
G01 X-2.2392Y18.5788
G01 X-2.1633Y18.5928
G01 X-2.1099Y18.5995
G01 X-2.0554Y18.6036
G01 X-2.0000Y18.6050
G01 X14.0000Y18.6050
G01 X14.0554Y18.6036
G01 X14.1099Y18.5995
G01 X14.1633Y18.5928
G01 X14.2392Y18.5788
G01 X14.2697Y18.5716
G01 X14.3176Y18.5584
G01 X14.3734Y18.5400
G01 X14.4482Y18.5100
G01 X14.4735Y18.4984
G01 X14.4948Y18.4880
G01 X14.5691Y18.4471
G01 X14.6130Y18.4194
G01 X14.6572Y18.3883
G01 X14.7187Y18.3393
G01 X14.7411Y18.3196
G01 X14.7814Y18.2814
G01 X14.8179Y18.2430
G01 X14.8393Y18.2187
G01 X14.8868Y18.1592
G01 X14.9194Y18.1130
G01 X14.9471Y18.0691
G01 X14.9880Y17.9948
G01 X14.9984Y17.9735
G01 X15.0100Y17.9482
G01 X15.0400Y17.8734
G01 X15.0584Y17.8176
G01 X15.0716Y17.7697
G01 X15.0788Y17.7392
G01 X15.0928Y17.6633
G01 X15.0995Y17.6099
G01 X15.1036Y17.5554
G01 X15.1050Y17.5000
G01 X15.1050Y13.5000
G01 X15.1036Y13.4446
G01 X15.0995Y13.3901
G01 X15.0932Y13.3391
G01 X15.0788Y13.2608
G01 X15.0716Y13.2303
G01 X15.0584Y13.1824
G01 X15.0400Y13.1266
G01 X15.0100Y13.0518
G01 X14.9880Y13.0052
G01 X14.9484Y12.9330
G01 X14.9194Y12.8870
G01 X14.8868Y12.8408
G01 X14.8393Y12.7813
G01 X14.8179Y12.7570
G01 X14.7814Y12.7186
G01 X14.7430Y12.6821
G01 X14.7187Y12.6607
G01 X14.6592Y12.6132
G01 X14.6130Y12.5806
G01 X14.5670Y12.5516
G01 X14.4948Y12.5120
G01 X14.4482Y12.4900
G01 X14.3711Y12.4592
G01 X14.3176Y12.4416
G01 X14.2673Y12.4278
G01 X14.2392Y12.4212
G01 X14.1609Y12.4068
G01 X14.1099Y12.4005
G01 X14.0554Y12.3964
G01 X14.0000Y12.3950
G01 X13.1050Y12.3950
G01 X13.1050Y-0.0000
G01 X13.1036Y-0.0554
G01 X13.0995Y-0.1099
G01 X13.0928Y-0.1633
G01 X13.0788Y-0.2392
G01 X13.0716Y-0.2697
G01 X13.0584Y-0.3176
G01 X13.0400Y-0.3734
G01 X13.0100Y-0.4482
G01 X12.9984Y-0.4735
G01 X12.9880Y-0.4948
G01 X12.9471Y-0.5691
G01 X12.9194Y-0.6130
G01 X12.8883Y-0.6572
G01 X12.8393Y-0.7187
G01 X12.8196Y-0.7411
G01 X12.7814Y-0.7814
G01 X12.7411Y-0.8196
G01 X12.7187Y-0.8393
G01 X12.6572Y-0.8883
G01 X12.6130Y-0.9194
G01 X12.5670Y-0.9484
G01 X12.4948Y-0.9880
G01 X12.4482Y-1.0100
G01 X12.3711Y-1.0408
G01 X12.3176Y-1.0584
G01 X12.2697Y-1.0716
G01 X12.2392Y-1.0788
G01 X12.1633Y-1.0928
G01 X12.1099Y-1.0995
G01 X12.0554Y-1.1036
G01 X12.0000Y-1.1050
G01 X-0.0000Y-1.1050
G01 X-0.0554Y-1.1036
G01 X-0.1099Y-1.0995
G01 X-0.1633Y-1.0928
G01 X-0.2392Y-1.0788
G01 X-0.2697Y-1.0716
G01 X-0.3176Y-1.0584
G01 X-0.3734Y-1.0400
G01 X-0.4482Y-1.0100
G01 X-0.4735Y-0.9984
G01 X-0.4948Y-0.9880
G01 X-0.5691Y-0.9471
G01 X-0.6130Y-0.9194
G01 X-0.6572Y-0.8883
G01 X-0.7187Y-0.8393
G01 X-0.7411Y-0.8196
G01 X-0.7814Y-0.7814
G01 X-0.8196Y-0.7411
G01 X-0.8393Y-0.7187
G01 X-0.8883Y-0.6572
G01 X-0.9194Y-0.6130
G01 X-0.9484Y-0.5670
G01 X-0.9880Y-0.4948
G01 X-0.9994Y-0.4713
G01 X-1.0100Y-0.4482
G01 X-1.0408Y-0.3711
G01 X-1.0584Y-0.3176
G01 X-1.0722Y-0.2673
G01 X-1.0788Y-0.2392
G01 X-1.0932Y-0.1609
G01 X-1.0995Y-0.1099
G01 X-1.1037Y-0.0530
G01 X-1.1050Y-0.0000
G01 X-1.1050Y12.3950
G01 X-2.0000Y12.3950
G01 X-2.0554Y12.3964
G01 X-2.1099Y12.4005
G01 X-2.1633Y12.4072
G01 X-2.2392Y12.4212
G01 X-2.2697Y12.4284
G01 X-2.3176Y12.4416
G01 X-2.3734Y12.4600
G01 X-2.4482Y12.4900
G01 X-2.4948Y12.5120
G01 X-2.5670Y12.5516
G01 X-2.6130Y12.5806
G01 X-2.6592Y12.6132
G01 X-2.7187Y12.6607
G01 X-2.7411Y12.6804
G01 X-2.7814Y12.7186
G01 X-2.8179Y12.7570
G01 X-2.8393Y12.7813
G01 X-2.8868Y12.8408
G01 X-2.9194Y12.8870
G01 X-2.9484Y12.9330
G01 X-2.9880Y13.0052
G01 X-3.0100Y13.0518
G01 X-3.0408Y13.1289
G01 X-3.0584Y13.1824
G01 X-3.0716Y13.2303
G01 X-3.0788Y13.2608
G01 X-3.0932Y13.3391
G01 X-3.0995Y13.3901
G01 X-3.1037Y13.4470
G00 X-3.1037Y13.4470
G01 Z-0.5000
G01 X-3.1050Y13.5000
G01 X-3.1050Y17.5000
G01 X-3.1036Y17.5554
G01 X-3.0995Y17.6099
G01 X-3.0928Y17.6633
G01 X-3.0788Y17.7392
G01 X-3.0716Y17.7697
G01 X-3.0584Y17.8176
G01 X-3.0400Y17.8734
G01 X-3.0100Y17.9482
G01 X-2.9984Y17.9735
G01 X-2.9880Y17.9948
G01 X-2.9484Y18.0670
G01 X-2.9194Y18.1130
G01 X-2.8868Y18.1592
G01 X-2.8393Y18.2187
G01 X-2.8179Y18.2430
G01 X-2.7814Y18.2814
G01 X-2.7430Y18.3179
G01 X-2.7187Y18.3393
G01 X-2.6572Y18.3883
G01 X-2.6130Y18.4194
G01 X-2.5670Y18.4484
G01 X-2.4948Y18.4880
G01 X-2.4482Y18.5100
G01 X-2.3711Y18.5408
G01 X-2.3176Y18.5584
G01 X-2.2697Y18.5716
G01 X-2.2392Y18.5788
G01 X-2.1633Y18.5928
G01 X-2.1099Y18.5995
G01 X-2.0554Y18.6036
G01 X-2.0000Y18.6050
G01 X14.0000Y18.6050
G01 X14.0554Y18.6036
G01 X14.1099Y18.5995
G01 X14.1633Y18.5928
G01 X14.2392Y18.5788
G01 X14.2697Y18.5716
G01 X14.3176Y18.5584
G01 X14.3734Y18.5400
G01 X14.4482Y18.5100
G01 X14.4735Y18.4984
G01 X14.4948Y18.4880
G01 X14.5691Y18.4471
G01 X14.6130Y18.4194
G01 X14.6572Y18.3883
G01 X14.7187Y18.3393
G01 X14.7411Y18.3196
G01 X14.7814Y18.2814
G01 X14.8179Y18.2430
G01 X14.8393Y18.2187
G01 X14.8868Y18.1592
G01 X14.9194Y18.1130
G01 X14.9471Y18.0691
G01 X14.9880Y17.9948
G01 X14.9984Y17.9735
G01 X15.0100Y17.9482
G01 X15.0400Y17.8734
G01 X15.0584Y17.8176
G01 X15.0716Y17.7697
G01 X15.0788Y17.7392
G01 X15.0928Y17.6633
G01 X15.0995Y17.6099
G01 X15.1036Y17.5554
G01 X15.1050Y17.5000
G01 X15.1050Y13.5000
G01 X15.1036Y13.4446
G01 X15.0995Y13.3901
G01 X15.0932Y13.3391
G01 X15.0788Y13.2608
G01 X15.0716Y13.2303
G01 X15.0584Y13.1824
G01 X15.0400Y13.1266
G01 X15.0100Y13.0518
G01 X14.9880Y13.0052
G01 X14.9484Y12.9330
G01 X14.9194Y12.8870
G01 X14.8868Y12.8408
G01 X14.8393Y12.7813
G01 X14.8179Y12.7570
G01 X14.7814Y12.7186
G01 X14.7430Y12.6821
G01 X14.7187Y12.6607
G01 X14.6592Y12.6132
G01 X14.6130Y12.5806
G01 X14.5670Y12.5516
G01 X14.4948Y12.5120
G01 X14.4482Y12.4900
G01 X14.3711Y12.4592
G01 X14.3176Y12.4416
G01 X14.2673Y12.4278
G01 X14.2392Y12.4212
G01 X14.1609Y12.4068
G01 X14.1099Y12.4005
G01 X14.0554Y12.3964
G01 X14.0000Y12.3950
G01 X13.1050Y12.3950
G01 X13.1050Y-0.0000
G01 X13.1036Y-0.0554
G01 X13.0995Y-0.1099
G01 X13.0928Y-0.1633
G01 X13.0788Y-0.2392
G01 X13.0716Y-0.2697
G01 X13.0584Y-0.3176
G01 X13.0400Y-0.3734
G01 X13.0100Y-0.4482
G01 X12.9984Y-0.4735
G01 X12.9880Y-0.4948
G01 X12.9471Y-0.5691
G01 X12.9194Y-0.6130
G01 X12.8883Y-0.6572
G01 X12.8393Y-0.7187
G01 X12.8196Y-0.7411
G01 X12.7814Y-0.7814
G01 X12.7411Y-0.8196
G01 X12.7187Y-0.8393
G01 X12.6572Y-0.8883
G01 X12.6130Y-0.9194
G01 X12.5670Y-0.9484
G01 X12.4948Y-0.9880
G01 X12.4482Y-1.0100
G01 X12.3711Y-1.0408
G01 X12.3176Y-1.0584
G01 X12.2697Y-1.0716
G01 X12.2392Y-1.0788
G01 X12.1633Y-1.0928
G01 X12.1099Y-1.0995
G01 X12.0554Y-1.1036
G01 X12.0000Y-1.1050
G01 X-0.0000Y-1.1050
G01 X-0.0554Y-1.1036
G01 X-0.1099Y-1.0995
G01 X-0.1633Y-1.0928
G01 X-0.2392Y-1.0788
G01 X-0.2697Y-1.0716
G01 X-0.3176Y-1.0584
G01 X-0.3734Y-1.0400
G01 X-0.4482Y-1.0100
G01 X-0.4735Y-0.9984
G01 X-0.4948Y-0.9880
G01 X-0.5691Y-0.9471
G01 X-0.6130Y-0.9194
G01 X-0.6572Y-0.8883
G01 X-0.7187Y-0.8393
G01 X-0.7411Y-0.8196
G01 X-0.7814Y-0.7814
G01 X-0.8196Y-0.7411
G01 X-0.8393Y-0.7187
G01 X-0.8883Y-0.6572
G01 X-0.9194Y-0.6130
G01 X-0.9484Y-0.5670
G01 X-0.9880Y-0.4948
G01 X-0.9994Y-0.4713
G01 X-1.0100Y-0.4482
G01 X-1.0408Y-0.3711
G01 X-1.0584Y-0.3176
G01 X-1.0722Y-0.2673
G01 X-1.0788Y-0.2392
G01 X-1.0932Y-0.1609
G01 X-1.0995Y-0.1099
G01 X-1.1037Y-0.0530
G01 X-1.1050Y-0.0000
G01 X-1.1050Y12.3950
G01 X-2.0000Y12.3950
G01 X-2.0554Y12.3964
G01 X-2.1099Y12.4005
G01 X-2.1633Y12.4072
G01 X-2.2392Y12.4212
G01 X-2.2697Y12.4284
G01 X-2.3176Y12.4416
G01 X-2.3734Y12.4600
G01 X-2.4482Y12.4900
G01 X-2.4948Y12.5120
G01 X-2.5670Y12.5516
G01 X-2.6130Y12.5806
G01 X-2.6592Y12.6132
G01 X-2.7187Y12.6607
G01 X-2.7411Y12.6804
G01 X-2.7814Y12.7186
G01 X-2.8179Y12.7570
G01 X-2.8393Y12.7813
G01 X-2.8868Y12.8408
G01 X-2.9194Y12.8870
G01 X-2.9484Y12.9330
G01 X-2.9880Y13.0052
G01 X-3.0100Y13.0518
G01 X-3.0408Y13.1289
G01 X-3.0584Y13.1824
G01 X-3.0716Y13.2303
G01 X-3.0788Y13.2608
G01 X-3.0932Y13.3391
G01 X-3.0995Y13.3901
G01 X-3.1037Y13.4470
G00 X-3.1037Y13.4470
G01 Z-0.7500
G01 X-3.1050Y13.5000
G01 X-3.1050Y17.5000
G01 X-3.1036Y17.5554
G01 X-3.0995Y17.6099
G01 X-3.0928Y17.6633
G01 X-3.0788Y17.7392
G01 X-3.0716Y17.7697
G01 X-3.0584Y17.8176
G01 X-3.0400Y17.8734
G01 X-3.0100Y17.9482
G01 X-2.9984Y17.9735
G01 X-2.9880Y17.9948
G01 X-2.9484Y18.0670
G01 X-2.9194Y18.1130
G01 X-2.8868Y18.1592
G01 X-2.8393Y18.2187
G01 X-2.8179Y18.2430
G01 X-2.7814Y18.2814
G01 X-2.7430Y18.3179
G01 X-2.7187Y18.3393
G01 X-2.6572Y18.3883
G01 X-2.6130Y18.4194
G01 X-2.5670Y18.4484
G01 X-2.4948Y18.4880
G01 X-2.4482Y18.5100
G01 X-2.3711Y18.5408
G01 X-2.3176Y18.5584
G01 X-2.2697Y18.5716
G01 X-2.2392Y18.5788
G01 X-2.1633Y18.5928
G01 X-2.1099Y18.5995
G01 X-2.0554Y18.6036
G01 X-2.0000Y18.6050
G01 X14.0000Y18.6050
G01 X14.0554Y18.6036
G01 X14.1099Y18.5995
G01 X14.1633Y18.5928
G01 X14.2392Y18.5788
G01 X14.2697Y18.5716
G01 X14.3176Y18.5584
G01 X14.3734Y18.5400
G01 X14.4482Y18.5100
G01 X14.4735Y18.4984
G01 X14.4948Y18.4880
G01 X14.5691Y18.4471
G01 X14.6130Y18.4194
G01 X14.6572Y18.3883
G01 X14.7187Y18.3393
G01 X14.7411Y18.3196
G01 X14.7814Y18.2814
G01 X14.8179Y18.2430
G01 X14.8393Y18.2187
G01 X14.8868Y18.1592
G01 X14.9194Y18.1130
G01 X14.9471Y18.0691
G01 X14.9880Y17.9948
G01 X14.9984Y17.9735
G01 X15.0100Y17.9482
G01 X15.0400Y17.8734
G01 X15.0584Y17.8176
G01 X15.0716Y17.7697
G01 X15.0788Y17.7392
G01 X15.0928Y17.6633
G01 X15.0995Y17.6099
G01 X15.1036Y17.5554
G01 X15.1050Y17.5000
G01 X15.1050Y13.5000
G01 X15.1036Y13.4446
G01 X15.0995Y13.3901
G01 X15.0932Y13.3391
G01 X15.0788Y13.2608
G01 X15.0716Y13.2303
G01 X15.0584Y13.1824
G01 X15.0400Y13.1266
G01 X15.0100Y13.0518
G01 X14.9880Y13.0052
G01 X14.9484Y12.9330
G01 X14.9194Y12.8870
G01 X14.8868Y12.8408
G01 X14.8393Y12.7813
G01 X14.8179Y12.7570
G01 X14.7814Y12.7186
G01 X14.7430Y12.6821
G01 X14.7187Y12.6607
G01 X14.6592Y12.6132
G01 X14.6130Y12.5806
G01 X14.5670Y12.5516
G01 X14.4948Y12.5120
G01 X14.4482Y12.4900
G01 X14.3711Y12.4592
G01 X14.3176Y12.4416
G01 X14.2673Y12.4278
G01 X14.2392Y12.4212
G01 X14.1609Y12.4068
G01 X14.1099Y12.4005
G01 X14.0554Y12.3964
G01 X14.0000Y12.3950
G01 X13.1050Y12.3950
G01 X13.1050Y-0.0000
G01 X13.1036Y-0.0554
G01 X13.0995Y-0.1099
G01 X13.0928Y-0.1633
G01 X13.0788Y-0.2392
G01 X13.0716Y-0.2697
G01 X13.0584Y-0.3176
G01 X13.0400Y-0.3734
G01 X13.0100Y-0.4482
G01 X12.9984Y-0.4735
G01 X12.9880Y-0.4948
G01 X12.9471Y-0.5691
G01 X12.9194Y-0.6130
G01 X12.8883Y-0.6572
G01 X12.8393Y-0.7187
G01 X12.8196Y-0.7411
G01 X12.7814Y-0.7814
G01 X12.7411Y-0.8196
G01 X12.7187Y-0.8393
G01 X12.6572Y-0.8883
G01 X12.6130Y-0.9194
G01 X12.5670Y-0.9484
G01 X12.4948Y-0.9880
G01 X12.4482Y-1.0100
G01 X12.3711Y-1.0408
G01 X12.3176Y-1.0584
G01 X12.2697Y-1.0716
G01 X12.2392Y-1.0788
G01 X12.1633Y-1.0928
G01 X12.1099Y-1.0995
G01 X12.0554Y-1.1036
G01 X12.0000Y-1.1050
G01 X-0.0000Y-1.1050
G01 X-0.0554Y-1.1036
G01 X-0.1099Y-1.0995
G01 X-0.1633Y-1.0928
G01 X-0.2392Y-1.0788
G01 X-0.2697Y-1.0716
G01 X-0.3176Y-1.0584
G01 X-0.3734Y-1.0400
G01 X-0.4482Y-1.0100
G01 X-0.4735Y-0.9984
G01 X-0.4948Y-0.9880
G01 X-0.5691Y-0.9471
G01 X-0.6130Y-0.9194
G01 X-0.6572Y-0.8883
G01 X-0.7187Y-0.8393
G01 X-0.7411Y-0.8196
G01 X-0.7814Y-0.7814
G01 X-0.8196Y-0.7411
G01 X-0.8393Y-0.7187
G01 X-0.8883Y-0.6572
G01 X-0.9194Y-0.6130
G01 X-0.9484Y-0.5670
G01 X-0.9880Y-0.4948
G01 X-0.9994Y-0.4713
G01 X-1.0100Y-0.4482
G01 X-1.0408Y-0.3711
G01 X-1.0584Y-0.3176
G01 X-1.0722Y-0.2673
G01 X-1.0788Y-0.2392
G01 X-1.0932Y-0.1609
G01 X-1.0995Y-0.1099
G01 X-1.1037Y-0.0530
G01 X-1.1050Y-0.0000
G01 X-1.1050Y12.3950
G01 X-2.0000Y12.3950
G01 X-2.0554Y12.3964
G01 X-2.1099Y12.4005
G01 X-2.1633Y12.4072
G01 X-2.2392Y12.4212
G01 X-2.2697Y12.4284
G01 X-2.3176Y12.4416
G01 X-2.3734Y12.4600
G01 X-2.4482Y12.4900
G01 X-2.4948Y12.5120
G01 X-2.5670Y12.5516
G01 X-2.6130Y12.5806
G01 X-2.6592Y12.6132
G01 X-2.7187Y12.6607
G01 X-2.7411Y12.6804
G01 X-2.7814Y12.7186
G01 X-2.8179Y12.7570
G01 X-2.8393Y12.7813
G01 X-2.8868Y12.8408
G01 X-2.9194Y12.8870
G01 X-2.9484Y12.9330
G01 X-2.9880Y13.0052
G01 X-3.0100Y13.0518
G01 X-3.0408Y13.1289
G01 X-3.0584Y13.1824
G01 X-3.0716Y13.2303
G01 X-3.0788Y13.2608
G01 X-3.0932Y13.3391
G01 X-3.0995Y13.3901
G01 X-3.1037Y13.4470
G00 X-3.1037Y13.4470
G01 Z-1.0000
G01 X-3.1050Y13.5000
G01 X-3.1050Y17.5000
G01 X-3.1036Y17.5554
G01 X-3.0995Y17.6099
G01 X-3.0928Y17.6633
G01 X-3.0788Y17.7392
G01 X-3.0716Y17.7697
G01 X-3.0584Y17.8176
G01 X-3.0400Y17.8734
G01 X-3.0100Y17.9482
G01 X-2.9984Y17.9735
G01 X-2.9880Y17.9948
G01 X-2.9484Y18.0670
G01 X-2.9194Y18.1130
G01 X-2.8868Y18.1592
G01 X-2.8393Y18.2187
G01 X-2.8179Y18.2430
G01 X-2.7814Y18.2814
G01 X-2.7430Y18.3179
G01 X-2.7187Y18.3393
G01 X-2.6572Y18.3883
G01 X-2.6130Y18.4194
G01 X-2.5670Y18.4484
G01 X-2.4948Y18.4880
G01 X-2.4482Y18.5100
G01 X-2.3711Y18.5408
G01 X-2.3176Y18.5584
G01 X-2.2697Y18.5716
G01 X-2.2392Y18.5788
G01 X-2.1633Y18.5928
G01 X-2.1099Y18.5995
G01 X-2.0554Y18.6036
G01 X-2.0000Y18.6050
G01 X14.0000Y18.6050
G01 X14.0554Y18.6036
G01 X14.1099Y18.5995
G01 X14.1633Y18.5928
G01 X14.2392Y18.5788
G01 X14.2697Y18.5716
G01 X14.3176Y18.5584
G01 X14.3734Y18.5400
G01 X14.4482Y18.5100
G01 X14.4735Y18.4984
G01 X14.4948Y18.4880
G01 X14.5691Y18.4471
G01 X14.6130Y18.4194
G01 X14.6572Y18.3883
G01 X14.7187Y18.3393
G01 X14.7411Y18.3196
G01 X14.7814Y18.2814
G01 X14.8179Y18.2430
G01 X14.8393Y18.2187
G01 X14.8868Y18.1592
G01 X14.9194Y18.1130
G01 X14.9471Y18.0691
G01 X14.9880Y17.9948
G01 X14.9984Y17.9735
G01 X15.0100Y17.9482
G01 X15.0400Y17.8734
G01 X15.0584Y17.8176
G01 X15.0716Y17.7697
G01 X15.0788Y17.7392
G01 X15.0928Y17.6633
G01 X15.0995Y17.6099
G01 X15.1036Y17.5554
G01 X15.1050Y17.5000
G01 X15.1050Y13.5000
G01 X15.1036Y13.4446
G01 X15.0995Y13.3901
G01 X15.0932Y13.3391
G01 X15.0788Y13.2608
G01 X15.0716Y13.2303
G01 X15.0584Y13.1824
G01 X15.0400Y13.1266
G01 X15.0100Y13.0518
G01 X14.9880Y13.0052
G01 X14.9484Y12.9330
G01 X14.9194Y12.8870
G01 X14.8868Y12.8408
G01 X14.8393Y12.7813
G01 X14.8179Y12.7570
G01 X14.7814Y12.7186
G01 X14.7430Y12.6821
G01 X14.7187Y12.6607
G01 X14.6592Y12.6132
G01 X14.6130Y12.5806
G01 X14.5670Y12.5516
G01 X14.4948Y12.5120
G01 X14.4482Y12.4900
G01 X14.3711Y12.4592
G01 X14.3176Y12.4416
G01 X14.2673Y12.4278
G01 X14.2392Y12.4212
G01 X14.1609Y12.4068
G01 X14.1099Y12.4005
G01 X14.0554Y12.3964
G01 X14.0000Y12.3950
G01 X13.1050Y12.3950
G01 X13.1050Y-0.0000
G01 X13.1036Y-0.0554
G01 X13.0995Y-0.1099
G01 X13.0928Y-0.1633
G01 X13.0788Y-0.2392
G01 X13.0716Y-0.2697
G01 X13.0584Y-0.3176
G01 X13.0400Y-0.3734
G01 X13.0100Y-0.4482
G01 X12.9984Y-0.4735
G01 X12.9880Y-0.4948
G01 X12.9471Y-0.5691
G01 X12.9194Y-0.6130
G01 X12.8883Y-0.6572
G01 X12.8393Y-0.7187
G01 X12.8196Y-0.7411
G01 X12.7814Y-0.7814
G01 X12.7411Y-0.8196
G01 X12.7187Y-0.8393
G01 X12.6572Y-0.8883
G01 X12.6130Y-0.9194
G01 X12.5670Y-0.9484
G01 X12.4948Y-0.9880
G01 X12.4482Y-1.0100
G01 X12.3711Y-1.0408
G01 X12.3176Y-1.0584
G01 X12.2697Y-1.0716
G01 X12.2392Y-1.0788
G01 X12.1633Y-1.0928
G01 X12.1099Y-1.0995
G01 X12.0554Y-1.1036
G01 X12.0000Y-1.1050
G01 X-0.0000Y-1.1050
G01 X-0.0554Y-1.1036
G01 X-0.1099Y-1.0995
G01 X-0.1633Y-1.0928
G01 X-0.2392Y-1.0788
G01 X-0.2697Y-1.0716
G01 X-0.3176Y-1.0584
G01 X-0.3734Y-1.0400
G01 X-0.4482Y-1.0100
G01 X-0.4735Y-0.9984
G01 X-0.4948Y-0.9880
G01 X-0.5691Y-0.9471
G01 X-0.6130Y-0.9194
G01 X-0.6572Y-0.8883
G01 X-0.7187Y-0.8393
G01 X-0.7411Y-0.8196
G01 X-0.7814Y-0.7814
G01 X-0.8196Y-0.7411
G01 X-0.8393Y-0.7187
G01 X-0.8883Y-0.6572
G01 X-0.9194Y-0.6130
G01 X-0.9484Y-0.5670
G01 X-0.9880Y-0.4948
G01 X-0.9994Y-0.4713
G01 X-1.0100Y-0.4482
G01 X-1.0408Y-0.3711
G01 X-1.0584Y-0.3176
G01 X-1.0722Y-0.2673
G01 X-1.0788Y-0.2392
G01 X-1.0932Y-0.1609
G01 X-1.0995Y-0.1099
G01 X-1.1037Y-0.0530
G01 X-1.1050Y-0.0000
G01 X-1.1050Y12.3950
G01 X-2.0000Y12.3950
G01 X-2.0554Y12.3964
G01 X-2.1099Y12.4005
G01 X-2.1633Y12.4072
G01 X-2.2392Y12.4212
G01 X-2.2697Y12.4284
G01 X-2.3176Y12.4416
G01 X-2.3734Y12.4600
G01 X-2.4482Y12.4900
G01 X-2.4948Y12.5120
G01 X-2.5670Y12.5516
G01 X-2.6130Y12.5806
G01 X-2.6592Y12.6132
G01 X-2.7187Y12.6607
G01 X-2.7411Y12.6804
G01 X-2.7814Y12.7186
G01 X-2.8179Y12.7570
G01 X-2.8393Y12.7813
G01 X-2.8868Y12.8408
G01 X-2.9194Y12.8870
G01 X-2.9484Y12.9330
G01 X-2.9880Y13.0052
G01 X-3.0100Y13.0518
G01 X-3.0408Y13.1289
G01 X-3.0584Y13.1824
G01 X-3.0716Y13.2303
G01 X-3.0788Y13.2608
G01 X-3.0932Y13.3391
G01 X-3.0995Y13.3901
G01 X-3.1037Y13.4470
G00 X-3.1037Y13.4470
G01 Z-1.2500
G01 X-3.1050Y13.5000
G01 X-3.1050Y17.5000
G01 X-3.1036Y17.5554
G01 X-3.0995Y17.6099
G01 X-3.0928Y17.6633
G01 X-3.0788Y17.7392
G01 X-3.0716Y17.7697
G01 X-3.0584Y17.8176
G01 X-3.0400Y17.8734
G01 X-3.0100Y17.9482
G01 X-2.9984Y17.9735
G01 X-2.9880Y17.9948
G01 X-2.9484Y18.0670
G01 X-2.9194Y18.1130
G01 X-2.8868Y18.1592
G01 X-2.8393Y18.2187
G01 X-2.8179Y18.2430
G01 X-2.7814Y18.2814
G01 X-2.7430Y18.3179
G01 X-2.7187Y18.3393
G01 X-2.6572Y18.3883
G01 X-2.6130Y18.4194
G01 X-2.5670Y18.4484
G01 X-2.4948Y18.4880
G01 X-2.4482Y18.5100
G01 X-2.3711Y18.5408
G01 X-2.3176Y18.5584
G01 X-2.2697Y18.5716
G01 X-2.2392Y18.5788
G01 X-2.1633Y18.5928
G01 X-2.1099Y18.5995
G01 X-2.0554Y18.6036
G01 X-2.0000Y18.6050
G01 X14.0000Y18.6050
G01 X14.0554Y18.6036
G01 X14.1099Y18.5995
G01 X14.1633Y18.5928
G01 X14.2392Y18.5788
G01 X14.2697Y18.5716
G01 X14.3176Y18.5584
G01 X14.3734Y18.5400
G01 X14.4482Y18.5100
G01 X14.4735Y18.4984
G01 X14.4948Y18.4880
G01 X14.5691Y18.4471
G01 X14.6130Y18.4194
G01 X14.6572Y18.3883
G01 X14.7187Y18.3393
G01 X14.7411Y18.3196
G01 X14.7814Y18.2814
G01 X14.8179Y18.2430
G01 X14.8393Y18.2187
G01 X14.8868Y18.1592
G01 X14.9194Y18.1130
G01 X14.9471Y18.0691
G01 X14.9880Y17.9948
G01 X14.9984Y17.9735
G01 X15.0100Y17.9482
G01 X15.0400Y17.8734
G01 X15.0584Y17.8176
G01 X15.0716Y17.7697
G01 X15.0788Y17.7392
G01 X15.0928Y17.6633
G01 X15.0995Y17.6099
G01 X15.1036Y17.5554
G01 X15.1050Y17.5000
G01 X15.1050Y13.5000
G01 X15.1036Y13.4446
G01 X15.0995Y13.3901
G01 X15.0932Y13.3391
G01 X15.0788Y13.2608
G01 X15.0716Y13.2303
G01 X15.0584Y13.1824
G01 X15.0400Y13.1266
G01 X15.0100Y13.0518
G01 X14.9880Y13.0052
G01 X14.9484Y12.9330
G01 X14.9194Y12.8870
G01 X14.8868Y12.8408
G01 X14.8393Y12.7813
G01 X14.8179Y12.7570
G01 X14.7814Y12.7186
G01 X14.7430Y12.6821
G01 X14.7187Y12.6607
G01 X14.6592Y12.6132
G01 X14.6130Y12.5806
G01 X14.5670Y12.5516
G01 X14.4948Y12.5120
G01 X14.4482Y12.4900
G01 X14.3711Y12.4592
G01 X14.3176Y12.4416
G01 X14.2673Y12.4278
G01 X14.2392Y12.4212
G01 X14.1609Y12.4068
G01 X14.1099Y12.4005
G01 X14.0554Y12.3964
G01 X14.0000Y12.3950
G01 X13.1050Y12.3950
G01 X13.1050Y-0.0000
G01 X13.1036Y-0.0554
G01 X13.0995Y-0.1099
G01 X13.0928Y-0.1633
G01 X13.0788Y-0.2392
G01 X13.0716Y-0.2697
G01 X13.0584Y-0.3176
G01 X13.0400Y-0.3734
G01 X13.0100Y-0.4482
G01 X12.9984Y-0.4735
G01 X12.9880Y-0.4948
G01 X12.9471Y-0.5691
G01 X12.9194Y-0.6130
G01 X12.8883Y-0.6572
G01 X12.8393Y-0.7187
G01 X12.8196Y-0.7411
G01 X12.7814Y-0.7814
G01 X12.7411Y-0.8196
G01 X12.7187Y-0.8393
G01 X12.6572Y-0.8883
G01 X12.6130Y-0.9194
G01 X12.5670Y-0.9484
G01 X12.4948Y-0.9880
G01 X12.4482Y-1.0100
G01 X12.3711Y-1.0408
G01 X12.3176Y-1.0584
G01 X12.2697Y-1.0716
G01 X12.2392Y-1.0788
G01 X12.1633Y-1.0928
G01 X12.1099Y-1.0995
G01 X12.0554Y-1.1036
G01 X12.0000Y-1.1050
G01 X-0.0000Y-1.1050
G01 X-0.0554Y-1.1036
G01 X-0.1099Y-1.0995
G01 X-0.1633Y-1.0928
G01 X-0.2392Y-1.0788
G01 X-0.2697Y-1.0716
G01 X-0.3176Y-1.0584
G01 X-0.3734Y-1.0400
G01 X-0.4482Y-1.0100
G01 X-0.4735Y-0.9984
G01 X-0.4948Y-0.9880
G01 X-0.5691Y-0.9471
G01 X-0.6130Y-0.9194
G01 X-0.6572Y-0.8883
G01 X-0.7187Y-0.8393
G01 X-0.7411Y-0.8196
G01 X-0.7814Y-0.7814
G01 X-0.8196Y-0.7411
G01 X-0.8393Y-0.7187
G01 X-0.8883Y-0.6572
G01 X-0.9194Y-0.6130
G01 X-0.9484Y-0.5670
G01 X-0.9880Y-0.4948
G01 X-0.9994Y-0.4713
G01 X-1.0100Y-0.4482
G01 X-1.0408Y-0.3711
G01 X-1.0584Y-0.3176
G01 X-1.0722Y-0.2673
G01 X-1.0788Y-0.2392
G01 X-1.0932Y-0.1609
G01 X-1.0995Y-0.1099
G01 X-1.1037Y-0.0530
G01 X-1.1050Y-0.0000
G01 X-1.1050Y12.3950
G01 X-2.0000Y12.3950
G01 X-2.0554Y12.3964
G01 X-2.1099Y12.4005
G01 X-2.1633Y12.4072
G01 X-2.2392Y12.4212
G01 X-2.2697Y12.4284
G01 X-2.3176Y12.4416
G01 X-2.3734Y12.4600
G01 X-2.4482Y12.4900
G01 X-2.4948Y12.5120
G01 X-2.5670Y12.5516
G01 X-2.6130Y12.5806
G01 X-2.6592Y12.6132
G01 X-2.7187Y12.6607
G01 X-2.7411Y12.6804
G01 X-2.7814Y12.7186
G01 X-2.8179Y12.7570
G01 X-2.8393Y12.7813
G01 X-2.8868Y12.8408
G01 X-2.9194Y12.8870
G01 X-2.9484Y12.9330
G01 X-2.9880Y13.0052
G01 X-3.0100Y13.0518
G01 X-3.0408Y13.1289
G01 X-3.0584Y13.1824
G01 X-3.0716Y13.2303
G01 X-3.0788Y13.2608
G01 X-3.0932Y13.3391
G01 X-3.0995Y13.3901
G01 X-3.1037Y13.4470
G00 X-3.1037Y13.4470
G01 Z-1.5000
G01 X-3.1050Y13.5000
G01 X-3.1050Y17.5000
G01 X-3.1036Y17.5554
G01 X-3.0995Y17.6099
G01 X-3.0928Y17.6633
G01 X-3.0788Y17.7392
G01 X-3.0716Y17.7697
G01 X-3.0584Y17.8176
G01 X-3.0400Y17.8734
G01 X-3.0100Y17.9482
G01 X-2.9984Y17.9735
G01 X-2.9880Y17.9948
G01 X-2.9484Y18.0670
G01 X-2.9194Y18.1130
G01 X-2.8868Y18.1592
G01 X-2.8393Y18.2187
G01 X-2.8179Y18.2430
G01 X-2.7814Y18.2814
G01 X-2.7430Y18.3179
G01 X-2.7187Y18.3393
G01 X-2.6572Y18.3883
G01 X-2.6130Y18.4194
G01 X-2.5670Y18.4484
G01 X-2.4948Y18.4880
G01 X-2.4482Y18.5100
G01 X-2.3711Y18.5408
G01 X-2.3176Y18.5584
G01 X-2.2697Y18.5716
G01 X-2.2392Y18.5788
G01 X-2.1633Y18.5928
G01 X-2.1099Y18.5995
G01 X-2.0554Y18.6036
G01 X-2.0000Y18.6050
G01 X14.0000Y18.6050
G01 X14.0554Y18.6036
G01 X14.1099Y18.5995
G01 X14.1633Y18.5928
G01 X14.2392Y18.5788
G01 X14.2697Y18.5716
G01 X14.3176Y18.5584
G01 X14.3734Y18.5400
G01 X14.4482Y18.5100
G01 X14.4735Y18.4984
G01 X14.4948Y18.4880
G01 X14.5691Y18.4471
G01 X14.6130Y18.4194
G01 X14.6572Y18.3883
G01 X14.7187Y18.3393
G01 X14.7411Y18.3196
G01 X14.7814Y18.2814
G01 X14.8179Y18.2430
G01 X14.8393Y18.2187
G01 X14.8868Y18.1592
G01 X14.9194Y18.1130
G01 X14.9471Y18.0691
G01 X14.9880Y17.9948
G01 X14.9984Y17.9735
G01 X15.0100Y17.9482
G01 X15.0400Y17.8734
G01 X15.0584Y17.8176
G01 X15.0716Y17.7697
G01 X15.0788Y17.7392
G01 X15.0928Y17.6633
G01 X15.0995Y17.6099
G01 X15.1036Y17.5554
G01 X15.1050Y17.5000
G01 X15.1050Y13.5000
G01 X15.1036Y13.4446
G01 X15.0995Y13.3901
G01 X15.0932Y13.3391
G01 X15.0788Y13.2608
G01 X15.0716Y13.2303
G01 X15.0584Y13.1824
G01 X15.0400Y13.1266
G01 X15.0100Y13.0518
G01 X14.9880Y13.0052
G01 X14.9484Y12.9330
G01 X14.9194Y12.8870
G01 X14.8868Y12.8408
G01 X14.8393Y12.7813
G01 X14.8179Y12.7570
G01 X14.7814Y12.7186
G01 X14.7430Y12.6821
G01 X14.7187Y12.6607
G01 X14.6592Y12.6132
G01 X14.6130Y12.5806
G01 X14.5670Y12.5516
G01 X14.4948Y12.5120
G01 X14.4482Y12.4900
G01 X14.3711Y12.4592
G01 X14.3176Y12.4416
G01 X14.2673Y12.4278
G01 X14.2392Y12.4212
G01 X14.1609Y12.4068
G01 X14.1099Y12.4005
G01 X14.0554Y12.3964
G01 X14.0000Y12.3950
G01 X13.1050Y12.3950
G01 X13.1050Y-0.0000
G01 X13.1036Y-0.0554
G01 X13.0995Y-0.1099
G01 X13.0928Y-0.1633
G01 X13.0788Y-0.2392
G01 X13.0716Y-0.2697
G01 X13.0584Y-0.3176
G01 X13.0400Y-0.3734
G01 X13.0100Y-0.4482
G01 X12.9984Y-0.4735
G01 X12.9880Y-0.4948
G01 X12.9471Y-0.5691
G01 X12.9194Y-0.6130
G01 X12.8883Y-0.6572
G01 X12.8393Y-0.7187
G01 X12.8196Y-0.7411
G01 X12.7814Y-0.7814
G01 X12.7411Y-0.8196
G01 X12.7187Y-0.8393
G01 X12.6572Y-0.8883
G01 X12.6130Y-0.9194
G01 X12.5670Y-0.9484
G01 X12.4948Y-0.9880
G01 X12.4482Y-1.0100
G01 X12.3711Y-1.0408
G01 X12.3176Y-1.0584
G01 X12.2697Y-1.0716
G01 X12.2392Y-1.0788
G01 X12.1633Y-1.0928
G01 X12.1099Y-1.0995
G01 X12.0554Y-1.1036
G01 X12.0000Y-1.1050
G01 X-0.0000Y-1.1050
G01 X-0.0554Y-1.1036
G01 X-0.1099Y-1.0995
G01 X-0.1633Y-1.0928
G01 X-0.2392Y-1.0788
G01 X-0.2697Y-1.0716
G01 X-0.3176Y-1.0584
G01 X-0.3734Y-1.0400
G01 X-0.4482Y-1.0100
G01 X-0.4735Y-0.9984
G01 X-0.4948Y-0.9880
G01 X-0.5691Y-0.9471
G01 X-0.6130Y-0.9194
G01 X-0.6572Y-0.8883
G01 X-0.7187Y-0.8393
G01 X-0.7411Y-0.8196
G01 X-0.7814Y-0.7814
G01 X-0.8196Y-0.7411
G01 X-0.8393Y-0.7187
G01 X-0.8883Y-0.6572
G01 X-0.9194Y-0.6130
G01 X-0.9484Y-0.5670
G01 X-0.9880Y-0.4948
G01 X-0.9994Y-0.4713
G01 X-1.0100Y-0.4482
G01 X-1.0408Y-0.3711
G01 X-1.0584Y-0.3176
G01 X-1.0722Y-0.2673
G01 X-1.0788Y-0.2392
G01 X-1.0932Y-0.1609
G01 X-1.0995Y-0.1099
G01 X-1.1037Y-0.0530
G01 X-1.1050Y-0.0000
G01 X-1.1050Y12.3950
G01 X-2.0000Y12.3950
G01 X-2.0554Y12.3964
G01 X-2.1099Y12.4005
G01 X-2.1633Y12.4072
G01 X-2.2392Y12.4212
G01 X-2.2697Y12.4284
G01 X-2.3176Y12.4416
G01 X-2.3734Y12.4600
G01 X-2.4482Y12.4900
G01 X-2.4948Y12.5120
G01 X-2.5670Y12.5516
G01 X-2.6130Y12.5806
G01 X-2.6592Y12.6132
G01 X-2.7187Y12.6607
G01 X-2.7411Y12.6804
G01 X-2.7814Y12.7186
G01 X-2.8179Y12.7570
G01 X-2.8393Y12.7813
G01 X-2.8868Y12.8408
G01 X-2.9194Y12.8870
G01 X-2.9484Y12.9330
G01 X-2.9880Y13.0052
G01 X-3.0100Y13.0518
G01 X-3.0408Y13.1289
G01 X-3.0584Y13.1824
G01 X-3.0716Y13.2303
G01 X-3.0788Y13.2608
G01 X-3.0932Y13.3391
G01 X-3.0995Y13.3901
G01 X-3.1037Y13.4470
G00 X-3.1037Y13.4470
G01 Z-1.7500
G01 X-3.1050Y13.5000
G01 X-3.1050Y17.5000
G01 X-3.1036Y17.5554
G01 X-3.0995Y17.6099
G01 X-3.0928Y17.6633
G01 X-3.0788Y17.7392
G01 X-3.0716Y17.7697
G01 X-3.0584Y17.8176
G01 X-3.0400Y17.8734
G01 X-3.0100Y17.9482
G01 X-2.9984Y17.9735
G01 X-2.9880Y17.9948
G01 X-2.9484Y18.0670
G01 X-2.9194Y18.1130
G01 X-2.8868Y18.1592
G01 X-2.8393Y18.2187
G01 X-2.8179Y18.2430
G01 X-2.7814Y18.2814
G01 X-2.7430Y18.3179
G01 X-2.7187Y18.3393
G01 X-2.6572Y18.3883
G01 X-2.6130Y18.4194
G01 X-2.5670Y18.4484
G01 X-2.4948Y18.4880
G01 X-2.4482Y18.5100
G01 X-2.3711Y18.5408
G01 X-2.3176Y18.5584
G01 X-2.2697Y18.5716
G01 X-2.2392Y18.5788
G01 X-2.1633Y18.5928
G01 X-2.1099Y18.5995
G01 X-2.0554Y18.6036
G01 X-2.0000Y18.6050
G01 X14.0000Y18.6050
G01 X14.0554Y18.6036
G01 X14.1099Y18.5995
G01 X14.1633Y18.5928
G01 X14.2392Y18.5788
G01 X14.2697Y18.5716
G01 X14.3176Y18.5584
G01 X14.3734Y18.5400
G01 X14.4482Y18.5100
G01 X14.4735Y18.4984
G01 X14.4948Y18.4880
G01 X14.5691Y18.4471
G01 X14.6130Y18.4194
G01 X14.6572Y18.3883
G01 X14.7187Y18.3393
G01 X14.7411Y18.3196
G01 X14.7814Y18.2814
G01 X14.8179Y18.2430
G01 X14.8393Y18.2187
G01 X14.8868Y18.1592
G01 X14.9194Y18.1130
G01 X14.9471Y18.0691
G01 X14.9880Y17.9948
G01 X14.9984Y17.9735
G01 X15.0100Y17.9482
G01 X15.0400Y17.8734
G01 X15.0584Y17.8176
G01 X15.0716Y17.7697
G01 X15.0788Y17.7392
G01 X15.0928Y17.6633
G01 X15.0995Y17.6099
G01 X15.1036Y17.5554
G01 X15.1050Y17.5000
G01 X15.1050Y13.5000
G01 X15.1036Y13.4446
G01 X15.0995Y13.3901
G01 X15.0932Y13.3391
G01 X15.0788Y13.2608
G01 X15.0716Y13.2303
G01 X15.0584Y13.1824
G01 X15.0400Y13.1266
G01 X15.0100Y13.0518
G01 X14.9880Y13.0052
G01 X14.9484Y12.9330
G01 X14.9194Y12.8870
G01 X14.8868Y12.8408
G01 X14.8393Y12.7813
G01 X14.8179Y12.7570
G01 X14.7814Y12.7186
G01 X14.7430Y12.6821
G01 X14.7187Y12.6607
G01 X14.6592Y12.6132
G01 X14.6130Y12.5806
G01 X14.5670Y12.5516
G01 X14.4948Y12.5120
G01 X14.4482Y12.4900
G01 X14.3711Y12.4592
G01 X14.3176Y12.4416
G01 X14.2673Y12.4278
G01 X14.2392Y12.4212
G01 X14.1609Y12.4068
G01 X14.1099Y12.4005
G01 X14.0554Y12.3964
G01 X14.0000Y12.3950
G01 X13.1050Y12.3950
G01 X13.1050Y-0.0000
G01 X13.1036Y-0.0554
G01 X13.0995Y-0.1099
G01 X13.0928Y-0.1633
G01 X13.0788Y-0.2392
G01 X13.0716Y-0.2697
G01 X13.0584Y-0.3176
G01 X13.0400Y-0.3734
G01 X13.0100Y-0.4482
G01 X12.9984Y-0.4735
G01 X12.9880Y-0.4948
G01 X12.9471Y-0.5691
G01 X12.9194Y-0.6130
G01 X12.8883Y-0.6572
G01 X12.8393Y-0.7187
G01 X12.8196Y-0.7411
G01 X12.7814Y-0.7814
G01 X12.7411Y-0.8196
G01 X12.7187Y-0.8393
G01 X12.6572Y-0.8883
G01 X12.6130Y-0.9194
G01 X12.5670Y-0.9484
G01 X12.4948Y-0.9880
G01 X12.4482Y-1.0100
G01 X12.3711Y-1.0408
G01 X12.3176Y-1.0584
G01 X12.2697Y-1.0716
G01 X12.2392Y-1.0788
G01 X12.1633Y-1.0928
G01 X12.1099Y-1.0995
G01 X12.0554Y-1.1036
G01 X12.0000Y-1.1050
G01 X-0.0000Y-1.1050
G01 X-0.0554Y-1.1036
G01 X-0.1099Y-1.0995
G01 X-0.1633Y-1.0928
G01 X-0.2392Y-1.0788
G01 X-0.2697Y-1.0716
G01 X-0.3176Y-1.0584
G01 X-0.3734Y-1.0400
G01 X-0.4482Y-1.0100
G01 X-0.4735Y-0.9984
G01 X-0.4948Y-0.9880
G01 X-0.5691Y-0.9471
G01 X-0.6130Y-0.9194
G01 X-0.6572Y-0.8883
G01 X-0.7187Y-0.8393
G01 X-0.7411Y-0.8196
G01 X-0.7814Y-0.7814
G01 X-0.8196Y-0.7411
G01 X-0.8393Y-0.7187
G01 X-0.8883Y-0.6572
G01 X-0.9194Y-0.6130
G01 X-0.9484Y-0.5670
G01 X-0.9880Y-0.4948
G01 X-0.9994Y-0.4713
G01 X-1.0100Y-0.4482
G01 X-1.0408Y-0.3711
G01 X-1.0584Y-0.3176
G01 X-1.0722Y-0.2673
G01 X-1.0788Y-0.2392
G01 X-1.0932Y-0.1609
G01 X-1.0995Y-0.1099
G01 X-1.1037Y-0.0530
G01 X-1.1050Y-0.0000
G01 X-1.1050Y12.3950
G01 X-2.0000Y12.3950
G01 X-2.0554Y12.3964
G01 X-2.1099Y12.4005
G01 X-2.1633Y12.4072
G01 X-2.2392Y12.4212
G01 X-2.2697Y12.4284
G01 X-2.3176Y12.4416
G01 X-2.3734Y12.4600
G01 X-2.4482Y12.4900
G01 X-2.4948Y12.5120
G01 X-2.5670Y12.5516
G01 X-2.6130Y12.5806
G01 X-2.6592Y12.6132
G01 X-2.7187Y12.6607
G01 X-2.7411Y12.6804
G01 X-2.7814Y12.7186
G01 X-2.8179Y12.7570
G01 X-2.8393Y12.7813
G01 X-2.8868Y12.8408
G01 X-2.9194Y12.8870
G01 X-2.9484Y12.9330
G01 X-2.9880Y13.0052
G01 X-3.0100Y13.0518
G01 X-3.0408Y13.1289
G01 X-3.0584Y13.1824
G01 X-3.0716Y13.2303
G01 X-3.0788Y13.2608
G01 X-3.0932Y13.3391
G01 X-3.0995Y13.3901
G01 X-3.1037Y13.4470
G00 X-3.1037Y13.4470
G01 Z-2.0000
G01 X-3.1050Y13.5000
G01 X-3.1050Y17.5000
G01 X-3.1036Y17.5554
G01 X-3.0995Y17.6099
G01 X-3.0928Y17.6633
G01 X-3.0788Y17.7392
G01 X-3.0716Y17.7697
G01 X-3.0584Y17.8176
G01 X-3.0400Y17.8734
G01 X-3.0100Y17.9482
G01 X-2.9984Y17.9735
G01 X-2.9880Y17.9948
G01 X-2.9484Y18.0670
G01 X-2.9194Y18.1130
G01 X-2.8868Y18.1592
G01 X-2.8393Y18.2187
G01 X-2.8179Y18.2430
G01 X-2.7814Y18.2814
G01 X-2.7430Y18.3179
G01 X-2.7187Y18.3393
G01 X-2.6572Y18.3883
G01 X-2.6130Y18.4194
G01 X-2.5670Y18.4484
G01 X-2.4948Y18.4880
G01 X-2.4482Y18.5100
G01 X-2.3711Y18.5408
G01 X-2.3176Y18.5584
G01 X-2.2697Y18.5716
G01 X-2.2392Y18.5788
G01 X-2.1633Y18.5928
G01 X-2.1099Y18.5995
G01 X-2.0554Y18.6036
G01 X-2.0000Y18.6050
G01 X14.0000Y18.6050
G01 X14.0554Y18.6036
G01 X14.1099Y18.5995
G01 X14.1633Y18.5928
G01 X14.2392Y18.5788
G01 X14.2697Y18.5716
G01 X14.3176Y18.5584
G01 X14.3734Y18.5400
G01 X14.4482Y18.5100
G01 X14.4735Y18.4984
G01 X14.4948Y18.4880
G01 X14.5691Y18.4471
G01 X14.6130Y18.4194
G01 X14.6572Y18.3883
G01 X14.7187Y18.3393
G01 X14.7411Y18.3196
G01 X14.7814Y18.2814
G01 X14.8179Y18.2430
G01 X14.8393Y18.2187
G01 X14.8868Y18.1592
G01 X14.9194Y18.1130
G01 X14.9471Y18.0691
G01 X14.9880Y17.9948
G01 X14.9984Y17.9735
G01 X15.0100Y17.9482
G01 X15.0400Y17.8734
G01 X15.0584Y17.8176
G01 X15.0716Y17.7697
G01 X15.0788Y17.7392
G01 X15.0928Y17.6633
G01 X15.0995Y17.6099
G01 X15.1036Y17.5554
G01 X15.1050Y17.5000
G01 X15.1050Y13.5000
G01 X15.1036Y13.4446
G01 X15.0995Y13.3901
G01 X15.0932Y13.3391
G01 X15.0788Y13.2608
G01 X15.0716Y13.2303
G01 X15.0584Y13.1824
G01 X15.0400Y13.1266
G01 X15.0100Y13.0518
G01 X14.9880Y13.0052
G01 X14.9484Y12.9330
G01 X14.9194Y12.8870
G01 X14.8868Y12.8408
G01 X14.8393Y12.7813
G01 X14.8179Y12.7570
G01 X14.7814Y12.7186
G01 X14.7430Y12.6821
G01 X14.7187Y12.6607
G01 X14.6592Y12.6132
G01 X14.6130Y12.5806
G01 X14.5670Y12.5516
G01 X14.4948Y12.5120
G01 X14.4482Y12.4900
G01 X14.3711Y12.4592
G01 X14.3176Y12.4416
G01 X14.2673Y12.4278
G01 X14.2392Y12.4212
G01 X14.1609Y12.4068
G01 X14.1099Y12.4005
G01 X14.0554Y12.3964
G01 X14.0000Y12.3950
G01 X13.1050Y12.3950
G01 X13.1050Y-0.0000
G01 X13.1036Y-0.0554
G01 X13.0995Y-0.1099
G01 X13.0928Y-0.1633
G01 X13.0788Y-0.2392
G01 X13.0716Y-0.2697
G01 X13.0584Y-0.3176
G01 X13.0400Y-0.3734
G01 X13.0100Y-0.4482
G01 X12.9984Y-0.4735
G01 X12.9880Y-0.4948
G01 X12.9471Y-0.5691
G01 X12.9194Y-0.6130
G01 X12.8883Y-0.6572
G01 X12.8393Y-0.7187
G01 X12.8196Y-0.7411
G01 X12.7814Y-0.7814
G01 X12.7411Y-0.8196
G01 X12.7187Y-0.8393
G01 X12.6572Y-0.8883
G01 X12.6130Y-0.9194
G01 X12.5670Y-0.9484
G01 X12.4948Y-0.9880
G01 X12.4482Y-1.0100
G01 X12.3711Y-1.0408
G01 X12.3176Y-1.0584
G01 X12.2697Y-1.0716
G01 X12.2392Y-1.0788
G01 X12.1633Y-1.0928
G01 X12.1099Y-1.0995
G01 X12.0554Y-1.1036
G01 X12.0000Y-1.1050
G01 X-0.0000Y-1.1050
G01 X-0.0554Y-1.1036
G01 X-0.1099Y-1.0995
G01 X-0.1633Y-1.0928
G01 X-0.2392Y-1.0788
G01 X-0.2697Y-1.0716
G01 X-0.3176Y-1.0584
G01 X-0.3734Y-1.0400
G01 X-0.4482Y-1.0100
G01 X-0.4735Y-0.9984
G01 X-0.4948Y-0.9880
G01 X-0.5691Y-0.9471
G01 X-0.6130Y-0.9194
G01 X-0.6572Y-0.8883
G01 X-0.7187Y-0.8393
G01 X-0.7411Y-0.8196
G01 X-0.7814Y-0.7814
G01 X-0.8196Y-0.7411
G01 X-0.8393Y-0.7187
G01 X-0.8883Y-0.6572
G01 X-0.9194Y-0.6130
G01 X-0.9484Y-0.5670
G01 X-0.9880Y-0.4948
G01 X-0.9994Y-0.4713
G01 X-1.0100Y-0.4482
G01 X-1.0408Y-0.3711
G01 X-1.0584Y-0.3176
G01 X-1.0722Y-0.2673
G01 X-1.0788Y-0.2392
G01 X-1.0932Y-0.1609
G01 X-1.0995Y-0.1099
G01 X-1.1037Y-0.0530
G01 X-1.1050Y-0.0000
G01 X-1.1050Y12.3950
G01 X-2.0000Y12.3950
G01 X-2.0554Y12.3964
G01 X-2.1099Y12.4005
G01 X-2.1633Y12.4072
G01 X-2.2392Y12.4212
G01 X-2.2697Y12.4284
G01 X-2.3176Y12.4416
G01 X-2.3734Y12.4600
G01 X-2.4482Y12.4900
G01 X-2.4948Y12.5120
G01 X-2.5670Y12.5516
G01 X-2.6130Y12.5806
G01 X-2.6592Y12.6132
G01 X-2.7187Y12.6607
G01 X-2.7411Y12.6804
G01 X-2.7814Y12.7186
G01 X-2.8179Y12.7570
G01 X-2.8393Y12.7813
G01 X-2.8868Y12.8408
G01 X-2.9194Y12.8870
G01 X-2.9484Y12.9330
G01 X-2.9880Y13.0052
G01 X-3.0100Y13.0518
G01 X-3.0408Y13.1289
G01 X-3.0584Y13.1824
G01 X-3.0716Y13.2303
G01 X-3.0788Y13.2608
G01 X-3.0932Y13.3391
G01 X-3.0995Y13.3901
G01 X-3.1037Y13.4470
G00 Z3.0000
G00 Z3.0000
G00 X0Y0
M05
G0 Z20
G0 X0 Y25