G0 Z20
G21
G90
G94
F50.00
G00 Z3.0000
M03 S45
G4 P1
G00 X85.7000Y15.5000
G01 Z-2.0000
G01 Z0
G00 Z3.0000
G00 X98.6000Y17.2000
G01 Z-2.0000
G01 Z0
G00 Z3.0000
G00 X91.0200Y18.8800
G01 Z-2.0000
G01 Z0
G00 Z3.0000
G00 X88.4800Y18.8800
G01 Z-2.0000
G01 Z0
G00 Z3.0000
G00 X85.9400Y18.8800
G01 Z-2.0000
G01 Z0
G00 Z3.0000
G00 X83.4000Y18.8800
G01 Z-2.0000
G01 Z0
G00 Z3.0000
G00 X80.8600Y18.8800
G01 Z-2.0000
G01 Z0
G00 Z3.0000
G00 X78.3200Y18.8800
G01 Z-2.0000
G01 Z0
G00 Z3.0000
G00 X75.7800Y18.8800
G01 Z-2.0000
G01 Z0
G00 Z3.0000
G00 X73.2400Y18.8800
G01 Z-2.0000
G01 Z0
G00 Z3.0000
G00 X70.7000Y18.8800
G01 Z-2.0000
G01 Z0
G00 Z3.0000
G00 X68.1600Y18.8800
G01 Z-2.0000
G01 Z0
G00 Z3.0000
G00 X65.6200Y18.8800
G01 Z-2.0000
G01 Z0
G00 Z3.0000
G00 X63.0800Y18.8800
G01 Z-2.0000
G01 Z0
G00 Z3.0000
G00 X60.5400Y18.8800
G01 Z-2.0000
G01 Z0
G00 Z3.0000
G00 X58.0000Y18.8800
G01 Z-2.0000
G01 Z0
G00 Z3.0000
G00 X94.9000Y18.9800
G01 Z-2.0000
G01 Z0
G00 Z3.0000
G00 X103.0000Y26.4000
G01 Z-2.0000
G01 Z0
G00 Z3.0000
G00 X100.5000Y26.4000
G01 Z-2.0000
G01 Z0
G00 Z3.0000
G00 X58.0000Y26.5000
G01 Z-2.0000
G01 Z0
G00 Z3.0000
G00 X60.5400Y26.5000
G01 Z-2.0000
G01 Z0
G00 Z3.0000
G00 X63.0800Y26.5000
G01 Z-2.0000
G01 Z0
G00 Z3.0000
G00 X65.6200Y26.5000
G01 Z-2.0000
G01 Z0
G00 Z3.0000
G00 X68.1600Y26.5000
G01 Z-2.0000
G01 Z0
G00 Z3.0000
G00 X70.7000Y26.5000
G01 Z-2.0000
G01 Z0
G00 Z3.0000
G00 X73.2400Y26.5000
G01 Z-2.0000
G01 Z0
G00 Z3.0000
G00 X75.7800Y26.5000
G01 Z-2.0000
G01 Z0
G00 Z3.0000
G00 X78.3200Y26.5000
G01 Z-2.0000
G01 Z0
G00 Z3.0000
G00 X80.8600Y26.5000
G01 Z-2.0000
G01 Z0
G00 Z3.0000
G00 X83.4000Y26.5000
G01 Z-2.0000
G01 Z0
G00 Z3.0000
G00 X85.9400Y26.5000
G01 Z-2.0000
G01 Z0
G00 Z3.0000
G00 X88.4800Y26.5000
G01 Z-2.0000
G01 Z0
G00 Z3.0000
G00 X91.0200Y26.5000
G01 Z-2.0000
G01 Z0
G00 Z3.0000
G00 X94.9000Y26.6000
G01 Z-2.0000
G01 Z0
G00 Z3.0000
G00 X0.0000Y0.0000
M05
G0 Z20
G0 X0 Y25