G0 Z20
G21
G90
G94
F50.00
G00 Z3.0000
M03 S45
G4 P1
G00 X11.4000Y2.3000
G01 Z-2.0000
G01 Z0
G00 Z3.0000
G00 X12.6000Y2.3000
G01 Z-2.0000
G01 Z0
G00 Z3.0000
G00 X41.4000Y2.3000
G01 Z-2.0000
G01 Z0
G00 Z3.0000
G00 X42.6000Y2.3000
G01 Z-2.0000
G01 Z0
G00 Z3.0000
G00 X101.4000Y2.3000
G01 Z-2.0000
G01 Z0
G00 Z3.0000
G00 X102.6000Y2.3000
G01 Z-2.0000
G01 Z0
G00 Z3.0000
G00 X71.4000Y2.3000
G01 Z-2.0000
G01 Z0
G00 Z3.0000
G00 X72.6000Y2.3000
G01 Z-2.0000
G01 Z0
G00 Z3.0000
G00 X79.5000Y5.5000
G01 Z-2.0000
G01 Z0
G00 Z3.0000
G00 X65.0000Y5.5000
G01 Z-2.0000
G01 Z0
G00 Z3.0000
G00 X109.5000Y5.5000
G01 Z-2.0000
G01 Z0
G00 Z3.0000
G00 X95.0000Y5.5000
G01 Z-2.0000
G01 Z0
G00 Z3.0000
G00 X49.5000Y5.5000
G01 Z-2.0000
G01 Z0
G00 Z3.0000
G00 X35.0000Y5.5000
G01 Z-2.0000
G01 Z0
G00 Z3.0000
G00 X19.5000Y5.5000
G01 Z-2.0000
G01 Z0
G00 Z3.0000
G00 X5.0000Y5.5000
G01 Z-2.0000
G01 Z0
G00 Z3.0000
G00 X19.5000Y8.0000
G01 Z-2.0000
G01 Z0
G00 Z3.0000
G00 X49.5000Y8.0000
G01 Z-2.0000
G01 Z0
G00 Z3.0000
G00 X109.5000Y8.0000
G01 Z-2.0000
G01 Z0
G00 Z3.0000
G00 X79.5000Y8.0000
G01 Z-2.0000
G01 Z0
G00 Z3.0000
G00 X79.5000Y10.5000
G01 Z-2.0000
G01 Z0
G00 Z3.0000
G00 X65.0000Y10.5000
G01 Z-2.0000
G01 Z0
G00 Z3.0000
G00 X109.5000Y10.5000
G01 Z-2.0000
G01 Z0
G00 Z3.0000
G00 X95.0000Y10.5000
G01 Z-2.0000
G01 Z0
G00 Z3.0000
G00 X49.5000Y10.5000
G01 Z-2.0000
G01 Z0
G00 Z3.0000
G00 X35.0000Y10.5000
G01 Z-2.0000
G01 Z0
G00 Z3.0000
G00 X19.5000Y10.5000
G01 Z-2.0000
G01 Z0
G00 Z3.0000
G00 X5.0000Y10.5000
G01 Z-2.0000
G01 Z0
G00 Z3.0000
G00 X11.4000Y13.6000
G01 Z-2.0000
G01 Z0
G00 Z3.0000
G00 X12.6000Y13.6000
G01 Z-2.0000
G01 Z0
G00 Z3.0000
G00 X41.4000Y13.6000
G01 Z-2.0000
G01 Z0
G00 Z3.0000
G00 X42.6000Y13.6000
G01 Z-2.0000
G01 Z0
G00 Z3.0000
G00 X101.4000Y13.6000
G01 Z-2.0000
G01 Z0
G00 Z3.0000
G00 X102.6000Y13.6000
G01 Z-2.0000
G01 Z0
G00 Z3.0000
G00 X71.4000Y13.6000
G01 Z-2.0000
G01 Z0
G00 Z3.0000
G00 X72.6000Y13.6000
G01 Z-2.0000
G01 Z0
G00 Z3.0000
G00 X109.5800Y22.0000
G01 Z-2.0000
G01 Z0
G00 Z3.0000
G00 X107.0400Y22.0000
G01 Z-2.0000
G01 Z0
G00 Z3.0000
G00 X104.5000Y22.0000
G01 Z-2.0000
G01 Z0
G00 Z3.0000
G00 X101.9600Y22.0000
G01 Z-2.0000
G01 Z0
G00 Z3.0000
G00 X99.4200Y22.0000
G01 Z-2.0000
G01 Z0
G00 Z3.0000
G00 X0.0000Y0.0000
M05
G0 Z20
G0 X0 Y25