G0 Z20
G21
G90
G94
F100.00
G00 Z3.0000
M03 S45
G4 P1
G00 X-0.9989Y-0.0466
G01 Z-0.2500
G01 X-0.9895Y-0.1443
G01 X-0.9706Y-0.2406
G01 X-0.9423Y-0.3346
G01 X-0.9050Y-0.4253
G01 X-0.8589Y-0.5120
G01 X-0.8046Y-0.5937
G01 X-0.7426Y-0.6697
G01 X-0.6733Y-0.7393
G01 X-0.5976Y-0.8017
G01 X-0.5162Y-0.8564
G01 X-0.4297Y-0.9029
G01 X-0.3392Y-0.9407
G01 X-0.2453Y-0.9694
G01 X-0.1491Y-0.9888
G01 X-0.0515Y-0.9986
G01 X0.0000Y-1.0000
G01 X114.0000Y-1.0000
G01 X114.0515Y-0.9986
G01 X114.1443Y-0.9895
G01 X114.2453Y-0.9694
G01 X114.3392Y-0.9407
G01 X114.4253Y-0.9050
G01 X114.5162Y-0.8564
G01 X114.5937Y-0.8046
G01 X114.6697Y-0.7426
G01 X114.7393Y-0.6733
G01 X114.8017Y-0.5976
G01 X114.8589Y-0.5120
G01 X114.9050Y-0.4253
G01 X114.9423Y-0.3346
G01 X114.9694Y-0.2453
G01 X114.9888Y-0.1491
G01 X114.9986Y-0.0515
G01 X115.0000Y0.0000
G01 X115.0000Y32.0000
G01 X114.9986Y32.0515
G01 X114.9895Y32.1443
G01 X114.9694Y32.2453
G01 X114.9407Y32.3392
G01 X114.9050Y32.4253
G01 X114.8564Y32.5162
G01 X114.8046Y32.5937
G01 X114.7426Y32.6697
G01 X114.6733Y32.7393
G01 X114.5976Y32.8017
G01 X114.5120Y32.8589
G01 X114.4253Y32.9050
G01 X114.3346Y32.9423
G01 X114.2453Y32.9694
G01 X114.1491Y32.9888
G01 X114.0515Y32.9986
G01 X114.0000Y33.0000
G01 X0.0000Y33.0000
G01 X-0.0515Y32.9986
G01 X-0.1443Y32.9895
G01 X-0.2453Y32.9694
G01 X-0.3392Y32.9407
G01 X-0.4253Y32.9050
G01 X-0.5162Y32.8564
G01 X-0.5937Y32.8046
G01 X-0.6697Y32.7426
G01 X-0.7393Y32.6733
G01 X-0.8017Y32.5976
G01 X-0.8589Y32.5120
G01 X-0.9050Y32.4253
G01 X-0.9423Y32.3346
G01 X-0.9694Y32.2453
G01 X-0.9888Y32.1491
G01 X-0.9986Y32.0515
G01 X-1.0000Y32.0000
G01 X-1.0000Y0.0000
G01 X-0.9989Y-0.0466
G00 X-0.9989Y-0.0466
G01 Z-0.5000
G01 X-0.9895Y-0.1443
G01 X-0.9706Y-0.2406
G01 X-0.9423Y-0.3346
G01 X-0.9050Y-0.4253
G01 X-0.8589Y-0.5120
G01 X-0.8046Y-0.5937
G01 X-0.7426Y-0.6697
G01 X-0.6733Y-0.7393
G01 X-0.5976Y-0.8017
G01 X-0.5162Y-0.8564
G01 X-0.4297Y-0.9029
G01 X-0.3392Y-0.9407
G01 X-0.2453Y-0.9694
G01 X-0.1491Y-0.9888
G01 X-0.0515Y-0.9986
G01 X0.0000Y-1.0000
G01 X114.0000Y-1.0000
G01 X114.0515Y-0.9986
G01 X114.1443Y-0.9895
G01 X114.2453Y-0.9694
G01 X114.3392Y-0.9407
G01 X114.4253Y-0.9050
G01 X114.5162Y-0.8564
G01 X114.5937Y-0.8046
G01 X114.6697Y-0.7426
G01 X114.7393Y-0.6733
G01 X114.8017Y-0.5976
G01 X114.8589Y-0.5120
G01 X114.9050Y-0.4253
G01 X114.9423Y-0.3346
G01 X114.9694Y-0.2453
G01 X114.9888Y-0.1491
G01 X114.9986Y-0.0515
G01 X115.0000Y0.0000
G01 X115.0000Y32.0000
G01 X114.9986Y32.0515
G01 X114.9895Y32.1443
G01 X114.9694Y32.2453
G01 X114.9407Y32.3392
G01 X114.9050Y32.4253
G01 X114.8564Y32.5162
G01 X114.8046Y32.5937
G01 X114.7426Y32.6697
G01 X114.6733Y32.7393
G01 X114.5976Y32.8017
G01 X114.5120Y32.8589
G01 X114.4253Y32.9050
G01 X114.3346Y32.9423
G01 X114.2453Y32.9694
G01 X114.1491Y32.9888
G01 X114.0515Y32.9986
G01 X114.0000Y33.0000
G01 X0.0000Y33.0000
G01 X-0.0515Y32.9986
G01 X-0.1443Y32.9895
G01 X-0.2453Y32.9694
G01 X-0.3392Y32.9407
G01 X-0.4253Y32.9050
G01 X-0.5162Y32.8564
G01 X-0.5937Y32.8046
G01 X-0.6697Y32.7426
G01 X-0.7393Y32.6733
G01 X-0.8017Y32.5976
G01 X-0.8589Y32.5120
G01 X-0.9050Y32.4253
G01 X-0.9423Y32.3346
G01 X-0.9694Y32.2453
G01 X-0.9888Y32.1491
G01 X-0.9986Y32.0515
G01 X-1.0000Y32.0000
G01 X-1.0000Y0.0000
G01 X-0.9989Y-0.0466
G00 X-0.9989Y-0.0466
G01 Z-0.7500
G01 X-0.9895Y-0.1443
G01 X-0.9706Y-0.2406
G01 X-0.9423Y-0.3346
G01 X-0.9050Y-0.4253
G01 X-0.8589Y-0.5120
G01 X-0.8046Y-0.5937
G01 X-0.7426Y-0.6697
G01 X-0.6733Y-0.7393
G01 X-0.5976Y-0.8017
G01 X-0.5162Y-0.8564
G01 X-0.4297Y-0.9029
G01 X-0.3392Y-0.9407
G01 X-0.2453Y-0.9694
G01 X-0.1491Y-0.9888
G01 X-0.0515Y-0.9986
G01 X0.0000Y-1.0000
G01 X114.0000Y-1.0000
G01 X114.0515Y-0.9986
G01 X114.1443Y-0.9895
G01 X114.2453Y-0.9694
G01 X114.3392Y-0.9407
G01 X114.4253Y-0.9050
G01 X114.5162Y-0.8564
G01 X114.5937Y-0.8046
G01 X114.6697Y-0.7426
G01 X114.7393Y-0.6733
G01 X114.8017Y-0.5976
G01 X114.8589Y-0.5120
G01 X114.9050Y-0.4253
G01 X114.9423Y-0.3346
G01 X114.9694Y-0.2453
G01 X114.9888Y-0.1491
G01 X114.9986Y-0.0515
G01 X115.0000Y0.0000
G01 X115.0000Y32.0000
G01 X114.9986Y32.0515
G01 X114.9895Y32.1443
G01 X114.9694Y32.2453
G01 X114.9407Y32.3392
G01 X114.9050Y32.4253
G01 X114.8564Y32.5162
G01 X114.8046Y32.5937
G01 X114.7426Y32.6697
G01 X114.6733Y32.7393
G01 X114.5976Y32.8017
G01 X114.5120Y32.8589
G01 X114.4253Y32.9050
G01 X114.3346Y32.9423
G01 X114.2453Y32.9694
G01 X114.1491Y32.9888
G01 X114.0515Y32.9986
G01 X114.0000Y33.0000
G01 X0.0000Y33.0000
G01 X-0.0515Y32.9986
G01 X-0.1443Y32.9895
G01 X-0.2453Y32.9694
G01 X-0.3392Y32.9407
G01 X-0.4253Y32.9050
G01 X-0.5162Y32.8564
G01 X-0.5937Y32.8046
G01 X-0.6697Y32.7426
G01 X-0.7393Y32.6733
G01 X-0.8017Y32.5976
G01 X-0.8589Y32.5120
G01 X-0.9050Y32.4253
G01 X-0.9423Y32.3346
G01 X-0.9694Y32.2453
G01 X-0.9888Y32.1491
G01 X-0.9986Y32.0515
G01 X-1.0000Y32.0000
G01 X-1.0000Y0.0000
G01 X-0.9989Y-0.0466
G00 X-0.9989Y-0.0466
G01 Z-1.0000
G01 X-0.9895Y-0.1443
G01 X-0.9706Y-0.2406
G01 X-0.9423Y-0.3346
G01 X-0.9050Y-0.4253
G01 X-0.8589Y-0.5120
G01 X-0.8046Y-0.5937
G01 X-0.7426Y-0.6697
G01 X-0.6733Y-0.7393
G01 X-0.5976Y-0.8017
G01 X-0.5162Y-0.8564
G01 X-0.4297Y-0.9029
G01 X-0.3392Y-0.9407
G01 X-0.2453Y-0.9694
G01 X-0.1491Y-0.9888
G01 X-0.0515Y-0.9986
G01 X0.0000Y-1.0000
G01 X114.0000Y-1.0000
G01 X114.0515Y-0.9986
G01 X114.1443Y-0.9895
G01 X114.2453Y-0.9694
G01 X114.3392Y-0.9407
G01 X114.4253Y-0.9050
G01 X114.5162Y-0.8564
G01 X114.5937Y-0.8046
G01 X114.6697Y-0.7426
G01 X114.7393Y-0.6733
G01 X114.8017Y-0.5976
G01 X114.8589Y-0.5120
G01 X114.9050Y-0.4253
G01 X114.9423Y-0.3346
G01 X114.9694Y-0.2453
G01 X114.9888Y-0.1491
G01 X114.9986Y-0.0515
G01 X115.0000Y0.0000
G01 X115.0000Y32.0000
G01 X114.9986Y32.0515
G01 X114.9895Y32.1443
G01 X114.9694Y32.2453
G01 X114.9407Y32.3392
G01 X114.9050Y32.4253
G01 X114.8564Y32.5162
G01 X114.8046Y32.5937
G01 X114.7426Y32.6697
G01 X114.6733Y32.7393
G01 X114.5976Y32.8017
G01 X114.5120Y32.8589
G01 X114.4253Y32.9050
G01 X114.3346Y32.9423
G01 X114.2453Y32.9694
G01 X114.1491Y32.9888
G01 X114.0515Y32.9986
G01 X114.0000Y33.0000
G01 X0.0000Y33.0000
G01 X-0.0515Y32.9986
G01 X-0.1443Y32.9895
G01 X-0.2453Y32.9694
G01 X-0.3392Y32.9407
G01 X-0.4253Y32.9050
G01 X-0.5162Y32.8564
G01 X-0.5937Y32.8046
G01 X-0.6697Y32.7426
G01 X-0.7393Y32.6733
G01 X-0.8017Y32.5976
G01 X-0.8589Y32.5120
G01 X-0.9050Y32.4253
G01 X-0.9423Y32.3346
G01 X-0.9694Y32.2453
G01 X-0.9888Y32.1491
G01 X-0.9986Y32.0515
G01 X-1.0000Y32.0000
G01 X-1.0000Y0.0000
G01 X-0.9989Y-0.0466
G00 X-0.9989Y-0.0466
G01 Z-1.2500
G01 X-0.9895Y-0.1443
G01 X-0.9706Y-0.2406
G01 X-0.9423Y-0.3346
G01 X-0.9050Y-0.4253
G01 X-0.8589Y-0.5120
G01 X-0.8046Y-0.5937
G01 X-0.7426Y-0.6697
G01 X-0.6733Y-0.7393
G01 X-0.5976Y-0.8017
G01 X-0.5162Y-0.8564
G01 X-0.4297Y-0.9029
G01 X-0.3392Y-0.9407
G01 X-0.2453Y-0.9694
G01 X-0.1491Y-0.9888
G01 X-0.0515Y-0.9986
G01 X0.0000Y-1.0000
G01 X114.0000Y-1.0000
G01 X114.0515Y-0.9986
G01 X114.1443Y-0.9895
G01 X114.2453Y-0.9694
G01 X114.3392Y-0.9407
G01 X114.4253Y-0.9050
G01 X114.5162Y-0.8564
G01 X114.5937Y-0.8046
G01 X114.6697Y-0.7426
G01 X114.7393Y-0.6733
G01 X114.8017Y-0.5976
G01 X114.8589Y-0.5120
G01 X114.9050Y-0.4253
G01 X114.9423Y-0.3346
G01 X114.9694Y-0.2453
G01 X114.9888Y-0.1491
G01 X114.9986Y-0.0515
G01 X115.0000Y0.0000
G01 X115.0000Y32.0000
G01 X114.9986Y32.0515
G01 X114.9895Y32.1443
G01 X114.9694Y32.2453
G01 X114.9407Y32.3392
G01 X114.9050Y32.4253
G01 X114.8564Y32.5162
G01 X114.8046Y32.5937
G01 X114.7426Y32.6697
G01 X114.6733Y32.7393
G01 X114.5976Y32.8017
G01 X114.5120Y32.8589
G01 X114.4253Y32.9050
G01 X114.3346Y32.9423
G01 X114.2453Y32.9694
G01 X114.1491Y32.9888
G01 X114.0515Y32.9986
G01 X114.0000Y33.0000
G01 X0.0000Y33.0000
G01 X-0.0515Y32.9986
G01 X-0.1443Y32.9895
G01 X-0.2453Y32.9694
G01 X-0.3392Y32.9407
G01 X-0.4253Y32.9050
G01 X-0.5162Y32.8564
G01 X-0.5937Y32.8046
G01 X-0.6697Y32.7426
G01 X-0.7393Y32.6733
G01 X-0.8017Y32.5976
G01 X-0.8589Y32.5120
G01 X-0.9050Y32.4253
G01 X-0.9423Y32.3346
G01 X-0.9694Y32.2453
G01 X-0.9888Y32.1491
G01 X-0.9986Y32.0515
G01 X-1.0000Y32.0000
G01 X-1.0000Y0.0000
G01 X-0.9989Y-0.0466
G00 X-0.9989Y-0.0466
G01 Z-1.5000
G01 X-0.9895Y-0.1443
G01 X-0.9706Y-0.2406
G01 X-0.9423Y-0.3346
G01 X-0.9050Y-0.4253
G01 X-0.8589Y-0.5120
G01 X-0.8046Y-0.5937
G01 X-0.7426Y-0.6697
G01 X-0.6733Y-0.7393
G01 X-0.5976Y-0.8017
G01 X-0.5162Y-0.8564
G01 X-0.4297Y-0.9029
G01 X-0.3392Y-0.9407
G01 X-0.2453Y-0.9694
G01 X-0.1491Y-0.9888
G01 X-0.0515Y-0.9986
G01 X0.0000Y-1.0000
G01 X114.0000Y-1.0000
G01 X114.0515Y-0.9986
G01 X114.1443Y-0.9895
G01 X114.2453Y-0.9694
G01 X114.3392Y-0.9407
G01 X114.4253Y-0.9050
G01 X114.5162Y-0.8564
G01 X114.5937Y-0.8046
G01 X114.6697Y-0.7426
G01 X114.7393Y-0.6733
G01 X114.8017Y-0.5976
G01 X114.8589Y-0.5120
G01 X114.9050Y-0.4253
G01 X114.9423Y-0.3346
G01 X114.9694Y-0.2453
G01 X114.9888Y-0.1491
G01 X114.9986Y-0.0515
G01 X115.0000Y0.0000
G01 X115.0000Y32.0000
G01 X114.9986Y32.0515
G01 X114.9895Y32.1443
G01 X114.9694Y32.2453
G01 X114.9407Y32.3392
G01 X114.9050Y32.4253
G01 X114.8564Y32.5162
G01 X114.8046Y32.5937
G01 X114.7426Y32.6697
G01 X114.6733Y32.7393
G01 X114.5976Y32.8017
G01 X114.5120Y32.8589
G01 X114.4253Y32.9050
G01 X114.3346Y32.9423
G01 X114.2453Y32.9694
G01 X114.1491Y32.9888
G01 X114.0515Y32.9986
G01 X114.0000Y33.0000
G01 X0.0000Y33.0000
G01 X-0.0515Y32.9986
G01 X-0.1443Y32.9895
G01 X-0.2453Y32.9694
G01 X-0.3392Y32.9407
G01 X-0.4253Y32.9050
G01 X-0.5162Y32.8564
G01 X-0.5937Y32.8046
G01 X-0.6697Y32.7426
G01 X-0.7393Y32.6733
G01 X-0.8017Y32.5976
G01 X-0.8589Y32.5120
G01 X-0.9050Y32.4253
G01 X-0.9423Y32.3346
G01 X-0.9694Y32.2453
G01 X-0.9888Y32.1491
G01 X-0.9986Y32.0515
G01 X-1.0000Y32.0000
G01 X-1.0000Y0.0000
G01 X-0.9989Y-0.0466
G00 X-0.9989Y-0.0466
G01 Z-1.7500
G01 X-0.9895Y-0.1443
G01 X-0.9706Y-0.2406
G01 X-0.9423Y-0.3346
G01 X-0.9050Y-0.4253
G01 X-0.8589Y-0.5120
G01 X-0.8046Y-0.5937
G01 X-0.7426Y-0.6697
G01 X-0.6733Y-0.7393
G01 X-0.5976Y-0.8017
G01 X-0.5162Y-0.8564
G01 X-0.4297Y-0.9029
G01 X-0.3392Y-0.9407
G01 X-0.2453Y-0.9694
G01 X-0.1491Y-0.9888
G01 X-0.0515Y-0.9986
G01 X0.0000Y-1.0000
G01 X114.0000Y-1.0000
G01 X114.0515Y-0.9986
G01 X114.1443Y-0.9895
G01 X114.2453Y-0.9694
G01 X114.3392Y-0.9407
G01 X114.4253Y-0.9050
G01 X114.5162Y-0.8564
G01 X114.5937Y-0.8046
G01 X114.6697Y-0.7426
G01 X114.7393Y-0.6733
G01 X114.8017Y-0.5976
G01 X114.8589Y-0.5120
G01 X114.9050Y-0.4253
G01 X114.9423Y-0.3346
G01 X114.9694Y-0.2453
G01 X114.9888Y-0.1491
G01 X114.9986Y-0.0515
G01 X115.0000Y0.0000
G01 X115.0000Y32.0000
G01 X114.9986Y32.0515
G01 X114.9895Y32.1443
G01 X114.9694Y32.2453
G01 X114.9407Y32.3392
G01 X114.9050Y32.4253
G01 X114.8564Y32.5162
G01 X114.8046Y32.5937
G01 X114.7426Y32.6697
G01 X114.6733Y32.7393
G01 X114.5976Y32.8017
G01 X114.5120Y32.8589
G01 X114.4253Y32.9050
G01 X114.3346Y32.9423
G01 X114.2453Y32.9694
G01 X114.1491Y32.9888
G01 X114.0515Y32.9986
G01 X114.0000Y33.0000
G01 X0.0000Y33.0000
G01 X-0.0515Y32.9986
G01 X-0.1443Y32.9895
G01 X-0.2453Y32.9694
G01 X-0.3392Y32.9407
G01 X-0.4253Y32.9050
G01 X-0.5162Y32.8564
G01 X-0.5937Y32.8046
G01 X-0.6697Y32.7426
G01 X-0.7393Y32.6733
G01 X-0.8017Y32.5976
G01 X-0.8589Y32.5120
G01 X-0.9050Y32.4253
G01 X-0.9423Y32.3346
G01 X-0.9694Y32.2453
G01 X-0.9888Y32.1491
G01 X-0.9986Y32.0515
G01 X-1.0000Y32.0000
G01 X-1.0000Y0.0000
G01 X-0.9989Y-0.0466
G00 X-0.9989Y-0.0466
G01 Z-2.0000
G01 X-0.9895Y-0.1443
G01 X-0.9706Y-0.2406
G01 X-0.9423Y-0.3346
G01 X-0.9050Y-0.4253
G01 X-0.8589Y-0.5120
G01 X-0.8046Y-0.5937
G01 X-0.7426Y-0.6697
G01 X-0.6733Y-0.7393
G01 X-0.5976Y-0.8017
G01 X-0.5162Y-0.8564
G01 X-0.4297Y-0.9029
G01 X-0.3392Y-0.9407
G01 X-0.2453Y-0.9694
G01 X-0.1491Y-0.9888
G01 X-0.0515Y-0.9986
G01 X0.0000Y-1.0000
G01 X114.0000Y-1.0000
G01 X114.0515Y-0.9986
G01 X114.1443Y-0.9895
G01 X114.2453Y-0.9694
G01 X114.3392Y-0.9407
G01 X114.4253Y-0.9050
G01 X114.5162Y-0.8564
G01 X114.5937Y-0.8046
G01 X114.6697Y-0.7426
G01 X114.7393Y-0.6733
G01 X114.8017Y-0.5976
G01 X114.8589Y-0.5120
G01 X114.9050Y-0.4253
G01 X114.9423Y-0.3346
G01 X114.9694Y-0.2453
G01 X114.9888Y-0.1491
G01 X114.9986Y-0.0515
G01 X115.0000Y0.0000
G01 X115.0000Y32.0000
G01 X114.9986Y32.0515
G01 X114.9895Y32.1443
G01 X114.9694Y32.2453
G01 X114.9407Y32.3392
G01 X114.9050Y32.4253
G01 X114.8564Y32.5162
G01 X114.8046Y32.5937
G01 X114.7426Y32.6697
G01 X114.6733Y32.7393
G01 X114.5976Y32.8017
G01 X114.5120Y32.8589
G01 X114.4253Y32.9050
G01 X114.3346Y32.9423
G01 X114.2453Y32.9694
G01 X114.1491Y32.9888
G01 X114.0515Y32.9986
G01 X114.0000Y33.0000
G01 X0.0000Y33.0000
G01 X-0.0515Y32.9986
G01 X-0.1443Y32.9895
G01 X-0.2453Y32.9694
G01 X-0.3392Y32.9407
G01 X-0.4253Y32.9050
G01 X-0.5162Y32.8564
G01 X-0.5937Y32.8046
G01 X-0.6697Y32.7426
G01 X-0.7393Y32.6733
G01 X-0.8017Y32.5976
G01 X-0.8589Y32.5120
G01 X-0.9050Y32.4253
G01 X-0.9423Y32.3346
G01 X-0.9694Y32.2453
G01 X-0.9888Y32.1491
G01 X-0.9986Y32.0515
G01 X-1.0000Y32.0000
G01 X-1.0000Y0.0000
G01 X-0.9989Y-0.0466
G00 Z3.0000
G00 Z3.0000
G00 X0Y0
M05
G0 Z20
G0 X0 Y25