G0 Z20
G21
G90
G94
F50.00
G00 Z3.0000
M03 S45
G4 P1
G00 X4.0000Y5.8000
G01 Z-0.2500
G01 X4.0000Y6.2000
G00 X4.0000Y6.2000
G01 Z-0.5000
G01 X4.0000Y5.8000
G00 X4.0000Y5.8000
G01 Z-0.7500
G01 X4.0000Y6.2000
G00 X4.0000Y6.2000
G01 Z-1.0000
G01 X4.0000Y5.8000
G00 X4.0000Y5.8000
G01 Z-1.2500
G01 X4.0000Y6.2000
G00 X4.0000Y6.2000
G01 Z-1.5000
G01 X4.0000Y5.8000
G00 X4.0000Y5.8000
G01 Z-1.7500
G01 X4.0000Y6.2000
G00 X4.0000Y6.2000
G01 Z-2.0000
G01 X4.0000Y5.8000
G00 Z3.0000
G00 X8.8000Y1.5000
G01 Z-0.2500
G01 X9.2000Y1.5000
G00 X9.2000Y1.5000
G01 Z-0.5000
G01 X8.8000Y1.5000
G00 X8.8000Y1.5000
G01 Z-0.7500
G01 X9.2000Y1.5000
G00 X9.2000Y1.5000
G01 Z-1.0000
G01 X8.8000Y1.5000
G00 X8.8000Y1.5000
G01 Z-1.2500
G01 X9.2000Y1.5000
G00 X9.2000Y1.5000
G01 Z-1.5000
G01 X8.8000Y1.5000
G00 X8.8000Y1.5000
G01 Z-1.7500
G01 X9.2000Y1.5000
G00 X9.2000Y1.5000
G01 Z-2.0000
G01 X8.8000Y1.5000
G00 Z3.0000
G00 X11.5000Y8.3000
G01 Z-0.2500
G01 X11.5000Y8.7000
G00 X11.5000Y8.7000
G01 Z-0.5000
G01 X11.5000Y8.3000
G00 X11.5000Y8.3000
G01 Z-0.7500
G01 X11.5000Y8.7000
G00 X11.5000Y8.7000
G01 Z-1.0000
G01 X11.5000Y8.3000
G00 X11.5000Y8.3000
G01 Z-1.2500
G01 X11.5000Y8.7000
G00 X11.5000Y8.7000
G01 Z-1.5000
G01 X11.5000Y8.3000
G00 X11.5000Y8.3000
G01 Z-1.7500
G01 X11.5000Y8.7000
G00 X11.5000Y8.7000
G01 Z-2.0000
G01 X11.5000Y8.3000
G00 Z3.0000
G00 X14.0000Y9.3000
G01 Z-0.2500
G01 X14.0000Y9.7000
G00 X14.0000Y9.7000
G01 Z-0.5000
G01 X14.0000Y9.3000
G00 X14.0000Y9.3000
G01 Z-0.7500
G01 X14.0000Y9.7000
G00 X14.0000Y9.7000
G01 Z-1.0000
G01 X14.0000Y9.3000
G00 X14.0000Y9.3000
G01 Z-1.2500
G01 X14.0000Y9.7000
G00 X14.0000Y9.7000
G01 Z-1.5000
G01 X14.0000Y9.3000
G00 X14.0000Y9.3000
G01 Z-1.7500
G01 X14.0000Y9.7000
G00 X14.0000Y9.7000
G01 Z-2.0000
G01 X14.0000Y9.3000
G00 Z3.0000
G00 X18.5000Y15.1500
G01 Z-0.2500
G01 X18.5000Y16.8500
G00 X18.5000Y16.8500
G01 Z-0.5000
G01 X18.5000Y15.1500
G00 X18.5000Y15.1500
G01 Z-0.7500
G01 X18.5000Y16.8500
G00 X18.5000Y16.8500
G01 Z-1.0000
G01 X18.5000Y15.1500
G00 X18.5000Y15.1500
G01 Z-1.2500
G01 X18.5000Y16.8500
G00 X18.5000Y16.8500
G01 Z-1.5000
G01 X18.5000Y15.1500
G00 X18.5000Y15.1500
G01 Z-1.7500
G01 X18.5000Y16.8500
G00 X18.5000Y16.8500
G01 Z-2.0000
G01 X18.5000Y15.1500
G00 Z3.0000
G00 X23.5000Y15.1500
G01 Z-0.2500
G01 X23.5000Y16.8500
G00 X23.5000Y16.8500
G01 Z-0.5000
G01 X23.5000Y15.1500
G00 X23.5000Y15.1500
G01 Z-0.7500
G01 X23.5000Y16.8500
G00 X23.5000Y16.8500
G01 Z-1.0000
G01 X23.5000Y15.1500
G00 X23.5000Y15.1500
G01 Z-1.2500
G01 X23.5000Y16.8500
G00 X23.5000Y16.8500
G01 Z-1.5000
G01 X23.5000Y15.1500
G00 X23.5000Y15.1500
G01 Z-1.7500
G01 X23.5000Y16.8500
G00 X23.5000Y16.8500
G01 Z-2.0000
G01 X23.5000Y15.1500
G00 Z3.0000
G00 X28.5000Y15.1500
G01 Z-0.2500
G01 X28.5000Y16.8500
G00 X28.5000Y16.8500
G01 Z-0.5000
G01 X28.5000Y15.1500
G00 X28.5000Y15.1500
G01 Z-0.7500
G01 X28.5000Y16.8500
G00 X28.5000Y16.8500
G01 Z-1.0000
G01 X28.5000Y15.1500
G00 X28.5000Y15.1500
G01 Z-1.2500
G01 X28.5000Y16.8500
G00 X28.5000Y16.8500
G01 Z-1.5000
G01 X28.5000Y15.1500
G00 X28.5000Y15.1500
G01 Z-1.7500
G01 X28.5000Y16.8500
G00 X28.5000Y16.8500
G01 Z-2.0000
G01 X28.5000Y15.1500
G00 Z3.0000
G00 X33.5000Y15.1500
G01 Z-0.2500
G01 X33.5000Y16.8500
G00 X33.5000Y16.8500
G01 Z-0.5000
G01 X33.5000Y15.1500
G00 X33.5000Y15.1500
G01 Z-0.7500
G01 X33.5000Y16.8500
G00 X33.5000Y16.8500
G01 Z-1.0000
G01 X33.5000Y15.1500
G00 X33.5000Y15.1500
G01 Z-1.2500
G01 X33.5000Y16.8500
G00 X33.5000Y16.8500
G01 Z-1.5000
G01 X33.5000Y15.1500
G00 X33.5000Y15.1500
G01 Z-1.7500
G01 X33.5000Y16.8500
G00 X33.5000Y16.8500
G01 Z-2.0000
G01 X33.5000Y15.1500
G00 Z3.0000
G00 X41.5000Y15.1500
G01 Z-0.2500
G01 X41.5000Y16.8500
G00 X41.5000Y16.8500
G01 Z-0.5000
G01 X41.5000Y15.1500
G00 X41.5000Y15.1500
G01 Z-0.7500
G01 X41.5000Y16.8500
G00 X41.5000Y16.8500
G01 Z-1.0000
G01 X41.5000Y15.1500
G00 X41.5000Y15.1500
G01 Z-1.2500
G01 X41.5000Y16.8500
G00 X41.5000Y16.8500
G01 Z-1.5000
G01 X41.5000Y15.1500
G00 X41.5000Y15.1500
G01 Z-1.7500
G01 X41.5000Y16.8500
G00 X41.5000Y16.8500
G01 Z-2.0000
G01 X41.5000Y15.1500
G00 Z3.0000
G00 X46.5000Y15.1500
G01 Z-0.2500
G01 X46.5000Y16.8500
G00 X46.5000Y16.8500
G01 Z-0.5000
G01 X46.5000Y15.1500
G00 X46.5000Y15.1500
G01 Z-0.7500
G01 X46.5000Y16.8500
G00 X46.5000Y16.8500
G01 Z-1.0000
G01 X46.5000Y15.1500
G00 X46.5000Y15.1500
G01 Z-1.2500
G01 X46.5000Y16.8500
G00 X46.5000Y16.8500
G01 Z-1.5000
G01 X46.5000Y15.1500
G00 X46.5000Y15.1500
G01 Z-1.7500
G01 X46.5000Y16.8500
G00 X46.5000Y16.8500
G01 Z-2.0000
G01 X46.5000Y15.1500
G00 Z3.0000
G00 X51.5000Y15.1500
G01 Z-0.2500
G01 X51.5000Y16.8500
G00 X51.5000Y16.8500
G01 Z-0.5000
G01 X51.5000Y15.1500
G00 X51.5000Y15.1500
G01 Z-0.7500
G01 X51.5000Y16.8500
G00 X51.5000Y16.8500
G01 Z-1.0000
G01 X51.5000Y15.1500
G00 X51.5000Y15.1500
G01 Z-1.2500
G01 X51.5000Y16.8500
G00 X51.5000Y16.8500
G01 Z-1.5000
G01 X51.5000Y15.1500
G00 X51.5000Y15.1500
G01 Z-1.7500
G01 X51.5000Y16.8500
G00 X51.5000Y16.8500
G01 Z-2.0000
G01 X51.5000Y15.1500
G00 Z3.0000
G00 X56.5000Y15.1500
G01 Z-0.2500
G01 X56.5000Y16.8500
G00 X56.5000Y16.8500
G01 Z-0.5000
G01 X56.5000Y15.1500
G00 X56.5000Y15.1500
G01 Z-0.7500
G01 X56.5000Y16.8500
G00 X56.5000Y16.8500
G01 Z-1.0000
G01 X56.5000Y15.1500
G00 X56.5000Y15.1500
G01 Z-1.2500
G01 X56.5000Y16.8500
G00 X56.5000Y16.8500
G01 Z-1.5000
G01 X56.5000Y15.1500
G00 X56.5000Y15.1500
G01 Z-1.7500
G01 X56.5000Y16.8500
G00 X56.5000Y16.8500
G01 Z-2.0000
G01 X56.5000Y15.1500
G00 Z3.0000
G00 X64.5000Y15.1500
G01 Z-0.2500
G01 X64.5000Y16.8500
G00 X64.5000Y16.8500
G01 Z-0.5000
G01 X64.5000Y15.1500
G00 X64.5000Y15.1500
G01 Z-0.7500
G01 X64.5000Y16.8500
G00 X64.5000Y16.8500
G01 Z-1.0000
G01 X64.5000Y15.1500
G00 X64.5000Y15.1500
G01 Z-1.2500
G01 X64.5000Y16.8500
G00 X64.5000Y16.8500
G01 Z-1.5000
G01 X64.5000Y15.1500
G00 X64.5000Y15.1500
G01 Z-1.7500
G01 X64.5000Y16.8500
G00 X64.5000Y16.8500
G01 Z-2.0000
G01 X64.5000Y15.1500
G00 Z3.0000
G00 X69.5000Y15.1500
G01 Z-0.2500
G01 X69.5000Y16.8500
G00 X69.5000Y16.8500
G01 Z-0.5000
G01 X69.5000Y15.1500
G00 X69.5000Y15.1500
G01 Z-0.7500
G01 X69.5000Y16.8500
G00 X69.5000Y16.8500
G01 Z-1.0000
G01 X69.5000Y15.1500
G00 X69.5000Y15.1500
G01 Z-1.2500
G01 X69.5000Y16.8500
G00 X69.5000Y16.8500
G01 Z-1.5000
G01 X69.5000Y15.1500
G00 X69.5000Y15.1500
G01 Z-1.7500
G01 X69.5000Y16.8500
G00 X69.5000Y16.8500
G01 Z-2.0000
G01 X69.5000Y15.1500
G00 Z3.0000
G00 X74.5000Y15.1500
G01 Z-0.2500
G01 X74.5000Y16.8500
G00 X74.5000Y16.8500
G01 Z-0.5000
G01 X74.5000Y15.1500
G00 X74.5000Y15.1500
G01 Z-0.7500
G01 X74.5000Y16.8500
G00 X74.5000Y16.8500
G01 Z-1.0000
G01 X74.5000Y15.1500
G00 X74.5000Y15.1500
G01 Z-1.2500
G01 X74.5000Y16.8500
G00 X74.5000Y16.8500
G01 Z-1.5000
G01 X74.5000Y15.1500
G00 X74.5000Y15.1500
G01 Z-1.7500
G01 X74.5000Y16.8500
G00 X74.5000Y16.8500
G01 Z-2.0000
G01 X74.5000Y15.1500
G00 Z3.0000
G00 X79.5000Y15.1500
G01 Z-0.2500
G01 X79.5000Y16.8500
G00 X79.5000Y16.8500
G01 Z-0.5000
G01 X79.5000Y15.1500
G00 X79.5000Y15.1500
G01 Z-0.7500
G01 X79.5000Y16.8500
G00 X79.5000Y16.8500
G01 Z-1.0000
G01 X79.5000Y15.1500
G00 X79.5000Y15.1500
G01 Z-1.2500
G01 X79.5000Y16.8500
G00 X79.5000Y16.8500
G01 Z-1.5000
G01 X79.5000Y15.1500
G00 X79.5000Y15.1500
G01 Z-1.7500
G01 X79.5000Y16.8500
G00 X79.5000Y16.8500
G01 Z-2.0000
G01 X79.5000Y15.1500
G00 Z3.0000
G00 X87.5000Y15.1500
G01 Z-0.2500
G01 X87.5000Y16.8500
G00 X87.5000Y16.8500
G01 Z-0.5000
G01 X87.5000Y15.1500
G00 X87.5000Y15.1500
G01 Z-0.7500
G01 X87.5000Y16.8500
G00 X87.5000Y16.8500
G01 Z-1.0000
G01 X87.5000Y15.1500
G00 X87.5000Y15.1500
G01 Z-1.2500
G01 X87.5000Y16.8500
G00 X87.5000Y16.8500
G01 Z-1.5000
G01 X87.5000Y15.1500
G00 X87.5000Y15.1500
G01 Z-1.7500
G01 X87.5000Y16.8500
G00 X87.5000Y16.8500
G01 Z-2.0000
G01 X87.5000Y15.1500
G00 Z3.0000
G00 X92.5000Y15.1500
G01 Z-0.2500
G01 X92.5000Y16.8500
G00 X92.5000Y16.8500
G01 Z-0.5000
G01 X92.5000Y15.1500
G00 X92.5000Y15.1500
G01 Z-0.7500
G01 X92.5000Y16.8500
G00 X92.5000Y16.8500
G01 Z-1.0000
G01 X92.5000Y15.1500
G00 X92.5000Y15.1500
G01 Z-1.2500
G01 X92.5000Y16.8500
G00 X92.5000Y16.8500
G01 Z-1.5000
G01 X92.5000Y15.1500
G00 X92.5000Y15.1500
G01 Z-1.7500
G01 X92.5000Y16.8500
G00 X92.5000Y16.8500
G01 Z-2.0000
G01 X92.5000Y15.1500
G00 Z3.0000
G00 X97.5000Y15.1500
G01 Z-0.2500
G01 X97.5000Y16.8500
G00 X97.5000Y16.8500
G01 Z-0.5000
G01 X97.5000Y15.1500
G00 X97.5000Y15.1500
G01 Z-0.7500
G01 X97.5000Y16.8500
G00 X97.5000Y16.8500
G01 Z-1.0000
G01 X97.5000Y15.1500
G00 X97.5000Y15.1500
G01 Z-1.2500
G01 X97.5000Y16.8500
G00 X97.5000Y16.8500
G01 Z-1.5000
G01 X97.5000Y15.1500
G00 X97.5000Y15.1500
G01 Z-1.7500
G01 X97.5000Y16.8500
G00 X97.5000Y16.8500
G01 Z-2.0000
G01 X97.5000Y15.1500
G00 Z3.0000
G00 X102.5000Y15.1500
G01 Z-0.2500
G01 X102.5000Y16.8500
G00 X102.5000Y16.8500
G01 Z-0.5000
G01 X102.5000Y15.1500
G00 X102.5000Y15.1500
G01 Z-0.7500
G01 X102.5000Y16.8500
G00 X102.5000Y16.8500
G01 Z-1.0000
G01 X102.5000Y15.1500
G00 X102.5000Y15.1500
G01 Z-1.2500
G01 X102.5000Y16.8500
G00 X102.5000Y16.8500
G01 Z-1.5000
G01 X102.5000Y15.1500
G00 X102.5000Y15.1500
G01 Z-1.7500
G01 X102.5000Y16.8500
G00 X102.5000Y16.8500
G01 Z-2.0000
G01 X102.5000Y15.1500
G00 Z3.0000
G00 X111.5000Y15.1500
G01 Z-0.2500
G01 X111.5000Y16.8500
G00 X111.5000Y16.8500
G01 Z-0.5000
G01 X111.5000Y15.1500
G00 X111.5000Y15.1500
G01 Z-0.7500
G01 X111.5000Y16.8500
G00 X111.5000Y16.8500
G01 Z-1.0000
G01 X111.5000Y15.1500
G00 X111.5000Y15.1500
G01 Z-1.2500
G01 X111.5000Y16.8500
G00 X111.5000Y16.8500
G01 Z-1.5000
G01 X111.5000Y15.1500
G00 X111.5000Y15.1500
G01 Z-1.7500
G01 X111.5000Y16.8500
G00 X111.5000Y16.8500
G01 Z-2.0000
G01 X111.5000Y15.1500
G00 Z3.0000
G00 X116.5000Y15.1500
G01 Z-0.2500
G01 X116.5000Y16.8500
G00 X116.5000Y16.8500
G01 Z-0.5000
G01 X116.5000Y15.1500
G00 X116.5000Y15.1500
G01 Z-0.7500
G01 X116.5000Y16.8500
G00 X116.5000Y16.8500
G01 Z-1.0000
G01 X116.5000Y15.1500
G00 X116.5000Y15.1500
G01 Z-1.2500
G01 X116.5000Y16.8500
G00 X116.5000Y16.8500
G01 Z-1.5000
G01 X116.5000Y15.1500
G00 X116.5000Y15.1500
G01 Z-1.7500
G01 X116.5000Y16.8500
G00 X116.5000Y16.8500
G01 Z-2.0000
G01 X116.5000Y15.1500
G00 Z3.0000
G00 X121.5000Y15.1500
G01 Z-0.2500
G01 X121.5000Y16.8500
G00 X121.5000Y16.8500
G01 Z-0.5000
G01 X121.5000Y15.1500
G00 X121.5000Y15.1500
G01 Z-0.7500
G01 X121.5000Y16.8500
G00 X121.5000Y16.8500
G01 Z-1.0000
G01 X121.5000Y15.1500
G00 X121.5000Y15.1500
G01 Z-1.2500
G01 X121.5000Y16.8500
G00 X121.5000Y16.8500
G01 Z-1.5000
G01 X121.5000Y15.1500
G00 X121.5000Y15.1500
G01 Z-1.7500
G01 X121.5000Y16.8500
G00 X121.5000Y16.8500
G01 Z-2.0000
G01 X121.5000Y15.1500
G00 Z3.0000
G00 X126.5000Y15.1500
G01 Z-0.2500
G01 X126.5000Y16.8500
G00 X126.5000Y16.8500
G01 Z-0.5000
G01 X126.5000Y15.1500
G00 X126.5000Y15.1500
G01 Z-0.7500
G01 X126.5000Y16.8500
G00 X126.5000Y16.8500
G01 Z-1.0000
G01 X126.5000Y15.1500
G00 X126.5000Y15.1500
G01 Z-1.2500
G01 X126.5000Y16.8500
G00 X126.5000Y16.8500
G01 Z-1.5000
G01 X126.5000Y15.1500
G00 X126.5000Y15.1500
G01 Z-1.7500
G01 X126.5000Y16.8500
G00 X126.5000Y16.8500
G01 Z-2.0000
G01 X126.5000Y15.1500
G00 Z3.0000
G00 X121.5000Y23.1500
G01 Z-0.2500
G01 X121.5000Y24.8500
G00 X121.5000Y24.8500
G01 Z-0.5000
G01 X121.5000Y23.1500
G00 X121.5000Y23.1500
G01 Z-0.7500
G01 X121.5000Y24.8500
G00 X121.5000Y24.8500
G01 Z-1.0000
G01 X121.5000Y23.1500
G00 X121.5000Y23.1500
G01 Z-1.2500
G01 X121.5000Y24.8500
G00 X121.5000Y24.8500
G01 Z-1.5000
G01 X121.5000Y23.1500
G00 X121.5000Y23.1500
G01 Z-1.7500
G01 X121.5000Y24.8500
G00 X121.5000Y24.8500
G01 Z-2.0000
G01 X121.5000Y23.1500
G00 Z3.0000
G00 X116.5000Y23.1500
G01 Z-0.2500
G01 X116.5000Y24.8500
G00 X116.5000Y24.8500
G01 Z-0.5000
G01 X116.5000Y23.1500
G00 X116.5000Y23.1500
G01 Z-0.7500
G01 X116.5000Y24.8500
G00 X116.5000Y24.8500
G01 Z-1.0000
G01 X116.5000Y23.1500
G00 X116.5000Y23.1500
G01 Z-1.2500
G01 X116.5000Y24.8500
G00 X116.5000Y24.8500
G01 Z-1.5000
G01 X116.5000Y23.1500
G00 X116.5000Y23.1500
G01 Z-1.7500
G01 X116.5000Y24.8500
G00 X116.5000Y24.8500
G01 Z-2.0000
G01 X116.5000Y23.1500
G00 Z3.0000
G00 X119.0000Y9.3500
G01 Z-0.2500
G01 X119.0000Y7.6500
G00 X119.0000Y7.6500
G01 Z-0.5000
G01 X119.0000Y9.3500
G00 X119.0000Y9.3500
G01 Z-0.7500
G01 X119.0000Y7.6500
G00 X119.0000Y7.6500
G01 Z-1.0000
G01 X119.0000Y9.3500
G00 X119.0000Y9.3500
G01 Z-1.2500
G01 X119.0000Y7.6500
G00 X119.0000Y7.6500
G01 Z-1.5000
G01 X119.0000Y9.3500
G00 X119.0000Y9.3500
G01 Z-1.7500
G01 X119.0000Y7.6500
G00 X119.0000Y7.6500
G01 Z-2.0000
G01 X119.0000Y9.3500
G00 Z3.0000
G00 X95.0000Y9.3500
G01 Z-0.2500
G01 X95.0000Y7.6500
G00 X95.0000Y7.6500
G01 Z-0.5000
G01 X95.0000Y9.3500
G00 X95.0000Y9.3500
G01 Z-0.7500
G01 X95.0000Y7.6500
G00 X95.0000Y7.6500
G01 Z-1.0000
G01 X95.0000Y9.3500
G00 X95.0000Y9.3500
G01 Z-1.2500
G01 X95.0000Y7.6500
G00 X95.0000Y7.6500
G01 Z-1.5000
G01 X95.0000Y9.3500
G00 X95.0000Y9.3500
G01 Z-1.7500
G01 X95.0000Y7.6500
G00 X95.0000Y7.6500
G01 Z-2.0000
G01 X95.0000Y9.3500
G00 Z3.0000
G00 X97.5000Y23.1500
G01 Z-0.2500
G01 X97.5000Y24.8500
G00 X97.5000Y24.8500
G01 Z-0.5000
G01 X97.5000Y23.1500
G00 X97.5000Y23.1500
G01 Z-0.7500
G01 X97.5000Y24.8500
G00 X97.5000Y24.8500
G01 Z-1.0000
G01 X97.5000Y23.1500
G00 X97.5000Y23.1500
G01 Z-1.2500
G01 X97.5000Y24.8500
G00 X97.5000Y24.8500
G01 Z-1.5000
G01 X97.5000Y23.1500
G00 X97.5000Y23.1500
G01 Z-1.7500
G01 X97.5000Y24.8500
G00 X97.5000Y24.8500
G01 Z-2.0000
G01 X97.5000Y23.1500
G00 Z3.0000
G00 X92.5000Y23.1500
G01 Z-0.2500
G01 X92.5000Y24.8500
G00 X92.5000Y24.8500
G01 Z-0.5000
G01 X92.5000Y23.1500
G00 X92.5000Y23.1500
G01 Z-0.7500
G01 X92.5000Y24.8500
G00 X92.5000Y24.8500
G01 Z-1.0000
G01 X92.5000Y23.1500
G00 X92.5000Y23.1500
G01 Z-1.2500
G01 X92.5000Y24.8500
G00 X92.5000Y24.8500
G01 Z-1.5000
G01 X92.5000Y23.1500
G00 X92.5000Y23.1500
G01 Z-1.7500
G01 X92.5000Y24.8500
G00 X92.5000Y24.8500
G01 Z-2.0000
G01 X92.5000Y23.1500
G00 Z3.0000
G00 X74.5000Y23.1500
G01 Z-0.2500
G01 X74.5000Y24.8500
G00 X74.5000Y24.8500
G01 Z-0.5000
G01 X74.5000Y23.1500
G00 X74.5000Y23.1500
G01 Z-0.7500
G01 X74.5000Y24.8500
G00 X74.5000Y24.8500
G01 Z-1.0000
G01 X74.5000Y23.1500
G00 X74.5000Y23.1500
G01 Z-1.2500
G01 X74.5000Y24.8500
G00 X74.5000Y24.8500
G01 Z-1.5000
G01 X74.5000Y23.1500
G00 X74.5000Y23.1500
G01 Z-1.7500
G01 X74.5000Y24.8500
G00 X74.5000Y24.8500
G01 Z-2.0000
G01 X74.5000Y23.1500
G00 Z3.0000
G00 X69.5000Y23.1500
G01 Z-0.2500
G01 X69.5000Y24.8500
G00 X69.5000Y24.8500
G01 Z-0.5000
G01 X69.5000Y23.1500
G00 X69.5000Y23.1500
G01 Z-0.7500
G01 X69.5000Y24.8500
G00 X69.5000Y24.8500
G01 Z-1.0000
G01 X69.5000Y23.1500
G00 X69.5000Y23.1500
G01 Z-1.2500
G01 X69.5000Y24.8500
G00 X69.5000Y24.8500
G01 Z-1.5000
G01 X69.5000Y23.1500
G00 X69.5000Y23.1500
G01 Z-1.7500
G01 X69.5000Y24.8500
G00 X69.5000Y24.8500
G01 Z-2.0000
G01 X69.5000Y23.1500
G00 Z3.0000
G00 X72.0000Y9.3500
G01 Z-0.2500
G01 X72.0000Y7.6500
G00 X72.0000Y7.6500
G01 Z-0.5000
G01 X72.0000Y9.3500
G00 X72.0000Y9.3500
G01 Z-0.7500
G01 X72.0000Y7.6500
G00 X72.0000Y7.6500
G01 Z-1.0000
G01 X72.0000Y9.3500
G00 X72.0000Y9.3500
G01 Z-1.2500
G01 X72.0000Y7.6500
G00 X72.0000Y7.6500
G01 Z-1.5000
G01 X72.0000Y9.3500
G00 X72.0000Y9.3500
G01 Z-1.7500
G01 X72.0000Y7.6500
G00 X72.0000Y7.6500
G01 Z-2.0000
G01 X72.0000Y9.3500
G00 Z3.0000
G00 X49.0000Y9.3500
G01 Z-0.2500
G01 X49.0000Y7.6500
G00 X49.0000Y7.6500
G01 Z-0.5000
G01 X49.0000Y9.3500
G00 X49.0000Y9.3500
G01 Z-0.7500
G01 X49.0000Y7.6500
G00 X49.0000Y7.6500
G01 Z-1.0000
G01 X49.0000Y9.3500
G00 X49.0000Y9.3500
G01 Z-1.2500
G01 X49.0000Y7.6500
G00 X49.0000Y7.6500
G01 Z-1.5000
G01 X49.0000Y9.3500
G00 X49.0000Y9.3500
G01 Z-1.7500
G01 X49.0000Y7.6500
G00 X49.0000Y7.6500
G01 Z-2.0000
G01 X49.0000Y9.3500
G00 Z3.0000
G00 X51.5000Y23.1500
G01 Z-0.2500
G01 X51.5000Y24.8500
G00 X51.5000Y24.8500
G01 Z-0.5000
G01 X51.5000Y23.1500
G00 X51.5000Y23.1500
G01 Z-0.7500
G01 X51.5000Y24.8500
G00 X51.5000Y24.8500
G01 Z-1.0000
G01 X51.5000Y23.1500
G00 X51.5000Y23.1500
G01 Z-1.2500
G01 X51.5000Y24.8500
G00 X51.5000Y24.8500
G01 Z-1.5000
G01 X51.5000Y23.1500
G00 X51.5000Y23.1500
G01 Z-1.7500
G01 X51.5000Y24.8500
G00 X51.5000Y24.8500
G01 Z-2.0000
G01 X51.5000Y23.1500
G00 Z3.0000
G00 X46.5000Y23.1500
G01 Z-0.2500
G01 X46.5000Y24.8500
G00 X46.5000Y24.8500
G01 Z-0.5000
G01 X46.5000Y23.1500
G00 X46.5000Y23.1500
G01 Z-0.7500
G01 X46.5000Y24.8500
G00 X46.5000Y24.8500
G01 Z-1.0000
G01 X46.5000Y23.1500
G00 X46.5000Y23.1500
G01 Z-1.2500
G01 X46.5000Y24.8500
G00 X46.5000Y24.8500
G01 Z-1.5000
G01 X46.5000Y23.1500
G00 X46.5000Y23.1500
G01 Z-1.7500
G01 X46.5000Y24.8500
G00 X46.5000Y24.8500
G01 Z-2.0000
G01 X46.5000Y23.1500
G00 Z3.0000
G00 X28.5000Y23.1500
G01 Z-0.2500
G01 X28.5000Y24.8500
G00 X28.5000Y24.8500
G01 Z-0.5000
G01 X28.5000Y23.1500
G00 X28.5000Y23.1500
G01 Z-0.7500
G01 X28.5000Y24.8500
G00 X28.5000Y24.8500
G01 Z-1.0000
G01 X28.5000Y23.1500
G00 X28.5000Y23.1500
G01 Z-1.2500
G01 X28.5000Y24.8500
G00 X28.5000Y24.8500
G01 Z-1.5000
G01 X28.5000Y23.1500
G00 X28.5000Y23.1500
G01 Z-1.7500
G01 X28.5000Y24.8500
G00 X28.5000Y24.8500
G01 Z-2.0000
G01 X28.5000Y23.1500
G00 Z3.0000
G00 X23.5000Y23.1500
G01 Z-0.2500
G01 X23.5000Y24.8500
G00 X23.5000Y24.8500
G01 Z-0.5000
G01 X23.5000Y23.1500
G00 X23.5000Y23.1500
G01 Z-0.7500
G01 X23.5000Y24.8500
G00 X23.5000Y24.8500
G01 Z-1.0000
G01 X23.5000Y23.1500
G00 X23.5000Y23.1500
G01 Z-1.2500
G01 X23.5000Y24.8500
G00 X23.5000Y24.8500
G01 Z-1.5000
G01 X23.5000Y23.1500
G00 X23.5000Y23.1500
G01 Z-1.7500
G01 X23.5000Y24.8500
G00 X23.5000Y24.8500
G01 Z-2.0000
G01 X23.5000Y23.1500
G00 Z3.0000
G00 X26.0000Y9.3500
G01 Z-0.2500
G01 X26.0000Y7.6500
G00 X26.0000Y7.6500
G01 Z-0.5000
G01 X26.0000Y9.3500
G00 X26.0000Y9.3500
G01 Z-0.7500
G01 X26.0000Y7.6500
G00 X26.0000Y7.6500
G01 Z-1.0000
G01 X26.0000Y9.3500
G00 X26.0000Y9.3500
G01 Z-1.2500
G01 X26.0000Y7.6500
G00 X26.0000Y7.6500
G01 Z-1.5000
G01 X26.0000Y9.3500
G00 X26.0000Y9.3500
G01 Z-1.7500
G01 X26.0000Y7.6500
G00 X26.0000Y7.6500
G01 Z-2.0000
G01 X26.0000Y9.3500
G00 Z3.0000
G00 X4.2000Y13.0000
G01 Z-0.2500
G01 X3.8000Y13.0000
G00 X3.8000Y13.0000
G01 Z-0.5000
G01 X4.2000Y13.0000
G00 X4.2000Y13.0000
G01 Z-0.7500
G01 X3.8000Y13.0000
G00 X3.8000Y13.0000
G01 Z-1.0000
G01 X4.2000Y13.0000
G00 X4.2000Y13.0000
G01 Z-1.2500
G01 X3.8000Y13.0000
G00 X3.8000Y13.0000
G01 Z-1.5000
G01 X4.2000Y13.0000
G00 X4.2000Y13.0000
G01 Z-1.7500
G01 X3.8000Y13.0000
G00 X3.8000Y13.0000
G01 Z-2.0000
G01 X4.2000Y13.0000
G00 Z3.0000
G00 Z3.0000
G00 X0Y0
M05
G0 Z20
G0 X0 Y100