G0 Z20
G21
G90
G94
F100.00
G00 Z3.0000
M03 S45
G4 P1
G00 X-0.9278Y-0.9760
G01 Z-0.2000
G01 X148.9622Y-0.9685
G01 X148.9554Y93.9750
G01 X-0.9915Y93.9674
G00 X-0.9915Y93.9674
G01 Z-0.4000
G01 X148.9554Y93.9750
G01 X148.9622Y-0.9685
G01 X-0.9278Y-0.9760
G00 X-0.9278Y-0.9760
G01 Z-0.6000
G01 X148.9622Y-0.9685
G01 X148.9554Y93.9750
G01 X-0.9915Y93.9674
G00 X-0.9915Y93.9674
G01 Z-0.8000
G01 X148.9554Y93.9750
G01 X148.9622Y-0.9685
G01 X-0.9278Y-0.9760
G00 X-0.9278Y-0.9760
G01 Z-1.0000
G01 X148.9622Y-0.9685
G01 X148.9554Y93.9750
G01 X-0.9915Y93.9674
G00 X-0.9915Y93.9674
G01 Z-1.2000
G01 X148.9554Y93.9750
G01 X148.9622Y-0.9685
G01 X-0.9278Y-0.9760
G00 X-0.9278Y-0.9760
G01 Z-1.4000
G01 X148.9622Y-0.9685
G01 X148.9554Y93.9750
G01 X-0.9915Y93.9674
G00 X-0.9915Y93.9674
G01 Z-1.6000
G01 X148.9554Y93.9750
G01 X148.9622Y-0.9685
G01 X-0.9278Y-0.9760
G00 X-0.9278Y-0.9760
G01 Z-1.8000
G01 X148.9622Y-0.9685
G01 X148.9554Y93.9750
G01 X-0.9915Y93.9674
G00 Z3.0000
G00 Z3.0000
G00 X0Y0
M05
G0 Z20
G0 X0 Y100