G0 Z20
G21
G90
G94
F60.00
G00 Z3.0000
M03 S45
G4 P1

G00 X144.8250Y21.8500
G01 Z-0.1500
G01 X144.8250Y20.3500
G01 X144.8269Y20.3280
G01 X144.8294Y20.3172
G01 X144.8370Y20.2965
G01 X144.8428Y20.2857
G01 X144.8496Y20.2755
G01 X144.8574Y20.2661
G01 X144.8661Y20.2574
G01 X144.8755Y20.2496
G01 X144.8857Y20.2428
G01 X144.8966Y20.2370
G01 X144.9067Y20.2327
G01 X144.9280Y20.2269
G01 X144.9500Y20.2250
G01 X147.0911Y20.2250
G01 X153.1331Y14.1831
G01 X153.1739Y14.1459
G01 X153.2228Y14.1089
G01 X153.2750Y14.0768
G01 X153.2859Y14.0710
G01 X153.3415Y14.0454
G01 X153.3995Y14.0253
G01 X153.4576Y14.0112
G01 X153.5077Y14.0038
G01 X153.5199Y14.0026
G01 X153.5750Y14.0000
G01 X159.5480Y14.0000
G01 X159.6089Y14.0030
G01 X159.6696Y14.0119
G01 X159.7290Y14.0268
G01 X159.7872Y14.0476
G01 X159.8412Y14.0730
G01 X159.8956Y14.1056
G01 X159.9443Y14.1417
G01 X159.9900Y14.1831
G01 X163.7819Y17.9750
G01 X168.2181Y17.9750
G01 X171.7145Y14.4788
G01 X171.7560Y14.4414
G01 X171.8040Y14.4058
G01 X171.8574Y14.3738
G01 X171.9129Y14.3475
G01 X171.9706Y14.3269
G01 X172.0303Y14.3120
G01 X172.0920Y14.3029
G01 X172.1458Y14.3002
G01 X179.2000Y14.3000
G01 X179.2551Y14.3026
G01 X179.3159Y14.3110
G01 X179.3755Y14.3253
G01 X179.3873Y14.3288
G01 X179.4335Y14.3454
G01 X179.4891Y14.3710
G01 X179.5000Y14.3768
G01 X179.5514Y14.4083
G01 X179.5917Y14.4381
G01 X179.6375Y14.4788
G01 X182.4339Y17.2750
G01 X183.9250Y17.2750
G01 X183.9250Y17.1500
G01 X183.9258Y17.1362
G01 X183.9280Y17.1226
G01 X183.9318Y17.1093
G01 X183.9370Y17.0966
G01 X183.9428Y17.0857
G01 X183.9496Y17.0755
G01 X183.9574Y17.0661
G01 X183.9661Y17.0574
G01 X183.9755Y17.0496
G01 X183.9857Y17.0428
G01 X183.9966Y17.0370
G01 X184.0093Y17.0318
G01 X184.0226Y17.0280
G01 X184.0362Y17.0258
G01 X184.0500Y17.0250
G01 X187.0500Y17.0250
G01 X187.0638Y17.0258
G01 X187.0774Y17.0280
G01 X187.0907Y17.0318
G01 X187.1034Y17.0370
G01 X187.1143Y17.0428
G01 X187.1245Y17.0496
G01 X187.1339Y17.0574
G01 X187.1426Y17.0661
G01 X187.1504Y17.0755
G01 X187.1572Y17.0857
G01 X187.1630Y17.0966
G01 X187.1682Y17.1093
G01 X187.1720Y17.1226
G01 X187.1742Y17.1362
G01 X187.1750Y17.1500
G01 X187.1750Y18.6500
G01 X187.1731Y18.6720
G01 X187.1706Y18.6828
G01 X187.1630Y18.7035
G01 X187.1572Y18.7143
G01 X187.1504Y18.7245
G01 X187.1426Y18.7339
G01 X187.1339Y18.7426
G01 X187.1245Y18.7504
G01 X187.1143Y18.7572
G01 X187.1034Y18.7630
G01 X187.0827Y18.7706
G01 X187.0610Y18.7745
G01 X187.0500Y18.7750
G01 X184.0390Y18.7745
G01 X184.0173Y18.7706
G01 X184.0067Y18.7673
G01 X183.9966Y18.7630
G01 X183.9857Y18.7572
G01 X183.9755Y18.7504
G01 X183.9661Y18.7426
G01 X183.9574Y18.7339
G01 X183.9496Y18.7245
G01 X183.9428Y18.7143
G01 X183.9370Y18.7035
G01 X183.9294Y18.6828
G01 X183.9255Y18.6610
G01 X183.9250Y18.5250
G01 X182.1689Y18.5248
G01 X182.1077Y18.5212
G01 X182.0591Y18.5140
G01 X181.9995Y18.4997
G01 X181.9415Y18.4796
G01 X181.9302Y18.4749
G01 X181.8859Y18.4540
G01 X181.8330Y18.4230
G01 X181.7833Y18.3869
G01 X181.7739Y18.3791
G01 X181.7331Y18.3419
G01 X178.9411Y15.5500
G01 X172.4109Y15.5500
G01 X168.9189Y19.0420
G01 X168.8729Y19.0836
G01 X168.8250Y19.1192
G01 X168.7715Y19.1513
G01 X168.7160Y19.1775
G01 X168.6584Y19.1981
G01 X168.5986Y19.2131
G01 X168.5370Y19.2221
G01 X168.4770Y19.2250
G01 X163.5230Y19.2250
G01 X163.4679Y19.2225
G01 X163.4557Y19.2213
G01 X163.4014Y19.2131
G01 X163.3475Y19.1997
G01 X163.3358Y19.1962
G01 X163.2783Y19.1750
G01 X163.2299Y19.1520
G01 X163.1754Y19.1194
G01 X163.1268Y19.0834
G01 X163.0855Y19.0462
G01 X159.2891Y15.2500
G01 X153.8339Y15.2500
G01 X148.0750Y21.0089
G01 X148.0750Y21.8500
G01 X148.0742Y21.8638
G01 X148.0720Y21.8774
G01 X148.0682Y21.8907
G01 X148.0630Y21.9034
G01 X148.0572Y21.9143
G01 X148.0504Y21.9245
G01 X148.0426Y21.9339
G01 X148.0339Y21.9426
G01 X148.0245Y21.9504
G01 X148.0143Y21.9572
G01 X148.0034Y21.9630
G01 X147.9907Y21.9682
G01 X147.9774Y21.9720
G01 X147.9638Y21.9742
G01 X147.9500Y21.9750
G01 X144.9500Y21.9750
G01 X144.9362Y21.9742
G01 X144.9226Y21.9720
G01 X144.9093Y21.9682
G01 X144.8966Y21.9630
G01 X144.8857Y21.9572
G01 X144.8755Y21.9504
G01 X144.8661Y21.9426
G01 X144.8574Y21.9339
G01 X144.8496Y21.9245
G01 X144.8428Y21.9143
G01 X144.8370Y21.9034
G01 X144.8318Y21.8907
G01 X144.8280Y21.8774
G01 X144.8258Y21.8638
G01 X144.8250Y21.8500
G00 Z3.0000
G00 X169.6327Y12.0349
G01 Z-0.1500
G01 X166.8926Y14.7750
G01 X165.1074Y14.7750
G01 X162.2292Y11.8968
G01 X162.2644Y11.8861
G01 X162.3106Y11.8695
G01 X162.3763Y11.8423
G01 X162.4207Y11.8213
G01 X162.4835Y11.7878
G01 X162.5255Y11.7626
G01 X162.5847Y11.7230
G01 X162.6241Y11.6938
G01 X162.6791Y11.6487
G01 X162.7155Y11.6157
G01 X162.7412Y11.5912
G01 X165.2074Y9.1250
G01 X166.6926Y9.1250
G01 X169.4588Y11.8912
G01 X169.4845Y11.9157
G01 X169.5209Y11.9487
G01 X169.5218Y11.9476
G01 X169.5759Y11.9938
G01 X169.6201Y12.0266
G01 X169.6327Y12.0349
G00 Z3.0000
G00 X169.7934Y12.0156
G01 Z-0.1500
G01 X166.9340Y14.8750
G01 X165.0660Y14.8750
G01 X162.0297Y11.8387
G01 X162.0719Y11.8324
G01 X162.1244Y11.8216
G01 X162.1720Y11.8097
G01 X162.2307Y11.7919
G01 X162.2769Y11.7754
G01 X162.3336Y11.7519
G01 X162.3780Y11.7309
G01 X162.4320Y11.7020
G01 X162.4741Y11.6768
G01 X162.5251Y11.6427
G01 X162.5645Y11.6135
G01 X162.6120Y11.5746
G01 X162.6705Y11.5205
G01 X165.1660Y9.0250
G01 X166.7340Y9.0250
G01 X169.5295Y11.8205
G01 X169.5880Y11.8746
G01 X169.5888Y11.8737
G01 X169.6355Y11.9135
G01 X169.6749Y11.9427
G01 X169.7259Y11.9768
G01 X169.7680Y12.0020
G01 X169.7934Y12.0156
G00 Z3.0000
G00 X169.9659Y11.9845
G01 Z-0.1500
G01 X166.9754Y14.9750
G01 X165.0246Y14.9750
G01 X161.7995Y11.7500
G01 X161.9008Y11.7493
G01 X161.9498Y11.7469
G01 X161.9498Y11.7461
G01 X162.0011Y11.7419
G01 X162.0560Y11.7337
G01 X162.1001Y11.7246
G01 X162.1477Y11.7127
G01 X162.1970Y11.6978
G01 X162.2432Y11.6812
G01 X162.2908Y11.6615
G01 X162.3352Y11.6405
G01 X162.3806Y11.6162
G01 X162.4227Y11.5910
G01 X162.4656Y11.5624
G01 X162.5050Y11.5332
G01 X162.5448Y11.5005
G01 X162.5998Y11.4498
G01 X165.1246Y8.9250
G01 X166.7754Y8.9250
G01 X169.6002Y11.7498
G01 X169.6552Y11.8005
G01 X169.6559Y11.7997
G01 X169.6950Y11.8332
G01 X169.7379Y11.8650
G01 X169.7773Y11.8910
G01 X169.8194Y11.9162
G01 X169.8648Y11.9405
G01 X169.9092Y11.9615
G01 X169.9659Y11.9845
G00 Z3.0000
G00 X170.1576Y11.9343
G01 Z-0.1500
G01 X167.0169Y15.0750
G01 X164.9831Y15.0750
G01 X161.5581Y11.6500
G01 X161.8959Y11.6495
G01 X161.9449Y11.6471
G01 X161.9449Y11.6464
G01 X161.9864Y11.6430
G01 X162.0401Y11.6350
G01 X162.0758Y11.6276
G01 X162.1234Y11.6157
G01 X162.1634Y11.6036
G01 X162.2095Y11.5871
G01 X162.2481Y11.5711
G01 X162.2924Y11.5501
G01 X162.3292Y11.5305
G01 X162.3713Y11.5052
G01 X162.4060Y11.4821
G01 X162.4454Y11.4528
G01 X162.4776Y11.4264
G01 X162.5291Y11.3790
G01 X165.0831Y8.8250
G01 X166.8169Y8.8250
G01 X169.6709Y11.6790
G01 X169.6860Y11.6934
G01 X169.7224Y11.7264
G01 X169.7229Y11.7258
G01 X169.7546Y11.7528
G01 X169.7968Y11.7841
G01 X169.8287Y11.8052
G01 X169.8708Y11.8305
G01 X169.9076Y11.8501
G01 X169.9519Y11.8711
G01 X169.9905Y11.8871
G01 X170.0366Y11.9036
G01 X170.0368Y11.9031
G01 X170.0766Y11.9157
G01 X170.1242Y11.9276
G01 X170.1576Y11.9343
G00 Z3.0000
G00 X170.3833Y11.8500
G01 Z-0.1500
G01 X167.0583Y15.1750
G01 X164.9417Y15.1750
G01 X161.3167Y11.5500
G01 X161.8750Y11.5500
G01 X161.9400Y11.5472
G01 X161.9400Y11.5466
G01 X161.9717Y11.5440
G01 X162.0242Y11.5362
G01 X162.0515Y11.5306
G01 X162.0991Y11.5187
G01 X162.1297Y11.5094
G01 X162.1759Y11.4929
G01 X162.2053Y11.4807
G01 X162.2497Y11.4597
G01 X162.2778Y11.4447
G01 X162.3199Y11.4195
G01 X162.3464Y11.4017
G01 X162.3858Y11.3725
G01 X162.4105Y11.3523
G01 X162.4584Y11.3083
G01 X165.0417Y8.7250
G01 X166.8583Y8.7250
G01 X169.7416Y11.6083
G01 X169.7895Y11.6523
G01 X169.7899Y11.6518
G01 X169.8142Y11.6725
G01 X169.8557Y11.7033
G01 X169.8801Y11.7195
G01 X169.9222Y11.7447
G01 X169.9503Y11.7597
G01 X169.9947Y11.7807
G01 X170.0241Y11.7929
G01 X170.0703Y11.8094
G01 X170.1009Y11.8187
G01 X170.1485Y11.8306
G01 X170.1797Y11.8368
G01 X170.2283Y11.8440
G01 X170.2600Y11.8472
G01 X170.3090Y11.8496
G01 X170.3833Y11.8500
G00 Z3.0000
G00 X170.6343Y11.7500
G01 Z-0.1500
G01 X170.6067Y11.7718
G01 X170.5624Y11.8123
G01 X167.0997Y15.2750
G01 X164.9003Y15.2750
G01 X161.1376Y11.5123
G01 X161.0933Y11.4718
G01 X161.0657Y11.4500
G01 X161.8750Y11.4500
G01 X161.9351Y11.4473
G01 X161.9571Y11.4451
G01 X162.0083Y11.4375
G01 X162.0272Y11.4336
G01 X162.0748Y11.4217
G01 X162.0960Y11.4153
G01 X162.1422Y11.3988
G01 X162.1626Y11.3903
G01 X162.2069Y11.3693
G01 X162.2264Y11.3589
G01 X162.2685Y11.3337
G01 X162.2868Y11.3214
G01 X162.3263Y11.2922
G01 X162.3433Y11.2782
G01 X162.3877Y11.2376
G01 X165.0003Y8.6250
G01 X166.8997Y8.6250
G01 X169.8123Y11.5376
G01 X169.8567Y11.5782
G01 X169.8737Y11.5922
G01 X169.9146Y11.6225
G01 X169.9315Y11.6337
G01 X169.9736Y11.6589
G01 X169.9931Y11.6693
G01 X170.0374Y11.6903
G01 X170.0578Y11.6988
G01 X170.1040Y11.7153
G01 X170.1252Y11.7217
G01 X170.1728Y11.7336
G01 X170.1944Y11.7379
G01 X170.2429Y11.7451
G01 X170.2649Y11.7473
G01 X170.3139Y11.7497
G01 X170.6343Y11.7500
G00 Z3.0000
G00 X182.5702Y6.0746
G01 Z-0.1500
G01 X182.5735Y6.0849
G01 X182.5820Y6.1053
G01 X182.5876Y6.1162
G01 X182.5579Y6.1177
G01 X182.5231Y6.1217
G01 X182.5702Y6.0746
G00 Z3.0000
G00 X187.2860Y10.5750
G01 Z-0.1500
G01 X182.5374Y10.5750
G01 X182.6929Y10.4195
G01 X182.7398Y10.4389
G01 X182.8414Y10.4753
G01 X182.8417Y10.4745
G01 X182.9095Y10.4959
G01 X183.0142Y10.5221
G01 X183.0840Y10.5360
G01 X183.1908Y10.5519
G01 X183.2616Y10.5588
G01 X183.3694Y10.5641
G01 X183.4050Y10.5650
G01 X184.6750Y10.5650
G01 X184.7106Y10.5641
G01 X184.8184Y10.5588
G01 X184.8183Y10.5577
G01 X184.8892Y10.5519
G01 X185.0048Y10.5347
G01 X185.0658Y10.5221
G01 X185.1705Y10.4959
G01 X185.2386Y10.4753
G01 X185.3402Y10.4389
G01 X185.4059Y10.4117
G01 X185.5035Y10.3655
G01 X185.5663Y10.3320
G01 X185.6589Y10.2765
G01 X185.7180Y10.2369
G01 X185.8047Y10.1726
G01 X185.8597Y10.1275
G01 X185.9397Y10.0550
G01 X185.9900Y10.0047
G01 X186.0625Y9.9247
G01 X186.0615Y9.9238
G01 X186.1076Y9.8697
G01 X186.1719Y9.7830
G01 X186.2115Y9.7239
G01 X186.2670Y9.6313
G01 X186.3005Y9.5685
G01 X186.3507Y9.4611
G01 X187.2860Y10.3964
G01 X187.2860Y10.5750
G00 Z3.0000
G00 X187.3860Y10.6750
G01 Z-0.1500
G01 X182.2960Y10.6750
G01 X182.6713Y10.2997
G01 X182.7168Y10.3213
G01 X182.7735Y10.3447
G01 X182.8751Y10.3811
G01 X182.8754Y10.3804
G01 X182.9338Y10.3989
G01 X183.0385Y10.4251
G01 X183.0987Y10.4371
G01 X183.2055Y10.4529
G01 X183.2665Y10.4590
G01 X183.3743Y10.4642
G01 X183.4050Y10.4650
G01 X184.6750Y10.4650
G01 X184.7057Y10.4642
G01 X184.8135Y10.4590
G01 X184.8134Y10.4579
G01 X184.8745Y10.4529
G01 X184.9889Y10.4359
G01 X185.0415Y10.4251
G01 X185.1462Y10.3989
G01 X185.2049Y10.3811
G01 X185.3065Y10.3447
G01 X185.3632Y10.3213
G01 X185.4608Y10.2751
G01 X185.5149Y10.2462
G01 X185.6074Y10.1907
G01 X185.6584Y10.1566
G01 X185.7451Y10.0923
G01 X185.7926Y10.0534
G01 X185.8725Y9.9809
G01 X185.9159Y9.9375
G01 X185.9884Y9.8576
G01 X185.9875Y9.8568
G01 X186.0273Y9.8101
G01 X186.0947Y9.7193
G01 X186.1257Y9.6724
G01 X186.1812Y9.5799
G01 X186.2101Y9.5258
G01 X186.2563Y9.4282
G01 X186.2797Y9.3715
G01 X186.3121Y9.2811
G01 X187.3860Y10.3550
G01 X187.3860Y10.6750
G00 Z3.0000
G00 X187.4860Y10.7750
G01 Z-0.1500
G01 X182.0546Y10.7750
G01 X182.6508Y10.1787
G01 X182.6620Y10.1847
G01 X182.7596Y10.2309
G01 X182.8072Y10.2506
G01 X182.9088Y10.2869
G01 X182.9090Y10.2864
G01 X182.9581Y10.3019
G01 X183.0628Y10.3281
G01 X183.1134Y10.3382
G01 X183.2201Y10.3540
G01 X183.2714Y10.3591
G01 X183.3792Y10.3644
G01 X183.4050Y10.3650
G01 X184.6750Y10.3650
G01 X184.7008Y10.3644
G01 X184.8086Y10.3591
G01 X184.8085Y10.3582
G01 X184.8599Y10.3540
G01 X184.9730Y10.3372
G01 X185.0172Y10.3281
G01 X185.1219Y10.3019
G01 X185.1712Y10.2869
G01 X185.2728Y10.2506
G01 X185.3204Y10.2309
G01 X185.4180Y10.1847
G01 X185.4634Y10.1604
G01 X185.5560Y10.1049
G01 X185.5989Y10.0763
G01 X185.6856Y10.0120
G01 X185.7254Y9.9793
G01 X185.8054Y9.9068
G01 X185.8418Y9.8704
G01 X185.9143Y9.7904
G01 X185.9136Y9.7897
G01 X185.9470Y9.7506
G01 X186.0139Y9.6604
G01 X186.0399Y9.6210
G01 X186.0954Y9.5284
G01 X186.1197Y9.4830
G01 X186.1659Y9.3854
G01 X186.1856Y9.3378
G01 X186.2219Y9.2362
G01 X186.2214Y9.2360
G01 X186.2369Y9.1869
G01 X186.2614Y9.0890
G01 X187.4860Y10.3136
G01 X187.4860Y10.7750
G00 Z3.0000
G00 X187.5860Y10.8777
G01 Z-0.1500
G01 X187.5211Y10.8750
G01 X181.8131Y10.8750
G01 X182.6339Y10.0542
G01 X182.6680Y10.0746
G01 X182.7048Y10.0943
G01 X182.8023Y10.1405
G01 X182.8409Y10.1564
G01 X182.9425Y10.1928
G01 X182.9824Y10.2049
G01 X183.0871Y10.2311
G01 X183.1280Y10.2393
G01 X183.2348Y10.2551
G01 X183.2763Y10.2592
G01 X183.3841Y10.2645
G01 X183.4050Y10.2650
G01 X184.6750Y10.2650
G01 X184.8037Y10.2592
G01 X184.8036Y10.2585
G01 X184.8452Y10.2551
G01 X184.9571Y10.2385
G01 X184.9929Y10.2311
G01 X185.0976Y10.2049
G01 X185.1375Y10.1928
G01 X185.2391Y10.1564
G01 X185.2777Y10.1405
G01 X185.3752Y10.0943
G01 X185.4120Y10.0746
G01 X185.5046Y10.0192
G01 X185.5393Y9.9960
G01 X185.6260Y9.9317
G01 X185.6582Y9.9052
G01 X185.7382Y9.8327
G01 X185.7677Y9.8032
G01 X185.8402Y9.7232
G01 X185.8396Y9.7227
G01 X185.8667Y9.6910
G01 X185.9331Y9.6015
G01 X185.9542Y9.5696
G01 X186.0096Y9.4770
G01 X186.0293Y9.4402
G01 X186.0755Y9.3427
G01 X186.0914Y9.3041
G01 X186.1278Y9.2025
G01 X186.1273Y9.2023
G01 X186.1399Y9.1626
G01 X186.1661Y9.0579
G01 X186.1743Y9.0170
G01 X186.1901Y8.9102
G01 X186.1931Y8.8793
G01 X187.5860Y10.2721
G01 X187.5860Y10.8777
G00 Z3.0000
G00 X187.6876Y10.9924
G01 Z-0.1500
G01 X187.6663Y10.9881
G01 X187.6178Y10.9809
G01 X187.5860Y10.9778
G01 X187.5211Y10.9750
G01 X181.5717Y10.9750
G01 X182.6187Y9.9280
G01 X182.7194Y9.9889
G01 X182.7475Y10.0039
G01 X182.8451Y10.0501
G01 X182.8746Y10.0623
G01 X182.9762Y10.0986
G01 X183.0067Y10.1079
G01 X183.1114Y10.1341
G01 X183.1427Y10.1403
G01 X183.2495Y10.1562
G01 X183.2812Y10.1593
G01 X183.3891Y10.1646
G01 X184.6750Y10.1650
G01 X184.7988Y10.1593
G01 X184.7987Y10.1588
G01 X184.8305Y10.1562
G01 X184.9412Y10.1397
G01 X184.9686Y10.1341
G01 X185.0733Y10.1079
G01 X185.1038Y10.0986
G01 X185.2054Y10.0623
G01 X185.2349Y10.0501
G01 X185.3325Y10.0039
G01 X185.3606Y9.9889
G01 X185.4532Y9.9334
G01 X185.4797Y9.9157
G01 X185.5664Y9.8514
G01 X185.5911Y9.8311
G01 X185.6711Y9.7586
G01 X185.6936Y9.7361
G01 X185.7661Y9.6561
G01 X185.7657Y9.6557
G01 X185.7864Y9.6314
G01 X185.8522Y9.5426
G01 X185.8684Y9.5182
G01 X185.9239Y9.4256
G01 X185.9389Y9.3975
G01 X185.9851Y9.2999
G01 X185.9973Y9.2704
G01 X186.0336Y9.1688
G01 X186.0429Y9.1383
G01 X186.0691Y9.0336
G01 X186.0753Y9.0023
G01 X186.0912Y8.8955
G01 X186.0943Y8.8638
G01 X186.0996Y8.7559
G01 X186.0996Y8.7241
G01 X186.0955Y8.6402
G01 X187.6860Y10.2307
G01 X187.6860Y10.9514
G01 X187.6876Y10.9924
G00 Z3.0000
G00 X187.8103Y11.1355
G01 Z-0.1500
G01 X187.7882Y11.1262
G01 X187.7420Y11.1097
G01 X187.7209Y11.1033
G01 X187.6733Y11.0914
G01 X187.6516Y11.0870
G01 X187.6031Y11.0798
G01 X187.5811Y11.0777
G01 X187.5211Y11.0750
G01 X181.4185Y11.0750
G01 X181.3584Y11.0777
G01 X181.3235Y11.0818
G01 X182.6082Y9.7971
G01 X182.6613Y9.8364
G01 X182.6782Y9.8476
G01 X182.7708Y9.9031
G01 X182.7903Y9.9135
G01 X182.8878Y9.9597
G01 X182.9082Y9.9681
G01 X183.0099Y10.0045
G01 X183.0310Y10.0109
G01 X183.1357Y10.0371
G01 X183.1574Y10.0414
G01 X183.2642Y10.0573
G01 X183.2861Y10.0594
G01 X183.3940Y10.0647
G01 X184.6750Y10.0650
G01 X184.7939Y10.0594
G01 X184.8158Y10.0573
G01 X184.9253Y10.0410
G01 X184.9443Y10.0371
G01 X185.0490Y10.0109
G01 X185.0701Y10.0045
G01 X185.1718Y9.9681
G01 X185.1922Y9.9597
G01 X185.2897Y9.9135
G01 X185.3092Y9.9031
G01 X185.4018Y9.8476
G01 X185.4202Y9.8353
G01 X185.5069Y9.7710
G01 X185.5239Y9.7570
G01 X185.6039Y9.6845
G01 X185.6195Y9.6689
G01 X185.6920Y9.5889
G01 X185.7060Y9.5719
G01 X185.7714Y9.4837
G01 X185.7826Y9.4668
G01 X185.8381Y9.3742
G01 X185.8485Y9.3547
G01 X185.8947Y9.2572
G01 X185.9031Y9.2368
G01 X185.9395Y9.1351
G01 X185.9459Y9.1140
G01 X185.9721Y9.0093
G01 X185.9764Y8.9876
G01 X185.9923Y8.8808
G01 X185.9944Y8.8589
G01 X185.9997Y8.7510
G01 X185.9997Y8.7290
G01 X185.9944Y8.6211
G01 X185.9923Y8.5992
G01 X185.9764Y8.4924
G01 X185.9721Y8.4707
G01 X185.9459Y8.3660
G01 X185.9383Y8.3416
G01 X187.7860Y10.1893
G01 X187.7863Y10.9625
G01 X187.7887Y11.0115
G01 X187.7909Y11.0335
G01 X187.7985Y11.0847
G01 X187.8024Y11.1037
G01 X187.8103Y11.1355
G00 Z3.0000
G00 X191.1057Y8.8539
G01 Z-0.1500
G01 X191.1002Y8.7461
G01 X191.1002Y8.7339
G01 X191.1054Y8.6260
G01 X191.1066Y8.6138
G01 X191.1227Y8.5055
G01 X191.1511Y8.3903
G01 X191.1547Y8.3786
G01 X191.1910Y8.2769
G01 X191.1957Y8.2656
G01 X191.2419Y8.1680
G01 X191.2477Y8.1572
G01 X191.3094Y8.0552
G01 X191.3743Y7.9677
G01 X191.3821Y7.9582
G01 X191.4546Y7.8782
G01 X191.4632Y7.8696
G01 X191.5432Y7.7971
G01 X191.5527Y7.7893
G01 X191.6394Y7.7250
G01 X191.6496Y7.7182
G01 X191.7422Y7.6627
G01 X191.7530Y7.6569
G01 X191.8506Y7.6107
G01 X191.8619Y7.6060
G01 X191.9636Y7.5697
G01 X191.9753Y7.5661
G01 X192.0905Y7.5377
G01 X192.1988Y7.5216
G01 X192.2110Y7.5204
G01 X192.3189Y7.5152
G01 X193.5950Y7.5150
G01 X193.7090Y7.5204
G01 X193.7212Y7.5216
G01 X193.8279Y7.5375
G01 X193.8400Y7.5399
G01 X193.9447Y7.5661
G01 X193.9564Y7.5697
G01 X194.0581Y7.6060
G01 X194.0694Y7.6107
G01 X194.1670Y7.6569
G01 X194.1778Y7.6627
G01 X194.2798Y7.7244
G01 X194.3673Y7.7893
G01 X194.3768Y7.7971
G01 X194.4568Y7.8696
G01 X194.4654Y7.8782
G01 X194.5379Y7.9582
G01 X194.5457Y7.9677
G01 X194.6100Y8.0544
G01 X194.6168Y8.0646
G01 X194.6723Y8.1572
G01 X194.6781Y8.1680
G01 X194.7243Y8.2656
G01 X194.7290Y8.2769
G01 X194.7653Y8.3786
G01 X194.7689Y8.3903
G01 X194.7951Y8.4950
G01 X194.7975Y8.5071
G01 X194.8134Y8.6138
G01 X194.8146Y8.6260
G01 X194.8198Y8.7339
G01 X194.8198Y8.7461
G01 X194.8146Y8.8540
G01 X194.8134Y8.8662
G01 X194.7975Y8.9729
G01 X194.7951Y8.9850
G01 X194.7689Y9.0897
G01 X194.7653Y9.1014
G01 X194.7290Y9.2031
G01 X194.7243Y9.2144
G01 X194.6781Y9.3120
G01 X194.6723Y9.3228
G01 X194.6168Y9.4154
G01 X194.6106Y9.4248
G01 X194.5457Y9.5123
G01 X194.5379Y9.5218
G01 X194.4654Y9.6018
G01 X194.4568Y9.6104
G01 X194.3768Y9.6829
G01 X194.3673Y9.6907
G01 X194.2806Y9.7550
G01 X194.2704Y9.7618
G01 X194.1778Y9.8173
G01 X194.1670Y9.8231
G01 X194.0694Y9.8693
G01 X194.0581Y9.8740
G01 X193.9564Y9.9103
G01 X193.9447Y9.9139
G01 X193.8295Y9.9423
G01 X193.7212Y9.9584
G01 X193.7090Y9.9596
G01 X193.6011Y9.9648
G01 X192.3250Y9.9650
G01 X192.2110Y9.9596
G01 X192.1988Y9.9584
G01 X192.0921Y9.9425
G01 X192.0800Y9.9401
G01 X191.9753Y9.9139
G01 X191.9636Y9.9103
G01 X191.8619Y9.8740
G01 X191.8506Y9.8693
G01 X191.7530Y9.8231
G01 X191.7422Y9.8173
G01 X191.6402Y9.7556
G01 X191.5527Y9.6907
G01 X191.5432Y9.6829
G01 X191.4632Y9.6104
G01 X191.4546Y9.6018
G01 X191.3821Y9.5218
G01 X191.3743Y9.5123
G01 X191.3100Y9.4256
G01 X191.3032Y9.4154
G01 X191.2477Y9.3228
G01 X191.2419Y9.3120
G01 X191.1957Y9.2144
G01 X191.1910Y9.2031
G01 X191.1547Y9.1014
G01 X191.1511Y9.0897
G01 X191.1227Y8.9745
G01 X191.1066Y8.8662
G01 X191.1057Y8.8539
G00 Z3.0000
G00 X191.0438Y8.7400
G01 Z-0.1500
G01 X191.0684Y8.4901
G01 X191.1414Y8.2497
G01 X191.2597Y8.0282
G01 X191.4191Y7.8341
G01 X191.6132Y7.6747
G01 X191.8347Y7.5564
G01 X192.0751Y7.4834
G01 X192.2624Y7.4650
G01 X193.6576Y7.4650
G01 X193.8449Y7.4834
G01 X194.0853Y7.5564
G01 X194.3068Y7.6747
G01 X194.5009Y7.8341
G01 X194.6603Y8.0282
G01 X194.7786Y8.2497
G01 X194.8516Y8.4901
G01 X194.8762Y8.7400
G01 X194.8516Y8.9899
G01 X194.7786Y9.2303
G01 X194.6603Y9.4518
G01 X194.5009Y9.6459
G01 X194.3068Y9.8053
G01 X194.0853Y9.9236
G01 X193.8449Y9.9966
G01 X193.6576Y10.0150
G01 X192.2624Y10.0150
G01 X192.0751Y9.9966
G01 X191.8347Y9.9236
G01 X191.6132Y9.8053
G01 X191.4191Y9.6459
G01 X191.2597Y9.4518
G01 X191.1414Y9.2303
G01 X191.0684Y8.9899
G01 X191.0438Y8.7400
G00 Z3.0000
G00 X191.1057Y3.7739
G01 Z-0.1500
G01 X191.1002Y3.6661
G01 X191.1002Y3.6539
G01 X191.1054Y3.5460
G01 X191.1066Y3.5338
G01 X191.1227Y3.4255
G01 X191.1511Y3.3103
G01 X191.1547Y3.2986
G01 X191.1910Y3.1969
G01 X191.1957Y3.1856
G01 X191.2419Y3.0880
G01 X191.2477Y3.0772
G01 X191.3094Y2.9752
G01 X191.3743Y2.8877
G01 X191.3821Y2.8782
G01 X191.4546Y2.7982
G01 X191.4632Y2.7896
G01 X191.5432Y2.7171
G01 X191.5527Y2.7093
G01 X191.6394Y2.6450
G01 X191.6496Y2.6382
G01 X191.7422Y2.5827
G01 X191.7530Y2.5769
G01 X191.8506Y2.5307
G01 X191.8619Y2.5260
G01 X191.9636Y2.4897
G01 X191.9753Y2.4861
G01 X192.0905Y2.4577
G01 X192.1988Y2.4416
G01 X192.2110Y2.4404
G01 X192.3189Y2.4352
G01 X193.5950Y2.4350
G01 X193.7090Y2.4404
G01 X193.7212Y2.4416
G01 X193.8279Y2.4575
G01 X193.8400Y2.4599
G01 X193.9447Y2.4861
G01 X193.9564Y2.4897
G01 X194.0581Y2.5260
G01 X194.0694Y2.5307
G01 X194.1670Y2.5769
G01 X194.1778Y2.5827
G01 X194.2798Y2.6444
G01 X194.3673Y2.7093
G01 X194.3768Y2.7171
G01 X194.4568Y2.7896
G01 X194.4654Y2.7982
G01 X194.5379Y2.8782
G01 X194.5457Y2.8877
G01 X194.6100Y2.9744
G01 X194.6168Y2.9846
G01 X194.6723Y3.0772
G01 X194.6781Y3.0880
G01 X194.7243Y3.1856
G01 X194.7290Y3.1969
G01 X194.7653Y3.2986
G01 X194.7689Y3.3103
G01 X194.7951Y3.4150
G01 X194.7975Y3.4271
G01 X194.8134Y3.5338
G01 X194.8146Y3.5460
G01 X194.8198Y3.6539
G01 X194.8198Y3.6661
G01 X194.8146Y3.7740
G01 X194.8134Y3.7862
G01 X194.7975Y3.8929
G01 X194.7951Y3.9050
G01 X194.7689Y4.0097
G01 X194.7653Y4.0214
G01 X194.7290Y4.1231
G01 X194.7243Y4.1344
G01 X194.6781Y4.2320
G01 X194.6723Y4.2428
G01 X194.6168Y4.3354
G01 X194.6106Y4.3448
G01 X194.5457Y4.4323
G01 X194.5379Y4.4418
G01 X194.4654Y4.5218
G01 X194.4568Y4.5304
G01 X194.3768Y4.6029
G01 X194.3673Y4.6107
G01 X194.2806Y4.6750
G01 X194.2704Y4.6818
G01 X194.1778Y4.7373
G01 X194.1670Y4.7431
G01 X194.0694Y4.7893
G01 X194.0581Y4.7940
G01 X193.9564Y4.8303
G01 X193.9447Y4.8339
G01 X193.8295Y4.8623
G01 X193.7212Y4.8784
G01 X193.7090Y4.8796
G01 X193.6011Y4.8848
G01 X192.3250Y4.8850
G01 X192.2110Y4.8796
G01 X192.1988Y4.8784
G01 X192.0921Y4.8625
G01 X192.0800Y4.8601
G01 X191.9753Y4.8339
G01 X191.9636Y4.8303
G01 X191.8619Y4.7940
G01 X191.8506Y4.7893
G01 X191.7530Y4.7431
G01 X191.7422Y4.7373
G01 X191.6402Y4.6756
G01 X191.5527Y4.6107
G01 X191.5432Y4.6029
G01 X191.4632Y4.5304
G01 X191.4546Y4.5218
G01 X191.3821Y4.4418
G01 X191.3743Y4.4323
G01 X191.3100Y4.3456
G01 X191.3032Y4.3354
G01 X191.2477Y4.2428
G01 X191.2419Y4.2320
G01 X191.1957Y4.1344
G01 X191.1910Y4.1231
G01 X191.1547Y4.0214
G01 X191.1511Y4.0097
G01 X191.1227Y3.8945
G01 X191.1066Y3.7862
G01 X191.1057Y3.7739
G00 Z3.0000
G00 X191.0438Y3.6600
G01 Z-0.1500
G01 X191.0684Y3.4101
G01 X191.1414Y3.1697
G01 X191.2597Y2.9482
G01 X191.4191Y2.7541
G01 X191.6132Y2.5947
G01 X191.8347Y2.4764
G01 X192.0751Y2.4034
G01 X192.2624Y2.3850
G01 X193.6576Y2.3850
G01 X193.8449Y2.4034
G01 X194.0853Y2.4764
G01 X194.3068Y2.5947
G01 X194.5009Y2.7541
G01 X194.6603Y2.9482
G01 X194.7786Y3.1697
G01 X194.8516Y3.4101
G01 X194.8762Y3.6600
G01 X194.8516Y3.9099
G01 X194.7786Y4.1503
G01 X194.6603Y4.3718
G01 X194.5009Y4.5659
G01 X194.3068Y4.7253
G01 X194.0853Y4.8436
G01 X193.8449Y4.9166
G01 X193.6576Y4.9350
G01 X192.2624Y4.9350
G01 X192.0751Y4.9166
G01 X191.8347Y4.8436
G01 X191.6132Y4.7253
G01 X191.4191Y4.5659
G01 X191.2597Y4.3718
G01 X191.1414Y4.1503
G01 X191.0684Y3.9099
G01 X191.0438Y3.6600
G00 Z3.0000
G00 X195.2000Y-0.1000
G01 Z-0.1500
G01 X197.1000Y-0.1000
G01 X197.1000Y2.2000
G00 Z3.0000
G00 X191.5786Y16.8828
G01 Z-0.1500
G01 X191.6208Y16.9250
G01 X191.5611Y16.9250
G01 X191.5669Y16.9136
G01 X191.5753Y16.8932
G01 X191.5786Y16.8828
G00 Z3.0000
G00 X197.1000Y23.1000
G01 Z-0.1500
G01 X197.1000Y25.1000
G01 X195.1000Y25.1000
G00 Z3.0000
G00 X99.8966Y20.2370
G01 Z-0.1500
G01 X99.9093Y20.2318
G01 X99.9226Y20.2280
G01 X99.9362Y20.2258
G01 X99.9500Y20.2250
G01 X102.9500Y20.2250
G01 X102.9638Y20.2258
G01 X102.9774Y20.2280
G01 X102.9907Y20.2318
G01 X103.0034Y20.2370
G01 X103.0143Y20.2428
G01 X103.0245Y20.2496
G01 X103.0339Y20.2574
G01 X103.0426Y20.2661
G01 X103.0504Y20.2755
G01 X103.0572Y20.2857
G01 X103.0630Y20.2966
G01 X103.0682Y20.3093
G01 X103.0720Y20.3226
G01 X103.0742Y20.3362
G01 X103.0750Y20.3500
G01 X103.0750Y20.4150
G01 X103.2811Y20.4150
G01 X109.5280Y14.1681
G01 X109.5688Y14.1309
G01 X109.6177Y14.0939
G01 X109.6700Y14.0618
G01 X109.7252Y14.0351
G01 X109.7827Y14.0138
G01 X109.7945Y14.0103
G01 X109.8526Y13.9962
G01 X109.9148Y13.9876
G01 X109.9700Y13.9850
G01 X114.1730Y13.9850
G01 X114.2333Y13.9879
G01 X114.2950Y13.9970
G01 X114.3543Y14.0119
G01 X114.4065Y14.0304
G01 X114.4178Y14.0351
G01 X114.4662Y14.0581
G01 X114.5202Y14.0903
G01 X114.5697Y14.1270
G01 X114.6150Y14.1681
G01 X118.2219Y17.7750
G01 X123.4181Y17.7750
G01 X127.0145Y14.1788
G01 X127.0553Y14.1420
G01 X127.1044Y14.1056
G01 X127.1588Y14.0730
G01 X127.2132Y14.0474
G01 X127.2707Y14.0269
G01 X127.3300Y14.0120
G01 X127.3917Y14.0029
G01 X127.4458Y14.0002
G01 X133.1250Y14.0000
G01 X133.1801Y14.0026
G01 X133.2409Y14.0110
G01 X133.3005Y14.0253
G01 X133.3123Y14.0288
G01 X133.3698Y14.0501
G01 X133.4141Y14.0710
G01 X133.4670Y14.1020
G01 X133.5167Y14.1381
G01 X133.5261Y14.1459
G01 X133.5669Y14.1831
G01 X136.6589Y17.2750
G01 X138.9250Y17.2750
G01 X138.9250Y17.1500
G01 X138.9258Y17.1362
G01 X138.9280Y17.1226
G01 X138.9318Y17.1093
G01 X138.9370Y17.0966
G01 X138.9428Y17.0857
G01 X138.9496Y17.0755
G01 X138.9574Y17.0661
G01 X138.9661Y17.0574
G01 X138.9755Y17.0496
G01 X138.9857Y17.0428
G01 X138.9966Y17.0370
G01 X139.0093Y17.0318
G01 X139.0226Y17.0280
G01 X139.0362Y17.0258
G01 X139.0500Y17.0250
G01 X142.0500Y17.0250
G01 X142.0638Y17.0258
G01 X142.0774Y17.0280
G01 X142.0907Y17.0318
G01 X142.1034Y17.0370
G01 X142.1143Y17.0428
G01 X142.1245Y17.0496
G01 X142.1339Y17.0574
G01 X142.1426Y17.0661
G01 X142.1504Y17.0755
G01 X142.1572Y17.0857
G01 X142.1630Y17.0966
G01 X142.1682Y17.1093
G01 X142.1720Y17.1226
G01 X142.1742Y17.1362
G01 X142.1750Y17.1500
G01 X142.1745Y18.6610
G01 X142.1706Y18.6828
G01 X142.1630Y18.7035
G01 X142.1572Y18.7143
G01 X142.1504Y18.7245
G01 X142.1426Y18.7339
G01 X142.1339Y18.7426
G01 X142.1245Y18.7504
G01 X142.1143Y18.7572
G01 X142.1034Y18.7630
G01 X142.0827Y18.7706
G01 X142.0610Y18.7745
G01 X142.0500Y18.7750
G01 X139.0500Y18.7750
G01 X139.0390Y18.7745
G01 X139.0173Y18.7706
G01 X138.9966Y18.7630
G01 X138.9857Y18.7572
G01 X138.9755Y18.7504
G01 X138.9661Y18.7426
G01 X138.9574Y18.7339
G01 X138.9496Y18.7245
G01 X138.9428Y18.7143
G01 X138.9370Y18.7035
G01 X138.9294Y18.6828
G01 X138.9255Y18.6610
G01 X138.9250Y18.5250
G01 X136.4000Y18.5250
G01 X136.3449Y18.5224
G01 X136.3327Y18.5212
G01 X136.2841Y18.5140
G01 X136.2245Y18.4997
G01 X136.1665Y18.4796
G01 X136.1109Y18.4540
G01 X136.1000Y18.4482
G01 X136.0486Y18.4167
G01 X136.0083Y18.3869
G01 X135.9625Y18.3462
G01 X132.8661Y15.2500
G01 X127.7109Y15.2500
G01 X124.1189Y18.8420
G01 X124.0736Y18.8830
G01 X124.0245Y18.9195
G01 X123.9702Y18.9520
G01 X123.9157Y18.9776
G01 X123.8582Y18.9982
G01 X123.7990Y19.0130
G01 X123.7373Y19.0221
G01 X123.6770Y19.0250
G01 X117.9630Y19.0250
G01 X117.9079Y19.0225
G01 X117.8957Y19.0213
G01 X117.8410Y19.0130
G01 X117.7875Y18.9997
G01 X117.7758Y18.9962
G01 X117.7183Y18.9750
G01 X117.6698Y18.9520
G01 X117.6159Y18.9198
G01 X117.5664Y18.8830
G01 X117.5255Y18.8462
G01 X113.9141Y15.2350
G01 X110.2289Y15.2350
G01 X103.9819Y21.4819
G01 X103.9411Y21.5191
G01 X103.8922Y21.5561
G01 X103.8400Y21.5882
G01 X103.8291Y21.5940
G01 X103.7735Y21.6196
G01 X103.7155Y21.6397
G01 X103.6574Y21.6538
G01 X103.5951Y21.6624
G01 X103.5400Y21.6650
G01 X103.0750Y21.6650
G01 X103.0750Y21.8500
G01 X103.0742Y21.8638
G01 X103.0720Y21.8774
G01 X103.0682Y21.8907
G01 X103.0630Y21.9034
G01 X103.0572Y21.9143
G01 X103.0504Y21.9245
G01 X103.0426Y21.9339
G01 X103.0339Y21.9426
G01 X103.0245Y21.9504
G01 X103.0143Y21.9572
G01 X103.0034Y21.9630
G01 X102.9907Y21.9682
G01 X102.9774Y21.9720
G01 X102.9638Y21.9742
G01 X102.9500Y21.9750
G01 X99.9500Y21.9750
G01 X99.9362Y21.9742
G01 X99.9226Y21.9720
G01 X99.9093Y21.9682
G01 X99.8966Y21.9630
G01 X99.8857Y21.9572
G01 X99.8755Y21.9504
G01 X99.8661Y21.9426
G01 X99.8574Y21.9339
G01 X99.8496Y21.9245
G01 X99.8428Y21.9143
G01 X99.8370Y21.9034
G01 X99.8318Y21.8907
G01 X99.8280Y21.8774
G01 X99.8258Y21.8638
G01 X99.8250Y21.8500
G01 X99.8250Y20.3500
G01 X99.8258Y20.3362
G01 X99.8280Y20.3226
G01 X99.8318Y20.3093
G01 X99.8370Y20.2966
G01 X99.8428Y20.2857
G01 X99.8496Y20.2755
G01 X99.8574Y20.2661
G01 X99.8661Y20.2574
G01 X99.8755Y20.2496
G01 X99.8857Y20.2428
G01 X99.8966Y20.2370
G00 Z3.0000
G00 X92.5557Y14.0500
G01 Z-0.1500
G01 X92.6224Y14.0500
G01 X92.6175Y14.0597
G01 X92.6090Y14.0801
G01 X92.6054Y14.0918
G01 X92.5833Y14.0718
G01 X92.5557Y14.0500
G00 Z3.0000
G00 X101.1057Y3.7739
G01 Z-0.1500
G01 X101.1002Y3.6661
G01 X101.1002Y3.6539
G01 X101.1054Y3.5460
G01 X101.1066Y3.5338
G01 X101.1225Y3.4271
G01 X101.1249Y3.4150
G01 X101.1511Y3.3103
G01 X101.1547Y3.2986
G01 X101.1910Y3.1969
G01 X101.1957Y3.1856
G01 X101.2419Y3.0880
G01 X101.2477Y3.0772
G01 X101.3032Y2.9846
G01 X101.3094Y2.9752
G01 X101.3743Y2.8877
G01 X101.3821Y2.8782
G01 X101.4546Y2.7982
G01 X101.4632Y2.7896
G01 X101.5432Y2.7171
G01 X101.5527Y2.7093
G01 X101.6394Y2.6450
G01 X101.6496Y2.6382
G01 X101.7422Y2.5827
G01 X101.7530Y2.5769
G01 X101.8506Y2.5307
G01 X101.8619Y2.5260
G01 X101.9636Y2.4897
G01 X101.9753Y2.4861
G01 X102.0800Y2.4599
G01 X102.0921Y2.4575
G01 X102.1988Y2.4416
G01 X102.2110Y2.4404
G01 X102.3250Y2.4350
G01 X103.5950Y2.4350
G01 X103.7090Y2.4404
G01 X103.7212Y2.4416
G01 X103.8279Y2.4575
G01 X103.8400Y2.4599
G01 X103.9447Y2.4861
G01 X103.9564Y2.4897
G01 X104.0581Y2.5260
G01 X104.0694Y2.5307
G01 X104.1670Y2.5769
G01 X104.1778Y2.5827
G01 X104.2798Y2.6444
G01 X104.3673Y2.7093
G01 X104.3768Y2.7171
G01 X104.4568Y2.7896
G01 X104.4654Y2.7982
G01 X104.5379Y2.8782
G01 X104.5457Y2.8877
G01 X104.6100Y2.9744
G01 X104.6168Y2.9846
G01 X104.6723Y3.0772
G01 X104.6781Y3.0880
G01 X104.7243Y3.1856
G01 X104.7290Y3.1969
G01 X104.7653Y3.2986
G01 X104.7689Y3.3103
G01 X104.7951Y3.4150
G01 X104.7975Y3.4271
G01 X104.8134Y3.5338
G01 X104.8146Y3.5460
G01 X104.8198Y3.6539
G01 X104.8198Y3.6661
G01 X104.8146Y3.7740
G01 X104.8134Y3.7862
G01 X104.7975Y3.8929
G01 X104.7951Y3.9050
G01 X104.7689Y4.0097
G01 X104.7653Y4.0214
G01 X104.7290Y4.1231
G01 X104.7243Y4.1344
G01 X104.6781Y4.2320
G01 X104.6723Y4.2428
G01 X104.6168Y4.3354
G01 X104.6100Y4.3456
G01 X107.7394Y7.4750
G01 X115.5242Y7.4750
G01 X115.8188Y7.1803
G01 X115.8418Y7.1331
G01 X115.8733Y7.0816
G01 X115.9109Y7.0319
G01 X115.9481Y6.9911
G01 X117.6855Y5.2538
G01 X117.7314Y5.2131
G01 X117.7810Y5.1770
G01 X117.8339Y5.1460
G01 X117.8896Y5.1203
G01 X117.9475Y5.1003
G01 X118.0056Y5.0862
G01 X118.0679Y5.0775
G01 X118.1230Y5.0750
G01 X123.7770Y5.0750
G01 X123.8321Y5.0775
G01 X123.8443Y5.0787
G01 X123.8928Y5.0859
G01 X123.9525Y5.1003
G01 X124.0104Y5.1203
G01 X124.0661Y5.1460
G01 X124.0769Y5.1518
G01 X124.1284Y5.1832
G01 X124.1686Y5.2131
G01 X124.1781Y5.2209
G01 X124.2189Y5.2580
G01 X126.4358Y7.4750
G01 X134.2606Y7.4750
G01 X137.3900Y4.3456
G01 X137.3832Y4.3354
G01 X137.3277Y4.2428
G01 X137.3219Y4.2320
G01 X137.2757Y4.1344
G01 X137.2710Y4.1231
G01 X137.2347Y4.0214
G01 X137.2234Y3.9787
G01 X137.2002Y3.9465
G01 X137.1742Y3.9020
G01 X137.1574Y3.8665
G01 X137.1395Y3.8182
G01 X137.1360Y3.8065
G01 X137.1243Y3.7579
G01 X137.1171Y3.7053
G01 X137.1152Y3.6539
G01 X137.1171Y3.6147
G01 X137.1183Y3.6025
G01 X137.1264Y3.5516
G01 X137.1395Y3.5018
G01 X137.1574Y3.4535
G01 X137.1800Y3.4072
G01 X137.2002Y3.3735
G01 X137.2234Y3.3413
G01 X137.2347Y3.2986
G01 X137.2710Y3.1969
G01 X137.2757Y3.1856
G01 X137.3219Y3.0880
G01 X137.3277Y3.0772
G01 X137.3894Y2.9752
G01 X137.4543Y2.8877
G01 X137.4621Y2.8782
G01 X137.5346Y2.7982
G01 X137.5432Y2.7896
G01 X137.6232Y2.7171
G01 X137.6327Y2.7093
G01 X137.7194Y2.6450
G01 X137.7296Y2.6382
G01 X137.8222Y2.5827
G01 X137.8330Y2.5769
G01 X137.9306Y2.5307
G01 X137.9419Y2.5260
G01 X138.0436Y2.4897
G01 X138.0553Y2.4861
G01 X138.1705Y2.4577
G01 X138.2788Y2.4416
G01 X138.2910Y2.4404
G01 X138.3989Y2.4352
G01 X139.6811Y2.4352
G01 X139.7890Y2.4404
G01 X139.8012Y2.4416
G01 X139.9079Y2.4575
G01 X139.9200Y2.4599
G01 X140.0247Y2.4861
G01 X140.0364Y2.4897
G01 X140.1381Y2.5260
G01 X140.1494Y2.5307
G01 X140.2470Y2.5769
G01 X140.2578Y2.5827
G01 X140.3598Y2.6444
G01 X140.4473Y2.7093
G01 X140.4568Y2.7171
G01 X140.5368Y2.7896
G01 X140.5454Y2.7982
G01 X140.6179Y2.8782
G01 X140.6257Y2.8877
G01 X140.6900Y2.9744
G01 X140.6968Y2.9846
G01 X140.7523Y3.0772
G01 X140.7581Y3.0880
G01 X140.8043Y3.1856
G01 X140.8090Y3.1969
G01 X140.8453Y3.2986
G01 X140.8489Y3.3103
G01 X140.8773Y3.4255
G01 X140.8934Y3.5338
G01 X140.8946Y3.5460
G01 X140.8998Y3.6539
G01 X140.8998Y3.6661
G01 X140.8946Y3.7740
G01 X140.8934Y3.7862
G01 X140.8775Y3.8929
G01 X140.8751Y3.9050
G01 X140.8489Y4.0097
G01 X140.8453Y4.0214
G01 X140.8090Y4.1231
G01 X140.8043Y4.1344
G01 X140.7581Y4.2320
G01 X140.7523Y4.2428
G01 X140.6968Y4.3354
G01 X140.6906Y4.3448
G01 X140.6257Y4.4323
G01 X140.6179Y4.4418
G01 X140.5454Y4.5218
G01 X140.5368Y4.5304
G01 X140.4568Y4.6029
G01 X140.4473Y4.6107
G01 X140.3606Y4.6750
G01 X140.3504Y4.6818
G01 X140.2578Y4.7373
G01 X140.2470Y4.7431
G01 X140.1494Y4.7893
G01 X140.1381Y4.7940
G01 X140.0364Y4.8303
G01 X140.0247Y4.8339
G01 X139.9200Y4.8601
G01 X139.9079Y4.8625
G01 X139.8012Y4.8784
G01 X139.7890Y4.8796
G01 X139.6750Y4.8850
G01 X138.6184Y4.8850
G01 X134.9570Y8.5462
G01 X134.9112Y8.5869
G01 X134.8616Y8.6229
G01 X134.8087Y8.6539
G01 X134.7530Y8.6796
G01 X134.6950Y8.6997
G01 X134.6369Y8.7138
G01 X134.5747Y8.7224
G01 X134.5195Y8.7250
G01 X126.1770Y8.7250
G01 X126.1218Y8.7224
G01 X126.1096Y8.7212
G01 X126.0490Y8.7116
G01 X126.0014Y8.6997
G01 X125.9435Y8.6796
G01 X125.8878Y8.6539
G01 X125.8770Y8.6482
G01 X125.8247Y8.6161
G01 X125.7853Y8.5869
G01 X125.7395Y8.5462
G01 X123.5181Y6.3250
G01 X118.3819Y6.3250
G01 X116.9612Y7.7457
G01 X116.9382Y7.7930
G01 X116.9067Y7.8444
G01 X116.8769Y7.8847
G01 X116.8362Y7.9305
G01 X116.2250Y8.5419
G01 X116.1842Y8.5791
G01 X116.1353Y8.6161
G01 X116.0830Y8.6482
G01 X116.0722Y8.6539
G01 X116.0278Y8.6749
G01 X115.9703Y8.6961
G01 X115.9586Y8.6997
G01 X115.8989Y8.7140
G01 X115.8382Y8.7224
G01 X115.7830Y8.7250
G01 X107.4805Y8.7250
G01 X107.4253Y8.7224
G01 X107.4131Y8.7212
G01 X107.3646Y8.7140
G01 X107.3050Y8.6997
G01 X107.2470Y8.6796
G01 X107.1913Y8.6539
G01 X107.1805Y8.6482
G01 X107.1291Y8.6167
G01 X107.0888Y8.5869
G01 X107.0430Y8.5462
G01 X103.3816Y4.8850
G01 X102.3250Y4.8850
G01 X102.2110Y4.8796
G01 X102.1988Y4.8784
G01 X102.0921Y4.8625
G01 X102.0800Y4.8601
G01 X101.9753Y4.8339
G01 X101.9636Y4.8303
G01 X101.8619Y4.7940
G01 X101.8506Y4.7893
G01 X101.7530Y4.7431
G01 X101.7422Y4.7373
G01 X101.6402Y4.6756
G01 X101.5527Y4.6107
G01 X101.5432Y4.6029
G01 X101.4632Y4.5304
G01 X101.4546Y4.5218
G01 X101.3821Y4.4418
G01 X101.3743Y4.4323
G01 X101.3100Y4.3456
G01 X101.3032Y4.3354
G01 X101.2477Y4.2428
G01 X101.2419Y4.2320
G01 X101.1957Y4.1344
G01 X101.1910Y4.1231
G01 X101.1547Y4.0214
G01 X101.1511Y4.0097
G01 X101.1228Y3.8950
G01 X101.1066Y3.7862
G01 X101.1057Y3.7739
G00 Z3.0000
G00 X28.8500Y21.6231
G01 Z-0.1500
G01 X28.8445Y21.6049
G01 X28.8081Y21.5032
G01 X28.7997Y21.4828
G01 X28.7535Y21.3853
G01 X28.7431Y21.3658
G01 X28.6876Y21.2732
G01 X28.6753Y21.2548
G01 X28.6110Y21.1681
G01 X28.5970Y21.1511
G01 X28.5245Y21.0711
G01 X28.5089Y21.0555
G01 X28.4289Y20.9830
G01 X28.4119Y20.9690
G01 X28.3526Y20.9250
G01 X28.4411Y20.9250
G01 X28.9320Y21.4159
G01 X28.9003Y21.4828
G01 X28.8919Y21.5032
G01 X28.8555Y21.6049
G01 X28.8500Y21.6231
G00 Z3.0000
G00 X26.3100Y21.1566
G01 Z-0.1500
G01 X26.2960Y21.1357
G01 X26.2317Y21.0490
G01 X26.2052Y21.0168
G01 X26.1327Y20.9368
G01 X26.1032Y20.9073
G01 X26.0232Y20.8348
G01 X26.0227Y20.8354
G01 X25.9910Y20.8083
G01 X25.9015Y20.7419
G01 X25.8600Y20.7151
G01 X25.8756Y20.7200
G01 X25.9137Y20.7296
G01 X25.9606Y20.7386
G01 X26.3384Y21.1164
G01 X26.3219Y21.1385
G01 X26.3100Y21.1566
G00 Z3.0000
G00 X26.3100Y22.3769
G01 Z-0.1500
G01 X26.3155Y22.3951
G01 X26.3298Y22.4351
G01 X26.2990Y22.4345
G01 X26.2900Y22.4354
G01 X26.3045Y22.3951
G01 X26.3100Y22.3769
G00 Z3.0000
G00 X25.3001Y20.3971
G01 Z-0.1500
G01 X25.2249Y20.3860
G01 X25.1736Y20.3809
G01 X25.0658Y20.3756
G01 X25.0152Y20.3756
G01 X24.5452Y19.9056
G01 X24.5813Y19.9170
G01 X24.6194Y19.9266
G01 X24.6699Y19.9366
G01 X24.7088Y19.9424
G01 X24.7600Y19.9474
G01 X24.7992Y19.9494
G01 X24.8508Y19.9494
G01 X24.8900Y19.9474
G01 X24.8899Y19.9466
G01 X24.9412Y19.9424
G01 X24.9886Y19.9353
G01 X25.0306Y19.9266
G01 X25.0687Y19.9170
G01 X25.1180Y19.9021
G01 X25.1549Y19.8889
G01 X25.1700Y19.8826
G01 X25.1706Y19.9508
G01 X25.1726Y19.9900
G01 X25.1734Y19.9899
G01 X25.1776Y20.0412
G01 X25.1847Y20.0886
G01 X25.1934Y20.1306
G01 X25.2030Y20.1687
G01 X25.2179Y20.2180
G01 X25.2311Y20.2549
G01 X25.2509Y20.3025
G01 X25.2676Y20.3380
G01 X25.2919Y20.3835
G01 X25.3001Y20.3971
G00 Z3.0000
G00 X25.0756Y20.0184
G01 Z-0.1500
G01 X25.0787Y20.0559
G01 X25.0845Y20.0947
G01 X25.0964Y20.1549
G01 X25.1060Y20.1930
G01 X25.1238Y20.2517
G01 X25.1335Y20.2788
G01 X25.0707Y20.2758
G01 X25.0567Y20.2758
G01 X24.8302Y20.0492
G01 X24.8557Y20.0492
G01 X24.8949Y20.0473
G01 X24.8948Y20.0463
G01 X24.9559Y20.0413
G01 X25.0049Y20.0340
G01 X25.0549Y20.0236
G01 X25.0756Y20.0184
G00 Z3.0000
G00 X25.5700Y19.9250
G01 Z-0.1500
G01 X25.5700Y17.8950
G01 X25.5721Y17.8497
G01 X25.5733Y17.8375
G01 X25.5790Y17.7986
G01 X25.5910Y17.7485
G01 X25.6078Y17.6998
G01 X25.6292Y17.6530
G01 X25.6552Y17.6085
G01 X25.6854Y17.5668
G01 X25.7195Y17.5282
G01 X25.7573Y17.4932
G01 X25.7983Y17.4620
G01 X25.8422Y17.4350
G01 X25.8885Y17.4124
G01 X25.9368Y17.3945
G01 X25.9866Y17.3814
G01 X26.0375Y17.3733
G01 X26.0889Y17.3702
G01 X26.1403Y17.3721
G01 X26.1914Y17.3790
G01 X26.2415Y17.3910
G01 X26.2902Y17.4078
G01 X26.3015Y17.4124
G01 X26.3478Y17.4350
G01 X26.3909Y17.4614
G01 X26.4232Y17.4854
G01 X26.4327Y17.4932
G01 X26.4705Y17.5282
G01 X26.5046Y17.5668
G01 X26.5280Y17.5983
G01 X26.5550Y17.6422
G01 X26.5608Y17.6530
G01 X26.5776Y17.6885
G01 X26.5955Y17.7368
G01 X26.5990Y17.7485
G01 X26.6106Y17.7966
G01 X26.6179Y17.8497
G01 X26.6200Y17.8950
G01 X26.6200Y19.4888
G01 X27.9512Y20.8201
G01 X27.9691Y20.8396
G01 X28.0431Y20.8660
G01 X28.0544Y20.8707
G01 X28.1520Y20.9169
G01 X28.1628Y20.9227
G01 X28.2554Y20.9782
G01 X28.2648Y20.9844
G01 X28.3523Y21.0493
G01 X28.3618Y21.0571
G01 X28.4418Y21.1296
G01 X28.4504Y21.1382
G01 X28.5229Y21.2182
G01 X28.5307Y21.2277
G01 X28.5950Y21.3144
G01 X28.6018Y21.3246
G01 X28.6573Y21.4172
G01 X28.6631Y21.4280
G01 X28.7093Y21.5256
G01 X28.7140Y21.5369
G01 X28.7503Y21.6386
G01 X28.7539Y21.6503
G01 X28.7801Y21.7550
G01 X28.7825Y21.7671
G01 X28.7984Y21.8738
G01 X28.7996Y21.8860
G01 X28.8048Y21.9939
G01 X28.8048Y22.0061
G01 X28.7996Y22.1140
G01 X28.7984Y22.1262
G01 X28.7825Y22.2329
G01 X28.7801Y22.2450
G01 X28.7539Y22.3497
G01 X28.7503Y22.3614
G01 X28.7140Y22.4631
G01 X28.7093Y22.4744
G01 X28.6631Y22.5720
G01 X28.6573Y22.5828
G01 X28.5956Y22.6848
G01 X28.5307Y22.7723
G01 X28.5229Y22.7818
G01 X28.4504Y22.8618
G01 X28.4418Y22.8704
G01 X28.3618Y22.9429
G01 X28.3523Y22.9507
G01 X28.2656Y23.0150
G01 X28.2554Y23.0218
G01 X28.1628Y23.0773
G01 X28.1520Y23.0831
G01 X28.0544Y23.1293
G01 X28.0431Y23.1340
G01 X27.9414Y23.1703
G01 X27.9297Y23.1739
G01 X27.8150Y23.2022
G01 X27.7062Y23.2184
G01 X27.6940Y23.2196
G01 X27.5861Y23.2248
G01 X27.5739Y23.2248
G01 X27.4660Y23.2196
G01 X27.4538Y23.2184
G01 X27.3471Y23.2025
G01 X27.3350Y23.2001
G01 X27.2303Y23.1739
G01 X27.2186Y23.1703
G01 X27.1169Y23.1340
G01 X27.1056Y23.1293
G01 X27.0080Y23.0831
G01 X26.9972Y23.0773
G01 X26.8952Y23.0156
G01 X26.8077Y22.9507
G01 X26.7982Y22.9429
G01 X26.7182Y22.8704
G01 X26.7096Y22.8618
G01 X26.6371Y22.7818
G01 X26.6293Y22.7723
G01 X26.5650Y22.6856
G01 X26.5582Y22.6754
G01 X26.5027Y22.5828
G01 X26.4969Y22.5720
G01 X26.4507Y22.4744
G01 X26.4460Y22.4631
G01 X26.4097Y22.3614
G01 X26.4061Y22.3497
G01 X26.3778Y22.2350
G01 X26.3616Y22.1262
G01 X26.3604Y22.1140
G01 X26.3552Y22.0061
G01 X26.3552Y21.9939
G01 X26.3604Y21.8860
G01 X26.3616Y21.8738
G01 X26.3775Y21.7671
G01 X26.3799Y21.7550
G01 X26.4061Y21.6503
G01 X26.4097Y21.6386
G01 X26.4460Y21.5369
G01 X26.4507Y21.5256
G01 X26.4969Y21.4280
G01 X26.5027Y21.4172
G01 X26.5644Y21.3152
G01 X26.6293Y21.2277
G01 X26.6371Y21.2182
G01 X26.7096Y21.1382
G01 X26.7484Y21.1022
G01 X26.0961Y20.4498
G01 X26.0497Y20.4479
G01 X25.9986Y20.4410
G01 X25.9485Y20.4290
G01 X25.8998Y20.4122
G01 X25.8530Y20.3908
G01 X25.8085Y20.3648
G01 X25.7668Y20.3346
G01 X25.7282Y20.3005
G01 X25.6932Y20.2627
G01 X25.6620Y20.2217
G01 X25.6350Y20.1778
G01 X25.6124Y20.1315
G01 X25.5945Y20.0832
G01 X25.5910Y20.0715
G01 X25.5794Y20.0234
G01 X25.5721Y19.9703
G01 X25.5700Y19.9250
G00 Z3.0000
G00 X24.0990Y19.6008
G01 Z-0.1500
G01 X24.1129Y19.5857
G01 X24.1415Y19.5513
G01 X24.1644Y19.5183
G01 X24.1744Y19.5319
G01 X24.2009Y19.5642
G01 X24.2273Y19.5933
G01 X24.2567Y19.6227
G01 X24.2858Y19.6491
G01 X24.2864Y19.6485
G01 X24.3181Y19.6756
G01 X24.3524Y19.7010
G01 X24.3843Y19.7221
G01 X24.4179Y19.7423
G01 X24.4547Y19.7620
G01 X24.4902Y19.7787
G01 X24.5287Y19.7947
G01 X24.5657Y19.8079
G01 X24.5659Y19.8075
G01 X24.6056Y19.8200
G01 X24.6437Y19.8296
G01 X24.6846Y19.8377
G01 X24.7234Y19.8435
G01 X24.7649Y19.8476
G01 X24.8041Y19.8495
G01 X24.8459Y19.8495
G01 X24.8851Y19.8476
G01 X24.8850Y19.8469
G01 X24.9266Y19.8435
G01 X24.9723Y19.8366
G01 X25.0063Y19.8296
G01 X25.0444Y19.8200
G01 X25.0843Y19.8079
G01 X25.1213Y19.7947
G01 X25.1598Y19.7787
G01 X25.1953Y19.7620
G01 X25.2321Y19.7423
G01 X25.2700Y19.7193
G01 X25.2700Y19.9250
G01 X25.2724Y19.9851
G01 X25.2731Y19.9850
G01 X25.2765Y20.0266
G01 X25.2834Y20.0723
G01 X25.2904Y20.1063
G01 X25.3000Y20.1444
G01 X25.3121Y20.1843
G01 X25.3253Y20.2213
G01 X25.3413Y20.2598
G01 X25.3580Y20.2953
G01 X25.3777Y20.3321
G01 X25.3979Y20.3657
G01 X25.4210Y20.4004
G01 X25.4444Y20.4319
G01 X25.4709Y20.4642
G01 X25.4973Y20.4933
G01 X25.5267Y20.5227
G01 X25.5558Y20.5491
G01 X25.5564Y20.5485
G01 X25.5940Y20.5799
G01 X25.5025Y20.5472
G01 X25.4626Y20.5351
G01 X25.3579Y20.5089
G01 X25.3170Y20.5007
G01 X25.2102Y20.4849
G01 X25.1687Y20.4808
G01 X25.0609Y20.4755
G01 X25.0191Y20.4755
G01 X24.9758Y20.4776
G01 X24.0990Y19.6008
G00 Z3.0000
G00 X23.9526Y19.5959
G01 Z-0.1500
G01 X23.9844Y19.5709
G01 X24.0195Y19.5395
G01 X24.0369Y19.5208
G01 X24.0620Y19.4906
G01 X24.0811Y19.4627
G01 X24.0952Y19.4437
G01 X24.1113Y19.4193
G01 X24.1315Y19.3856
G01 X24.1466Y19.3575
G01 X24.1637Y19.3213
G01 X24.1784Y19.3525
G01 X24.1935Y19.3806
G01 X24.2137Y19.4143
G01 X24.2314Y19.4408
G01 X24.2548Y19.4724
G01 X24.2750Y19.4970
G01 X24.3013Y19.5261
G01 X24.3239Y19.5487
G01 X24.3530Y19.5750
G01 X24.3534Y19.5746
G01 X24.3776Y19.5952
G01 X24.4113Y19.6202
G01 X24.4357Y19.6363
G01 X24.4694Y19.6565
G01 X24.4975Y19.6716
G01 X24.5330Y19.6883
G01 X24.5624Y19.7006
G01 X24.5994Y19.7138
G01 X24.6299Y19.7230
G01 X24.6680Y19.7326
G01 X24.6993Y19.7388
G01 X24.7381Y19.7446
G01 X24.7698Y19.7477
G01 X24.8091Y19.7496
G01 X24.8409Y19.7496
G01 X24.8802Y19.7477
G01 X24.8801Y19.7472
G01 X24.9119Y19.7446
G01 X24.9560Y19.7380
G01 X24.9820Y19.7326
G01 X25.0201Y19.7230
G01 X25.0506Y19.7138
G01 X25.0876Y19.7006
G01 X25.1170Y19.6883
G01 X25.1525Y19.6716
G01 X25.1806Y19.6565
G01 X25.2143Y19.6363
G01 X25.2408Y19.6186
G01 X25.2724Y19.5952
G01 X25.2970Y19.5750
G01 X25.3377Y19.5377
G01 X25.3700Y19.5031
G01 X25.3700Y19.9250
G01 X25.3723Y19.9802
G01 X25.3728Y19.9801
G01 X25.3754Y20.0119
G01 X25.3820Y20.0560
G01 X25.3874Y20.0820
G01 X25.3970Y20.1201
G01 X25.4062Y20.1506
G01 X25.4194Y20.1876
G01 X25.4317Y20.2170
G01 X25.4484Y20.2525
G01 X25.4635Y20.2806
G01 X25.4837Y20.3143
G01 X25.5014Y20.3408
G01 X25.5248Y20.3724
G01 X25.5450Y20.3970
G01 X25.5713Y20.4261
G01 X25.5939Y20.4487
G01 X25.6230Y20.4750
G01 X25.6234Y20.4746
G01 X25.6476Y20.4952
G01 X25.6813Y20.5202
G01 X25.7057Y20.5363
G01 X25.7394Y20.5565
G01 X25.7675Y20.5716
G01 X25.8030Y20.5883
G01 X25.8324Y20.6006
G01 X25.8694Y20.6138
G01 X25.8999Y20.6230
G01 X25.9380Y20.6326
G01 X25.9693Y20.6388
G01 X26.0079Y20.6445
G01 X26.4702Y21.1068
G01 X26.4028Y21.1974
G01 X26.3866Y21.2218
G01 X26.3311Y21.3144
G01 X26.3100Y21.3554
G01 X26.2889Y21.3144
G01 X26.2334Y21.2218
G01 X26.2157Y21.1953
G01 X26.1514Y21.1086
G01 X26.1311Y21.0839
G01 X26.0586Y21.0039
G01 X26.0361Y20.9814
G01 X25.9561Y20.9089
G01 X25.9557Y20.9093
G01 X25.9314Y20.8886
G01 X25.8426Y20.8228
G01 X25.8182Y20.8066
G01 X25.7256Y20.7511
G01 X25.6975Y20.7361
G01 X25.5999Y20.6899
G01 X25.5704Y20.6777
G01 X25.4688Y20.6414
G01 X25.4383Y20.6321
G01 X25.3336Y20.6059
G01 X25.3023Y20.5997
G01 X25.1955Y20.5838
G01 X25.1638Y20.5807
G01 X25.0559Y20.5754
G01 X25.0241Y20.5754
G01 X24.9363Y20.5797
G01 X23.9526Y19.5959
G00 Z3.0000
G00 X23.7850Y19.5859
G01 Z-0.1500
G01 X23.8042Y19.5758
G01 X23.8379Y19.5556
G01 X23.8563Y19.5433
G01 X23.8878Y19.5199
G01 X23.9194Y19.4948
G01 X23.9359Y19.4808
G01 X23.9488Y19.4688
G01 X23.9748Y19.4394
G01 X23.9825Y19.4299
G01 X23.9981Y19.4067
G01 X24.0144Y19.3848
G01 X24.0256Y19.3679
G01 X24.0458Y19.3342
G01 X24.0562Y19.3148
G01 X24.0729Y19.2793
G01 X24.0814Y19.2589
G01 X24.0946Y19.2219
G01 X24.1010Y19.2008
G01 X24.1106Y19.1627
G01 X24.1149Y19.1411
G01 X24.1206Y19.1022
G01 X24.1228Y19.0802
G01 X24.1250Y19.0300
G01 X24.1250Y17.1003
G01 X24.9003Y16.3250
G01 X30.5150Y16.3250
G01 X30.5150Y19.1300
G01 X30.5171Y19.1789
G01 X30.5140Y19.1758
G01 X30.5147Y19.1390
G01 X30.5128Y19.0998
G01 X30.5106Y19.0778
G01 X30.5050Y19.0398
G01 X30.5050Y17.9400
G01 X30.5028Y17.8898
G01 X30.5006Y17.8678
G01 X30.4943Y17.8253
G01 X30.4906Y17.8073
G01 X30.4810Y17.7692
G01 X30.4746Y17.7481
G01 X30.4614Y17.7111
G01 X30.4529Y17.6907
G01 X30.4362Y17.6552
G01 X30.4258Y17.6358
G01 X30.4056Y17.6021
G01 X30.3933Y17.5837
G01 X30.3699Y17.5522
G01 X30.3559Y17.5351
G01 X30.3296Y17.5061
G01 X30.3139Y17.4904
G01 X30.2849Y17.4641
G01 X30.2678Y17.4501
G01 X30.2348Y17.4256
G01 X30.2179Y17.4144
G01 X30.1842Y17.3942
G01 X30.1648Y17.3838
G01 X30.1293Y17.3671
G01 X30.1089Y17.3586
G01 X30.0719Y17.3454
G01 X30.0508Y17.3390
G01 X30.0127Y17.3294
G01 X29.9911Y17.3251
G01 X29.9522Y17.3194
G01 X29.9302Y17.3172
G01 X29.8910Y17.3153
G01 X29.8690Y17.3153
G01 X29.8298Y17.3172
G01 X29.8078Y17.3194
G01 X29.7698Y17.3250
G01 X28.6500Y17.3250
G01 X28.5998Y17.3272
G01 X28.5778Y17.3294
G01 X28.5353Y17.3357
G01 X28.5173Y17.3394
G01 X28.4792Y17.3490
G01 X28.4581Y17.3554
G01 X28.4211Y17.3686
G01 X28.4007Y17.3771
G01 X28.3652Y17.3938
G01 X28.3458Y17.4042
G01 X28.3121Y17.4244
G01 X28.2937Y17.4367
G01 X28.2622Y17.4601
G01 X28.2451Y17.4741
G01 X28.2161Y17.5004
G01 X28.2061Y17.5104
G01 X28.1904Y17.5261
G01 X28.1641Y17.5551
G01 X28.1501Y17.5722
G01 X28.1256Y17.6052
G01 X28.1144Y17.6221
G01 X28.0942Y17.6558
G01 X28.0838Y17.6752
G01 X28.0671Y17.7107
G01 X28.0586Y17.7311
G01 X28.0454Y17.7681
G01 X28.0390Y17.7892
G01 X28.0294Y17.8273
G01 X28.0251Y17.8489
G01 X28.0194Y17.8878
G01 X28.0172Y17.9098
G01 X28.0150Y17.9600
G01 X28.0150Y18.4735
G01 X28.0122Y18.4998
G01 X28.0103Y18.5390
G01 X28.0103Y18.5610
G01 X28.0122Y18.6002
G01 X28.0150Y18.6265
G01 X28.0150Y19.1400
G01 X28.0171Y19.1889
G01 X27.9900Y19.1618
G01 X27.9900Y18.5500
G01 X27.9878Y18.4998
G01 X27.9850Y18.4735
G01 X27.9850Y18.0300
G01 X27.9828Y17.9798
G01 X27.9806Y17.9578
G01 X27.9743Y17.9153
G01 X27.9706Y17.8973
G01 X27.9610Y17.8592
G01 X27.9546Y17.8381
G01 X27.9414Y17.8011
G01 X27.9329Y17.7807
G01 X27.9162Y17.7452
G01 X27.9058Y17.7258
G01 X27.8856Y17.6921
G01 X27.8733Y17.6737
G01 X27.8499Y17.6422
G01 X27.8359Y17.6251
G01 X27.8096Y17.5961
G01 X27.7939Y17.5804
G01 X27.7649Y17.5541
G01 X27.7478Y17.5401
G01 X27.7163Y17.5167
G01 X27.6979Y17.5044
G01 X27.6642Y17.4842
G01 X27.6448Y17.4738
G01 X27.6093Y17.4571
G01 X27.5889Y17.4486
G01 X27.5519Y17.4354
G01 X27.5308Y17.4290
G01 X27.4927Y17.4194
G01 X27.4711Y17.4151
G01 X27.4322Y17.4094
G01 X27.4102Y17.4072
G01 X27.3710Y17.4053
G01 X27.3490Y17.4053
G01 X27.3098Y17.4072
G01 X27.2878Y17.4094
G01 X27.2453Y17.4157
G01 X27.2273Y17.4194
G01 X27.1892Y17.4290
G01 X27.1681Y17.4354
G01 X27.1311Y17.4486
G01 X27.1107Y17.4571
G01 X27.0752Y17.4738
G01 X27.0558Y17.4842
G01 X27.0221Y17.5044
G01 X27.0037Y17.5167
G01 X26.9722Y17.5401
G01 X26.9551Y17.5541
G01 X26.9261Y17.5804
G01 X26.9104Y17.5961
G01 X26.8841Y17.6251
G01 X26.8701Y17.6422
G01 X26.8456Y17.6752
G01 X26.8344Y17.6921
G01 X26.8142Y17.7258
G01 X26.8038Y17.7452
G01 X26.7871Y17.7807
G01 X26.7786Y17.8011
G01 X26.7654Y17.8381
G01 X26.7590Y17.8592
G01 X26.7494Y17.8973
G01 X26.7451Y17.9189
G01 X26.7394Y17.9578
G01 X26.7372Y17.9798
G01 X26.7350Y18.0300
G01 X26.7350Y19.0700
G01 X26.7372Y19.1202
G01 X26.7400Y19.1465
G01 X26.7400Y19.4206
G01 X26.7421Y19.4695
G01 X26.7200Y19.4474
G01 X26.7200Y17.8950
G01 X26.7178Y17.8448
G01 X26.7156Y17.8228
G01 X26.7093Y17.7803
G01 X26.7056Y17.7623
G01 X26.6960Y17.7242
G01 X26.6896Y17.7031
G01 X26.6764Y17.6661
G01 X26.6679Y17.6457
G01 X26.6512Y17.6102
G01 X26.6408Y17.5908
G01 X26.6206Y17.5571
G01 X26.6083Y17.5387
G01 X26.5849Y17.5072
G01 X26.5709Y17.4901
G01 X26.5446Y17.4611
G01 X26.5289Y17.4454
G01 X26.4999Y17.4191
G01 X26.4828Y17.4051
G01 X26.4498Y17.3806
G01 X26.4329Y17.3694
G01 X26.3992Y17.3492
G01 X26.3798Y17.3388
G01 X26.3443Y17.3221
G01 X26.3239Y17.3136
G01 X26.2869Y17.3004
G01 X26.2658Y17.2940
G01 X26.2277Y17.2844
G01 X26.2061Y17.2801
G01 X26.1672Y17.2744
G01 X26.1452Y17.2722
G01 X26.1060Y17.2703
G01 X26.0840Y17.2703
G01 X26.0448Y17.2722
G01 X26.0228Y17.2744
G01 X25.9803Y17.2807
G01 X25.9623Y17.2844
G01 X25.9242Y17.2940
G01 X25.9031Y17.3004
G01 X25.8661Y17.3136
G01 X25.8457Y17.3221
G01 X25.8102Y17.3388
G01 X25.7908Y17.3492
G01 X25.7571Y17.3694
G01 X25.7387Y17.3817
G01 X25.7072Y17.4051
G01 X25.6901Y17.4191
G01 X25.6611Y17.4454
G01 X25.6454Y17.4611
G01 X25.6191Y17.4901
G01 X25.6051Y17.5072
G01 X25.5806Y17.5402
G01 X25.5694Y17.5571
G01 X25.5492Y17.5908
G01 X25.5388Y17.6102
G01 X25.5221Y17.6457
G01 X25.5136Y17.6661
G01 X25.5004Y17.7031
G01 X25.4940Y17.7242
G01 X25.4844Y17.7623
G01 X25.4801Y17.7839
G01 X25.4744Y17.8228
G01 X25.4722Y17.8448
G01 X25.4703Y17.8840
G01 X25.4700Y19.9250
G01 X25.4722Y19.9752
G01 X25.4744Y19.9972
G01 X25.4807Y20.0397
G01 X25.4844Y20.0577
G01 X25.4940Y20.0958
G01 X25.5004Y20.1169
G01 X25.5136Y20.1539
G01 X25.5221Y20.1743
G01 X25.5388Y20.2098
G01 X25.5492Y20.2292
G01 X25.5694Y20.2629
G01 X25.5817Y20.2813
G01 X25.6051Y20.3128
G01 X25.6191Y20.3299
G01 X25.6454Y20.3589
G01 X25.6611Y20.3746
G01 X25.6901Y20.4009
G01 X25.7072Y20.4149
G01 X25.7402Y20.4394
G01 X25.7571Y20.4506
G01 X25.7908Y20.4708
G01 X25.8102Y20.4812
G01 X25.8457Y20.4979
G01 X25.8661Y20.5064
G01 X25.9031Y20.5196
G01 X25.9242Y20.5260
G01 X25.9623Y20.5356
G01 X25.9839Y20.5399
G01 X26.0228Y20.5456
G01 X26.0530Y20.5482
G01 X26.6071Y21.1023
G01 X26.5630Y21.1511
G01 X26.5490Y21.1681
G01 X26.4836Y21.2563
G01 X26.4724Y21.2732
G01 X26.4169Y21.3658
G01 X26.4065Y21.3853
G01 X26.3603Y21.4828
G01 X26.3519Y21.5032
G01 X26.3155Y21.6049
G01 X26.3100Y21.6231
G01 X26.3045Y21.6049
G01 X26.2681Y21.5032
G01 X26.2597Y21.4828
G01 X26.2135Y21.3853
G01 X26.2031Y21.3658
G01 X26.1476Y21.2732
G01 X26.1353Y21.2548
G01 X26.0710Y21.1681
G01 X26.0570Y21.1511
G01 X25.9845Y21.0711
G01 X25.9689Y21.0555
G01 X25.8889Y20.9830
G01 X25.8719Y20.9690
G01 X25.7837Y20.9036
G01 X25.7668Y20.8924
G01 X25.6742Y20.8369
G01 X25.6547Y20.8265
G01 X25.5572Y20.7803
G01 X25.5368Y20.7719
G01 X25.4351Y20.7355
G01 X25.4140Y20.7291
G01 X25.3093Y20.7029
G01 X25.2876Y20.6986
G01 X25.1808Y20.6827
G01 X25.1589Y20.6806
G01 X25.0510Y20.6753
G01 X25.0290Y20.6753
G01 X24.9211Y20.6806
G01 X24.8956Y20.6833
G01 X24.8627Y20.6473
G01 X23.8827Y19.6674
G01 X23.8383Y19.6268
G01 X23.8212Y19.6128
G01 X23.7850Y19.5859
G00 Z3.0000
G00 X24.2000Y19.0250
G01 Z-0.1500
G01 X24.2022Y19.0752
G01 X24.2044Y19.0972
G01 X24.2107Y19.1397
G01 X24.2144Y19.1577
G01 X24.2240Y19.1958
G01 X24.2304Y19.2169
G01 X24.2436Y19.2539
G01 X24.2521Y19.2743
G01 X24.2688Y19.3098
G01 X24.2792Y19.3292
G01 X24.2994Y19.3629
G01 X24.3117Y19.3813
G01 X24.3351Y19.4128
G01 X24.3491Y19.4299
G01 X24.3754Y19.4589
G01 X24.3911Y19.4746
G01 X24.4201Y19.5009
G01 X24.4372Y19.5149
G01 X24.4702Y19.5394
G01 X24.4871Y19.5506
G01 X24.5208Y19.5708
G01 X24.5402Y19.5812
G01 X24.5757Y19.5979
G01 X24.5961Y19.6064
G01 X24.6331Y19.6196
G01 X24.6542Y19.6260
G01 X24.6923Y19.6356
G01 X24.7139Y19.6399
G01 X24.7528Y19.6456
G01 X24.7748Y19.6478
G01 X24.8140Y19.6497
G01 X24.8360Y19.6497
G01 X24.8752Y19.6478
G01 X24.8972Y19.6456
G01 X24.9397Y19.6393
G01 X24.9577Y19.6356
G01 X24.9958Y19.6260
G01 X25.0169Y19.6196
G01 X25.0539Y19.6064
G01 X25.0743Y19.5979
G01 X25.1098Y19.5812
G01 X25.1292Y19.5708
G01 X25.1629Y19.5506
G01 X25.1813Y19.5383
G01 X25.2128Y19.5149
G01 X25.2299Y19.5009
G01 X25.2589Y19.4746
G01 X25.2796Y19.4539
G01 X25.3059Y19.4249
G01 X25.3199Y19.4078
G01 X25.3444Y19.3748
G01 X25.3556Y19.3579
G01 X25.3758Y19.3242
G01 X25.3862Y19.3048
G01 X25.4029Y19.2693
G01 X25.4114Y19.2489
G01 X25.4246Y19.2119
G01 X25.4310Y19.1908
G01 X25.4406Y19.1527
G01 X25.4449Y19.1311
G01 X25.4506Y19.0922
G01 X25.4528Y19.0702
G01 X25.4547Y19.0310
G01 X25.4547Y19.0090
G01 X25.4528Y18.9698
G01 X25.4500Y18.9435
G01 X25.4500Y17.9250
G01 X25.4478Y17.8748
G01 X25.4456Y17.8528
G01 X25.4393Y17.8103
G01 X25.4356Y17.7923
G01 X25.4260Y17.7542
G01 X25.4196Y17.7331
G01 X25.4064Y17.6961
G01 X25.3979Y17.6757
G01 X25.3812Y17.6402
G01 X25.3708Y17.6208
G01 X25.3506Y17.5871
G01 X25.3383Y17.5687
G01 X25.3149Y17.5372
G01 X25.3009Y17.5201
G01 X25.2746Y17.4911
G01 X25.2589Y17.4754
G01 X25.2299Y17.4491
G01 X25.2128Y17.4351
G01 X25.1798Y17.4106
G01 X25.1629Y17.3994
G01 X25.1292Y17.3792
G01 X25.1098Y17.3688
G01 X25.0743Y17.3521
G01 X25.0539Y17.3436
G01 X25.0169Y17.3304
G01 X24.9958Y17.3240
G01 X24.9577Y17.3144
G01 X24.9361Y17.3101
G01 X24.8972Y17.3044
G01 X24.8752Y17.3022
G01 X24.8360Y17.3003
G01 X24.8140Y17.3003
G01 X24.7748Y17.3022
G01 X24.7528Y17.3044
G01 X24.7103Y17.3107
G01 X24.6923Y17.3144
G01 X24.6542Y17.3240
G01 X24.6331Y17.3304
G01 X24.5961Y17.3436
G01 X24.5757Y17.3521
G01 X24.5402Y17.3688
G01 X24.5208Y17.3792
G01 X24.4871Y17.3994
G01 X24.4687Y17.4117
G01 X24.4372Y17.4351
G01 X24.4201Y17.4491
G01 X24.3911Y17.4754
G01 X24.3754Y17.4911
G01 X24.3491Y17.5201
G01 X24.3351Y17.5372
G01 X24.3106Y17.5702
G01 X24.2994Y17.5871
G01 X24.2792Y17.6208
G01 X24.2688Y17.6402
G01 X24.2521Y17.6757
G01 X24.2436Y17.6961
G01 X24.2304Y17.7331
G01 X24.2240Y17.7542
G01 X24.2144Y17.7923
G01 X24.2101Y17.8139
G01 X24.2044Y17.8528
G01 X24.2022Y17.8748
G01 X24.2000Y17.9250
G01 X24.2000Y19.0250
G00 Z3.0000
G00 X24.3000Y19.0250
G01 Z-0.1500
G01 X24.3002Y17.9189
G01 X24.3033Y17.8675
G01 X24.3114Y17.8166
G01 X24.3210Y17.7785
G01 X24.3378Y17.7298
G01 X24.3592Y17.6830
G01 X24.3852Y17.6385
G01 X24.4154Y17.5968
G01 X24.4495Y17.5582
G01 X24.4873Y17.5232
G01 X24.5283Y17.4920
G01 X24.5722Y17.4650
G01 X24.6185Y17.4424
G01 X24.6668Y17.4245
G01 X24.7166Y17.4114
G01 X24.7675Y17.4033
G01 X24.8189Y17.4002
G01 X24.8703Y17.4021
G01 X24.9214Y17.4090
G01 X24.9715Y17.4210
G01 X25.0202Y17.4378
G01 X25.0670Y17.4592
G01 X25.0778Y17.4650
G01 X25.1209Y17.4914
G01 X25.1627Y17.5232
G01 X25.2005Y17.5582
G01 X25.2268Y17.5873
G01 X25.2580Y17.6283
G01 X25.2850Y17.6722
G01 X25.3076Y17.7185
G01 X25.3122Y17.7298
G01 X25.3290Y17.7785
G01 X25.3406Y17.8266
G01 X25.3467Y17.8675
G01 X25.3479Y17.8797
G01 X25.3500Y17.9250
G01 X25.3500Y18.9509
G01 X25.3529Y18.9747
G01 X25.3548Y19.0261
G01 X25.3517Y19.0775
G01 X25.3436Y19.1284
G01 X25.3340Y19.1665
G01 X25.3172Y19.2152
G01 X25.2958Y19.2620
G01 X25.2900Y19.2728
G01 X25.2630Y19.3167
G01 X25.2318Y19.3577
G01 X25.1962Y19.3962
G01 X25.1627Y19.4268
G01 X25.1217Y19.4580
G01 X25.0778Y19.4850
G01 X25.0670Y19.4908
G01 X25.0202Y19.5122
G01 X24.9715Y19.5290
G01 X24.9234Y19.5406
G01 X24.8825Y19.5467
G01 X24.8311Y19.5498
G01 X24.7797Y19.5479
G01 X24.7675Y19.5467
G01 X24.7166Y19.5386
G01 X24.6668Y19.5255
G01 X24.6185Y19.5076
G01 X24.5830Y19.4908
G01 X24.5385Y19.4648
G01 X24.4968Y19.4346
G01 X24.4873Y19.4268
G01 X24.4495Y19.3918
G01 X24.4154Y19.3532
G01 X24.3920Y19.3217
G01 X24.3650Y19.2778
G01 X24.3424Y19.2315
G01 X24.3245Y19.1832
G01 X24.3114Y19.1334
G01 X24.3090Y19.1214
G01 X24.3021Y19.0703
G01 X24.3000Y19.0250
G00 Z3.0000
G00 X22.5121Y18.3603
G01 Z-0.1500
G01 X22.5302Y18.3521
G01 X22.5606Y18.3351
G01 X22.5940Y18.3146
G01 X22.6218Y18.2961
G01 X22.6480Y18.2754
G01 X22.6750Y18.2523
G01 X22.6750Y18.5232
G01 X22.5121Y18.3603
G00 Z3.0000
G00 X22.3260Y18.3156
G01 Z-0.1500
G01 X22.3400Y18.3129
G01 X22.3781Y18.3038
G01 X22.4027Y18.2969
G01 X22.4266Y18.2880
G01 X22.4629Y18.2730
G01 X22.4851Y18.2628
G01 X22.5083Y18.2499
G01 X22.5418Y18.2294
G01 X22.5630Y18.2152
G01 X22.5830Y18.1994
G01 X22.6128Y18.1739
G01 X22.6316Y18.1566
G01 X22.6489Y18.1378
G01 X22.6744Y18.1080
G01 X22.6855Y18.0943
G01 X22.7044Y18.0668
G01 X22.7249Y18.0333
G01 X22.7373Y18.0110
G01 X22.7480Y17.9879
G01 X22.7630Y17.9516
G01 X22.7672Y17.9410
G01 X22.7750Y17.9155
G01 X22.7750Y18.7646
G01 X22.3260Y18.3156
G00 Z3.0000
G00 X22.0931Y18.2250
G01 Z-0.1500
G01 X22.2250Y18.2250
G01 X22.2818Y18.2212
G01 X22.2949Y18.2198
G01 X22.3166Y18.2157
G01 X22.3548Y18.2065
G01 X22.3718Y18.2018
G01 X22.3884Y18.1956
G01 X22.4400Y18.1736
G01 X22.4561Y18.1646
G01 X22.5042Y18.1343
G01 X22.5181Y18.1233
G01 X22.5609Y18.0859
G01 X22.5729Y18.0729
G01 X22.6060Y18.0335
G01 X22.6191Y18.0145
G01 X22.6396Y17.9811
G01 X22.6482Y17.9656
G01 X22.6556Y17.9496
G01 X22.6735Y17.9060
G01 X22.6815Y17.8798
G01 X22.6942Y17.8243
G01 X22.6993Y17.7677
G01 X22.7000Y17.7500
G01 X22.7000Y17.2550
G01 X22.8297Y17.2550
G01 X22.8750Y17.3003
G01 X22.8750Y19.0061
G01 X22.1063Y18.2374
G01 X22.0931Y18.2250
G00 Z3.0000
G00 X20.2917Y17.3550
G01 Z-0.1500
G01 X20.4000Y17.3550
G01 X20.4000Y17.4633
G01 X20.2917Y17.3550
G00 Z3.0000
G00 X20.0407Y17.2550
G01 Z-0.1500
G01 X20.5000Y17.2550
G01 X20.5000Y17.7047
G01 X20.1127Y17.3173
G01 X20.0683Y17.2768
G01 X20.0407Y17.2550
G00 Z3.0000
G00 X18.1354Y18.6550
G01 Z-0.1500
G01 X18.0773Y18.6898
G01 X18.0508Y18.7075
G01 X17.9868Y18.7550
G01 X16.3174Y18.7550
G01 X16.4174Y18.6550
G01 X18.1354Y18.6550
G00 Z3.0000
G00 X21.5528Y20.4416
G01 Z-0.1500
G01 X21.5161Y20.4635
G01 X21.4570Y20.5031
G01 X21.4274Y20.5250
G01 X20.3640Y20.5250
G01 X20.3793Y20.4927
G01 X20.4065Y20.4269
G01 X20.4396Y20.3345
G01 X20.4388Y20.3342
G01 X20.4602Y20.2664
G01 X20.4841Y20.1713
G01 X20.4979Y20.1015
G01 X20.5123Y20.0044
G01 X20.5152Y19.9749
G01 X21.0862Y19.9750
G01 X21.5528Y20.4416
G00 Z3.0000
G00 X21.7165Y20.4638
G01 Z-0.1500
G01 X21.6601Y20.4938
G01 X21.5676Y20.5493
G01 X21.5166Y20.5834
G01 X21.4604Y20.6250
G01 X20.1986Y20.6250
G01 X20.2180Y20.5927
G01 X20.2469Y20.5386
G01 X20.2889Y20.4499
G01 X20.3123Y20.3932
G01 X20.3454Y20.3008
G01 X20.3447Y20.3006
G01 X20.3632Y20.2421
G01 X20.3871Y20.1470
G01 X20.3990Y20.0868
G01 X20.4134Y19.9897
G01 X20.4194Y19.9287
G01 X20.4223Y19.8701
G01 X20.4403Y19.8718
G01 X20.5200Y19.8750
G01 X21.1277Y19.8750
G01 X21.7165Y20.4638
G00 Z3.0000
G00 X21.8890Y20.4949
G01 Z-0.1500
G01 X21.8546Y20.5091
G01 X21.7570Y20.5553
G01 X21.7116Y20.5796
G01 X21.6190Y20.6351
G01 X21.5761Y20.6637
G01 X21.4935Y20.7250
G01 X20.0111Y20.7250
G01 X20.0557Y20.6648
G01 X20.0818Y20.6255
G01 X20.1322Y20.5413
G01 X20.1565Y20.4959
G01 X20.1985Y20.4071
G01 X20.2182Y20.3596
G01 X20.2513Y20.2672
G01 X20.2507Y20.2669
G01 X20.2662Y20.2178
G01 X20.2901Y20.1227
G01 X20.3001Y20.0721
G01 X20.3145Y19.9751
G01 X20.3196Y19.9238
G01 X20.3244Y19.8258
G01 X20.3244Y19.7742
G01 X20.3234Y19.7553
G01 X20.3454Y19.7597
G01 X20.3940Y19.7669
G01 X20.4452Y19.7720
G01 X20.5200Y19.7750
G01 X21.1691Y19.7750
G01 X21.8890Y20.4949
G00 Z3.0000
G00 X22.0722Y20.5367
G01 Z-0.1500
G01 X22.0375Y20.5472
G01 X21.9359Y20.5836
G01 X21.8973Y20.5995
G01 X21.7998Y20.6457
G01 X21.7630Y20.6654
G01 X21.6704Y20.7208
G01 X21.6357Y20.7440
G01 X21.5490Y20.8083
G01 X21.5287Y20.8250
G01 X19.7892Y20.8250
G01 X19.8220Y20.7925
G01 X19.8879Y20.7198
G01 X19.8873Y20.7193
G01 X19.9144Y20.6876
G01 X19.9749Y20.6059
G01 X19.9960Y20.5741
G01 X20.0465Y20.4899
G01 X20.0661Y20.4531
G01 X20.1081Y20.3644
G01 X20.1240Y20.3259
G01 X20.1571Y20.2335
G01 X20.1566Y20.2333
G01 X20.1692Y20.1936
G01 X20.1930Y20.0984
G01 X20.2012Y20.0575
G01 X20.2156Y19.9604
G01 X20.2197Y19.9189
G01 X20.2245Y19.8209
G01 X20.2245Y19.7791
G01 X20.2197Y19.6811
G01 X20.2190Y19.6812
G01 X20.2156Y19.6396
G01 X20.2130Y19.6219
G01 X20.2317Y19.6286
G01 X20.2319Y19.6282
G01 X20.2716Y19.6407
G01 X20.3192Y19.6527
G01 X20.3601Y19.6608
G01 X20.4086Y19.6680
G01 X20.4501Y19.6721
G01 X20.5200Y19.6750
G01 X21.2105Y19.6750
G01 X22.0722Y20.5367
G00 Z3.0000
G00 X22.2715Y20.5946
G01 Z-0.1500
G01 X22.2324Y20.6005
G01 X22.2064Y20.6059
G01 X22.1017Y20.6321
G01 X22.0712Y20.6414
G01 X21.9696Y20.6777
G01 X21.9401Y20.6899
G01 X21.8425Y20.7361
G01 X21.8144Y20.7511
G01 X21.7218Y20.8066
G01 X21.6953Y20.8243
G01 X21.6086Y20.8886
G01 X21.5839Y20.9089
G01 X21.5661Y20.9250
G01 X19.4980Y20.9250
G01 X19.5227Y20.9102
G01 X19.5492Y20.8925
G01 X19.6280Y20.8341
G01 X19.6526Y20.8138
G01 X19.7254Y20.7479
G01 X19.7479Y20.7254
G01 X19.8138Y20.6526
G01 X19.8134Y20.6522
G01 X19.8341Y20.6280
G01 X19.8941Y20.5470
G01 X19.9102Y20.5227
G01 X19.9607Y20.4385
G01 X19.9757Y20.4104
G01 X20.0177Y20.3216
G01 X20.0299Y20.2922
G01 X20.0629Y20.1998
G01 X20.0722Y20.1693
G01 X20.0960Y20.0741
G01 X20.1023Y20.0428
G01 X20.1167Y19.9457
G01 X20.1198Y19.9140
G01 X20.1246Y19.8159
G01 X20.1246Y19.7841
G01 X20.1198Y19.6860
G01 X20.1193Y19.6861
G01 X20.1167Y19.6543
G01 X20.1014Y19.5519
G01 X20.0960Y19.5259
G01 X20.0757Y19.4449
G01 X20.1172Y19.4697
G01 X20.1454Y19.4848
G01 X20.1897Y19.5057
G01 X20.2192Y19.5180
G01 X20.2654Y19.5345
G01 X20.2959Y19.5437
G01 X20.3435Y19.5557
G01 X20.3748Y19.5619
G01 X20.4233Y19.5691
G01 X20.4551Y19.5722
G01 X20.5200Y19.5750
G01 X21.2519Y19.5750
G01 X22.2715Y20.5946
G00 Z3.0000
G00 X22.4936Y20.6753
G01 Z-0.1500
G01 X22.3811Y20.6806
G01 X22.3592Y20.6827
G01 X22.2487Y20.6991
G01 X22.2307Y20.7029
G01 X22.1260Y20.7291
G01 X22.1049Y20.7355
G01 X22.0032Y20.7719
G01 X21.9828Y20.7803
G01 X21.8853Y20.8265
G01 X21.8658Y20.8369
G01 X21.7732Y20.8924
G01 X21.7548Y20.9047
G01 X21.6681Y20.9690
G01 X21.6511Y20.9830
G01 X21.6047Y21.0250
G01 X18.2610Y21.0250
G01 X18.2659Y21.0153
G01 X18.2744Y20.9949
G01 X18.2824Y20.9692
G01 X18.2879Y20.9428
G01 X18.2910Y20.9130
G01 X18.3211Y20.9273
G01 X18.3415Y20.9357
G01 X18.4339Y20.9688
G01 X18.4550Y20.9752
G01 X18.5502Y20.9990
G01 X18.5719Y21.0033
G01 X18.6690Y21.0177
G01 X18.6909Y21.0199
G01 X18.7890Y21.0247
G01 X18.8110Y21.0247
G01 X18.9091Y21.0199
G01 X18.9310Y21.0177
G01 X19.0318Y21.0028
G01 X19.0498Y20.9990
G01 X19.1450Y20.9752
G01 X19.1661Y20.9688
G01 X19.2585Y20.9357
G01 X19.2789Y20.9273
G01 X19.3676Y20.8853
G01 X19.3871Y20.8749
G01 X19.4712Y20.8245
G01 X19.4896Y20.8122
G01 X19.5684Y20.7537
G01 X19.5855Y20.7397
G01 X19.6582Y20.6738
G01 X19.6738Y20.6582
G01 X19.7397Y20.5855
G01 X19.7537Y20.5684
G01 X19.8133Y20.4881
G01 X19.8245Y20.4712
G01 X19.8749Y20.3871
G01 X19.8853Y20.3676
G01 X19.9273Y20.2789
G01 X19.9357Y20.2585
G01 X19.9688Y20.1661
G01 X19.9752Y20.1450
G01 X19.9990Y20.0498
G01 X20.0033Y20.0281
G01 X20.0177Y19.9310
G01 X20.0199Y19.9091
G01 X20.0247Y19.8110
G01 X20.0247Y19.7890
G01 X20.0199Y19.6909
G01 X20.0177Y19.6690
G01 X20.0028Y19.5682
G01 X19.9990Y19.5502
G01 X19.9752Y19.4550
G01 X19.9688Y19.4339
G01 X19.9357Y19.3415
G01 X19.9273Y19.3211
G01 X19.8853Y19.2324
G01 X19.8749Y19.2129
G01 X19.8245Y19.1288
G01 X19.8122Y19.1104
G01 X19.7537Y19.0316
G01 X19.7397Y19.0145
G01 X19.6738Y18.9418
G01 X19.6582Y18.9262
G01 X19.5855Y18.8603
G01 X19.5684Y18.8463
G01 X19.4881Y18.7867
G01 X19.4712Y18.7755
G01 X19.3871Y18.7251
G01 X19.3676Y18.7147
G01 X19.2789Y18.6727
G01 X19.2585Y18.6643
G01 X19.1661Y18.6312
G01 X19.1450Y18.6248
G01 X19.0498Y18.6010
G01 X19.0281Y18.5967
G01 X18.9310Y18.5823
G01 X18.9091Y18.5801
G01 X18.8110Y18.5753
G01 X18.7890Y18.5753
G01 X18.6909Y18.5801
G01 X18.6690Y18.5823
G01 X18.5682Y18.5972
G01 X18.5502Y18.6010
G01 X18.4550Y18.6248
G01 X18.4339Y18.6312
G01 X18.3415Y18.6643
G01 X18.3211Y18.6727
G01 X18.2324Y18.7147
G01 X18.2129Y18.7251
G01 X18.1288Y18.7755
G01 X18.1104Y18.7878
G01 X18.0316Y18.8463
G01 X18.0209Y18.8550
G01 X16.2285Y18.8550
G01 X16.1684Y18.8577
G01 X16.1465Y18.8598
G01 X16.0943Y18.8676
G01 X16.0540Y18.8769
G01 X16.3759Y18.5550
G01 X19.2997Y18.5550
G01 X20.0154Y19.2703
G01 X20.0517Y19.3032
G01 X20.0688Y19.3172
G01 X20.1097Y19.3476
G01 X20.1266Y19.3587
G01 X20.1686Y19.3840
G01 X20.1881Y19.3944
G01 X20.2325Y19.4153
G01 X20.2529Y19.4238
G01 X20.2991Y19.4403
G01 X20.3202Y19.4467
G01 X20.3678Y19.4587
G01 X20.3895Y19.4630
G01 X20.4380Y19.4702
G01 X20.4600Y19.4723
G01 X20.5200Y19.4750
G01 X21.2933Y19.4750
G01 X22.4936Y20.6753
G00 Z3.0000
G00 X23.7898Y22.4351
G01 Z-0.1500
G01 X23.7590Y22.4345
G01 X23.7500Y22.4354
G01 X23.7645Y22.3951
G01 X23.7700Y22.3769
G01 X23.7755Y22.3951
G01 X23.7898Y22.4351
G00 Z3.0000
G00 X15.9102Y22.1941
G01 Z-0.1500
G01 X15.9052Y22.0961
G01 X15.9052Y22.0839
G01 X15.9100Y21.9858
G01 X15.9112Y21.9736
G01 X15.9256Y21.8766
G01 X15.9280Y21.8645
G01 X15.9518Y21.7693
G01 X15.9554Y21.7576
G01 X15.9884Y21.6652
G01 X15.9931Y21.6539
G01 X16.0351Y21.5652
G01 X16.0409Y21.5543
G01 X16.0913Y21.4702
G01 X16.0981Y21.4600
G01 X16.1566Y21.3811
G01 X16.1644Y21.3717
G01 X16.2303Y21.2989
G01 X16.2389Y21.2903
G01 X16.3117Y21.2244
G01 X16.3211Y21.2166
G01 X16.4000Y21.1581
G01 X16.4102Y21.1513
G01 X16.4943Y21.1009
G01 X16.5052Y21.0951
G01 X16.5939Y21.0531
G01 X16.6052Y21.0484
G01 X16.6976Y21.0154
G01 X16.7093Y21.0118
G01 X16.8045Y20.9880
G01 X16.8166Y20.9856
G01 X16.9136Y20.9712
G01 X16.9258Y20.9700
G01 X17.0239Y20.9652
G01 X17.0361Y20.9652
G01 X17.1342Y20.9700
G01 X17.1464Y20.9712
G01 X17.2434Y20.9856
G01 X17.2555Y20.9880
G01 X17.3507Y21.0118
G01 X17.3624Y21.0154
G01 X17.4548Y21.0484
G01 X17.4661Y21.0531
G01 X17.5548Y21.0951
G01 X17.6059Y21.1250
G01 X21.6433Y21.1250
G01 X21.7182Y21.0571
G01 X21.7277Y21.0493
G01 X21.8144Y20.9850
G01 X21.8246Y20.9782
G01 X21.9172Y20.9227
G01 X21.9280Y20.9169
G01 X22.0256Y20.8707
G01 X22.0369Y20.8660
G01 X22.1386Y20.8297
G01 X22.1503Y20.8261
G01 X22.2650Y20.7978
G01 X22.3738Y20.7816
G01 X22.3860Y20.7804
G01 X22.4939Y20.7752
G01 X22.5061Y20.7752
G01 X22.6140Y20.7804
G01 X22.6262Y20.7816
G01 X22.7329Y20.7975
G01 X22.7450Y20.7999
G01 X22.8497Y20.8261
G01 X22.8614Y20.8297
G01 X22.9631Y20.8660
G01 X22.9744Y20.8707
G01 X23.0720Y20.9169
G01 X23.0828Y20.9227
G01 X23.1754Y20.9782
G01 X23.1848Y20.9844
G01 X23.2723Y21.0493
G01 X23.2818Y21.0571
G01 X23.3618Y21.1296
G01 X23.3704Y21.1382
G01 X23.4429Y21.2182
G01 X23.4507Y21.2277
G01 X23.5150Y21.3144
G01 X23.5218Y21.3246
G01 X23.5773Y21.4172
G01 X23.5831Y21.4280
G01 X23.6293Y21.5256
G01 X23.6340Y21.5369
G01 X23.6703Y21.6386
G01 X23.6739Y21.6503
G01 X23.7022Y21.7650
G01 X23.7184Y21.8738
G01 X23.7196Y21.8860
G01 X23.7248Y21.9939
G01 X23.7248Y22.0061
G01 X23.7196Y22.1140
G01 X23.7184Y22.1262
G01 X23.7025Y22.2329
G01 X23.7001Y22.2450
G01 X23.6739Y22.3497
G01 X23.6703Y22.3614
G01 X23.6340Y22.4631
G01 X23.6293Y22.4744
G01 X23.5831Y22.5720
G01 X23.5773Y22.5828
G01 X23.5218Y22.6754
G01 X23.5156Y22.6848
G01 X23.4507Y22.7723
G01 X23.4429Y22.7818
G01 X23.3704Y22.8618
G01 X23.3618Y22.8704
G01 X23.2818Y22.9429
G01 X23.2723Y22.9507
G01 X23.1856Y23.0150
G01 X23.1754Y23.0218
G01 X23.0828Y23.0773
G01 X23.0720Y23.0831
G01 X22.9744Y23.1293
G01 X22.9631Y23.1340
G01 X22.8614Y23.1703
G01 X22.8497Y23.1739
G01 X22.7350Y23.2022
G01 X22.6262Y23.2184
G01 X22.6140Y23.2196
G01 X22.5061Y23.2248
G01 X22.4939Y23.2248
G01 X22.3860Y23.2196
G01 X22.3738Y23.2184
G01 X22.2671Y23.2025
G01 X22.2550Y23.2001
G01 X22.1503Y23.1739
G01 X22.1386Y23.1703
G01 X22.0369Y23.1340
G01 X22.0256Y23.1293
G01 X21.9280Y23.0831
G01 X21.9172Y23.0773
G01 X21.8246Y23.0218
G01 X21.8152Y23.0156
G01 X21.7277Y22.9507
G01 X21.7182Y22.9429
G01 X21.6433Y22.8750
G01 X17.8352Y22.8750
G01 X17.8211Y22.8897
G01 X17.7483Y22.9556
G01 X17.7389Y22.9634
G01 X17.6600Y23.0219
G01 X17.6498Y23.0287
G01 X17.5657Y23.0791
G01 X17.5548Y23.0849
G01 X17.4661Y23.1269
G01 X17.4548Y23.1316
G01 X17.3624Y23.1646
G01 X17.3507Y23.1682
G01 X17.2455Y23.1941
G01 X17.1464Y23.2088
G01 X17.1342Y23.2100
G01 X17.0361Y23.2148
G01 X17.0239Y23.2148
G01 X16.9258Y23.2100
G01 X16.9136Y23.2088
G01 X16.8166Y23.1944
G01 X16.8045Y23.1920
G01 X16.7093Y23.1682
G01 X16.6976Y23.1646
G01 X16.6052Y23.1316
G01 X16.5939Y23.1269
G01 X16.5052Y23.0849
G01 X16.4943Y23.0791
G01 X16.4008Y23.0225
G01 X16.3211Y22.9634
G01 X16.3117Y22.9556
G01 X16.2389Y22.8897
G01 X16.2303Y22.8811
G01 X16.1644Y22.8083
G01 X16.1566Y22.7989
G01 X16.0981Y22.7200
G01 X16.0913Y22.7098
G01 X16.0409Y22.6257
G01 X16.0351Y22.6148
G01 X15.9931Y22.5261
G01 X15.9884Y22.5148
G01 X15.9554Y22.4224
G01 X15.9518Y22.4107
G01 X15.9280Y22.3155
G01 X15.9256Y22.3034
G01 X15.9112Y22.2064
G01 X15.9102Y22.1941
G00 Z3.0000
G00 X13.2739Y18.6750
G01 Z-0.1500
G01 X13.2750Y18.6500
G01 X13.2750Y17.8917
G01 X13.8117Y17.3550
G01 X15.3839Y17.3550
G01 X14.0639Y18.6750
G01 X13.2739Y18.6750
G00 Z3.0000
G00 X13.3750Y18.5750
G01 Z-0.1500
G01 X13.3750Y17.9331
G01 X13.8532Y17.4550
G01 X15.1425Y17.4550
G01 X14.0225Y18.5750
G01 X13.3750Y18.5750
G00 Z3.0000
G00 X13.4750Y18.4750
G01 Z-0.1500
G01 X13.4750Y17.9746
G01 X13.8946Y17.5550
G01 X14.9011Y17.5550
G01 X13.9811Y18.4750
G01 X13.4750Y18.4750
G00 Z3.0000
G00 X13.5750Y18.3750
G01 Z-0.1500
G01 X13.5750Y18.0160
G01 X13.9360Y17.6550
G01 X14.6597Y17.6550
G01 X13.9396Y18.3750
G01 X13.5750Y18.3750
G00 Z3.0000
G00 X13.6750Y18.2750
G01 Z-0.1500
G01 X13.6750Y18.0574
G01 X13.9774Y17.7550
G01 X14.4182Y17.7550
G01 X13.8982Y18.2750
G01 X13.6750Y18.2750
G00 Z3.0000
G00 X13.1368Y18.7750
G01 Z-0.1500
G01 X13.1430Y18.7657
G01 X13.1534Y18.7462
G01 X13.1611Y18.7279
G01 X13.1671Y18.7089
G01 X13.1715Y18.6896
G01 X13.1741Y18.6699
G01 X13.1750Y18.6500
G01 X13.1750Y17.8503
G01 X13.7703Y17.2550
G01 X15.6349Y17.2550
G01 X15.6073Y17.2768
G01 X15.5630Y17.3173
G01 X14.1053Y18.7750
G01 X13.1368Y18.7750
G00 Z3.0000
G00 X9.8250Y21.8500
G01 Z-0.1500
G01 X9.8255Y20.3390
G01 X9.8294Y20.3173
G01 X9.8370Y20.2966
G01 X9.8428Y20.2857
G01 X9.8496Y20.2755
G01 X9.8574Y20.2661
G01 X9.8661Y20.2574
G01 X9.8755Y20.2496
G01 X9.8857Y20.2428
G01 X9.8966Y20.2370
G01 X9.9173Y20.2294
G01 X9.9280Y20.2269
G01 X9.9500Y20.2250
G01 X11.8654Y20.2250
G01 X11.9227Y20.2038
G01 X11.9345Y20.2003
G01 X11.9926Y20.1862
G01 X12.0549Y20.1776
G01 X12.1100Y20.1750
G01 X14.7496Y20.1750
G01 X15.7910Y19.1338
G01 X15.8368Y19.0931
G01 X15.8864Y19.0570
G01 X15.9393Y19.0260
G01 X15.9950Y19.0004
G01 X16.0530Y18.9803
G01 X16.1106Y18.9663
G01 X16.1733Y18.9576
G01 X16.2285Y18.9550
G01 X18.0589Y18.9550
G01 X18.0911Y18.9266
G01 X18.1700Y18.8681
G01 X18.1802Y18.8613
G01 X18.2643Y18.8109
G01 X18.2752Y18.8051
G01 X18.3639Y18.7631
G01 X18.3752Y18.7584
G01 X18.4676Y18.7254
G01 X18.4793Y18.7218
G01 X18.5845Y18.6959
G01 X18.6836Y18.6812
G01 X18.6958Y18.6800
G01 X18.7939Y18.6752
G01 X18.8061Y18.6752
G01 X18.9042Y18.6800
G01 X18.9164Y18.6812
G01 X19.0134Y18.6956
G01 X19.0255Y18.6980
G01 X19.1207Y18.7218
G01 X19.1324Y18.7254
G01 X19.2248Y18.7584
G01 X19.2361Y18.7631
G01 X19.3248Y18.8051
G01 X19.3357Y18.8109
G01 X19.4198Y18.8613
G01 X19.4300Y18.8681
G01 X19.5089Y18.9266
G01 X19.5183Y18.9344
G01 X19.5911Y19.0003
G01 X19.5997Y19.0089
G01 X19.6656Y19.0817
G01 X19.6734Y19.0911
G01 X19.7319Y19.1700
G01 X19.7387Y19.1802
G01 X19.7891Y19.2643
G01 X19.7949Y19.2752
G01 X19.8369Y19.3639
G01 X19.8416Y19.3752
G01 X19.8746Y19.4676
G01 X19.8782Y19.4793
G01 X19.9020Y19.5745
G01 X19.9044Y19.5866
G01 X19.9188Y19.6836
G01 X19.9200Y19.6958
G01 X19.9248Y19.7939
G01 X19.9248Y19.8061
G01 X19.9200Y19.9042
G01 X19.9188Y19.9164
G01 X19.9044Y20.0134
G01 X19.9020Y20.0255
G01 X19.8782Y20.1207
G01 X19.8746Y20.1324
G01 X19.8416Y20.2248
G01 X19.8369Y20.2361
G01 X19.7949Y20.3248
G01 X19.7891Y20.3357
G01 X19.7387Y20.4198
G01 X19.7325Y20.4292
G01 X19.6734Y20.5089
G01 X19.6656Y20.5183
G01 X19.5997Y20.5911
G01 X19.5911Y20.5997
G01 X19.5183Y20.6656
G01 X19.5089Y20.6734
G01 X19.4300Y20.7319
G01 X19.4198Y20.7387
G01 X19.3357Y20.7891
G01 X19.3248Y20.7949
G01 X19.2361Y20.8369
G01 X19.2248Y20.8416
G01 X19.1324Y20.8746
G01 X19.1207Y20.8782
G01 X19.0255Y20.9020
G01 X19.0134Y20.9044
G01 X18.9164Y20.9188
G01 X18.9042Y20.9200
G01 X18.8061Y20.9248
G01 X18.7939Y20.9248
G01 X18.6958Y20.9200
G01 X18.6836Y20.9188
G01 X18.5866Y20.9044
G01 X18.5745Y20.9020
G01 X18.4793Y20.8782
G01 X18.4676Y20.8746
G01 X18.3752Y20.8416
G01 X18.3639Y20.8369
G01 X18.2752Y20.7949
G01 X18.2643Y20.7891
G01 X18.1708Y20.7325
G01 X18.0911Y20.6734
G01 X18.0817Y20.6656
G01 X18.0089Y20.5997
G01 X18.0003Y20.5911
G01 X17.9344Y20.5183
G01 X17.9266Y20.5089
G01 X17.8681Y20.4300
G01 X17.8613Y20.4198
G01 X17.8109Y20.3357
G01 X17.8051Y20.3248
G01 X17.7631Y20.2361
G01 X17.7513Y20.2050
G01 X16.4874Y20.2050
G01 X15.4504Y21.2420
G01 X15.4096Y21.2791
G01 X15.3607Y21.3161
G01 X15.3084Y21.3482
G01 X15.2976Y21.3540
G01 X15.2419Y21.3796
G01 X15.1840Y21.3997
G01 X15.1259Y21.4138
G01 X15.0758Y21.4212
G01 X15.0146Y21.4249
G01 X13.0750Y21.4250
G01 X13.0750Y21.8500
G01 X13.0731Y21.8720
G01 X13.0673Y21.8933
G01 X13.0630Y21.9034
G01 X13.0572Y21.9143
G01 X13.0504Y21.9245
G01 X13.0426Y21.9339
G01 X13.0339Y21.9426
G01 X13.0245Y21.9504
G01 X13.0143Y21.9572
G01 X13.0034Y21.9630
G01 X12.9827Y21.9706
G01 X12.9610Y21.9745
G01 X12.9500Y21.9750
G01 X9.9500Y21.9750
G01 X9.9390Y21.9745
G01 X9.9173Y21.9706
G01 X9.8966Y21.9630
G01 X9.8857Y21.9572
G01 X9.8755Y21.9504
G01 X9.8661Y21.9426
G01 X9.8574Y21.9339
G01 X9.8496Y21.9245
G01 X9.8428Y21.9143
G01 X9.8370Y21.9034
G01 X9.8327Y21.8933
G01 X9.8269Y21.8720
G01 X9.8250Y21.8500
G00 Z3.0000
G00 X2.0000Y25.2000
G01 Z-0.1500
G01 X-0.1000Y25.2000
G01 X-0.1000Y23.5000
G00 Z3.0000
G00 Z3.0000
G00 X0Y0
M05
G0 Z20
G0 X0 Y25