G0 Z20
G21
G90
G94
F50.00
G00 Z3.0000
M03 S45
G4 P1
G00 X22.1500Y2.9000
G01 Z-2.0000
G01 Z0
G00 Z3.0000
G00 X24.6900Y2.9000
G01 Z-2.0000
G01 Z0
G00 Z3.0000
G00 X27.2300Y2.9000
G01 Z-2.0000
G01 Z0
G00 Z3.0000
G00 X29.7700Y2.9000
G01 Z-2.0000
G01 Z0
G00 Z3.0000
G00 X32.3100Y2.9000
G01 Z-2.0000
G01 Z0
G00 Z3.0000
G00 X34.8500Y2.9000
G01 Z-2.0000
G01 Z0
G00 Z3.0000
G00 X45.3000Y3.5000
G01 Z-2.0000
G01 Z0
G00 Z3.0000
G00 X184.6900Y3.6600
G01 Z-2.0000
G01 Z0
G00 Z3.0000
G00 X192.3100Y3.6600
G01 Z-2.0000
G01 Z0
G00 Z3.0000
G00 X4.6900Y3.6600
G01 Z-2.0000
G01 Z0
G00 Z3.0000
G00 X12.3100Y3.6600
G01 Z-2.0000
G01 Z0
G00 Z3.0000
G00 X94.6900Y3.6600
G01 Z-2.0000
G01 Z0
G00 Z3.0000
G00 X102.3100Y3.6600
G01 Z-2.0000
G01 Z0
G00 Z3.0000
G00 X139.6900Y3.6600
G01 Z-2.0000
G01 Z0
G00 Z3.0000
G00 X147.3100Y3.6600
G01 Z-2.0000
G01 Z0
G00 Z3.0000
G00 X49.6900Y3.6600
G01 Z-2.0000
G01 Z0
G00 Z3.0000
G00 X57.3100Y3.6600
G01 Z-2.0000
G01 Z0
G00 Z3.0000
G00 X45.2800Y5.9000
G01 Z-2.0000
G01 Z0
G00 Z3.0000
G00 X22.1000Y6.1000
G01 Z-2.0000
G01 Z0
G00 Z3.0000
G00 X16.9000Y6.2000
G01 Z-2.0000
G01 Z0
G00 Z3.0000
G00 X24.7000Y8.1000
G01 Z-2.0000
G01 Z0
G00 Z3.0000
G00 X37.7000Y8.1000
G01 Z-2.0000
G01 Z0
G00 Z3.0000
G00 X40.7000Y8.1000
G01 Z-2.0000
G01 Z0
G00 Z3.0000
G00 X43.0000Y8.1000
G01 Z-2.0000
G01 Z0
G00 Z3.0000
G00 X57.3100Y8.7400
G01 Z-2.0000
G01 Z0
G00 Z3.0000
G00 X49.6900Y8.7400
G01 Z-2.0000
G01 Z0
G00 Z3.0000
G00 X147.3100Y8.7400
G01 Z-2.0000
G01 Z0
G00 Z3.0000
G00 X139.6900Y8.7400
G01 Z-2.0000
G01 Z0
G00 Z3.0000
G00 X102.3100Y8.7400
G01 Z-2.0000
G01 Z0
G00 Z3.0000
G00 X94.6900Y8.7400
G01 Z-2.0000
G01 Z0
G00 Z3.0000
G00 X12.3100Y8.7400
G01 Z-2.0000
G01 Z0
G00 Z3.0000
G00 X4.6900Y8.7400
G01 Z-2.0000
G01 Z0
G00 Z3.0000
G00 X192.3100Y8.7400
G01 Z-2.0000
G01 Z0
G00 Z3.0000
G00 X184.6900Y8.7400
G01 Z-2.0000
G01 Z0
G00 Z3.0000
G00 X45.3000Y18.1750
G01 Z-2.0000
G01 Z0
G00 Z3.0000
G00 X43.0000Y18.2000
G01 Z-2.0000
G01 Z0
G00 Z3.0000
G00 X40.7000Y18.2000
G01 Z-2.0000
G01 Z0
G00 Z3.0000
G00 X18.8000Y19.8000
G01 Z-2.0000
G01 Z0
G00 Z3.0000
G00 X47.3000Y19.8000
G01 Z-2.0000
G01 Z0
G00 Z3.0000
G00 X17.0300Y22.0900
G01 Z-2.0000
G01 Z0
G00 Z3.0000
G00 X0.0000Y0.0000
M05
G0 Z20
G0 X0 Y25