G0 Z20
G21
G90
G94
F50.00
G00 Z3.0000
M03 S45
G4 P1
G00 X76.6500Y12.0000
G01 Z-0.2500
G01 X76.6469Y11.9363
G01 X76.6375Y11.8732
G01 X76.6220Y11.8113
G01 X76.6005Y11.7513
G01 X76.5732Y11.6936
G01 X76.5405Y11.6389
G01 X76.5025Y11.5876
G01 X76.4596Y11.5404
G01 X76.4124Y11.4975
G01 X76.3611Y11.4595
G01 X76.3064Y11.4268
G01 X76.2487Y11.3995
G01 X76.1887Y11.3780
G01 X76.1268Y11.3625
G01 X76.0637Y11.3531
G01 X76.0000Y11.3500
G01 X75.9363Y11.3531
G01 X75.8732Y11.3625
G01 X75.8113Y11.3780
G01 X75.7513Y11.3995
G01 X75.6936Y11.4268
G01 X75.6389Y11.4595
G01 X75.5876Y11.4975
G01 X75.5404Y11.5404
G01 X75.4975Y11.5876
G01 X75.4595Y11.6389
G01 X75.4268Y11.6936
G01 X75.3995Y11.7513
G01 X75.3780Y11.8113
G01 X75.3625Y11.8732
G01 X75.3531Y11.9363
G01 X75.3500Y12.0000
G01 X75.3531Y12.0637
G01 X75.3625Y12.1268
G01 X75.3780Y12.1887
G01 X75.3995Y12.2487
G01 X75.4268Y12.3064
G01 X75.4595Y12.3611
G01 X75.4975Y12.4124
G01 X75.5404Y12.4596
G01 X75.5876Y12.5025
G01 X75.6389Y12.5405
G01 X75.6936Y12.5732
G01 X75.7513Y12.6005
G01 X75.8113Y12.6220
G01 X75.8732Y12.6375
G01 X75.9363Y12.6469
G01 X76.0000Y12.6500
G01 X76.0637Y12.6469
G01 X76.1268Y12.6375
G01 X76.1887Y12.6220
G01 X76.2487Y12.6005
G01 X76.3064Y12.5732
G01 X76.3611Y12.5405
G01 X76.4124Y12.5025
G01 X76.4596Y12.4596
G01 X76.5025Y12.4124
G01 X76.5405Y12.3611
G01 X76.5732Y12.3064
G01 X76.6005Y12.2487
G01 X76.6220Y12.1887
G01 X76.6375Y12.1268
G01 X76.6469Y12.0637
G01 X76.6500Y12.0000
G00 X76.6500Y12.0000
G01 Z-0.5000
G01 X76.6469Y11.9363
G01 X76.6375Y11.8732
G01 X76.6220Y11.8113
G01 X76.6005Y11.7513
G01 X76.5732Y11.6936
G01 X76.5405Y11.6389
G01 X76.5025Y11.5876
G01 X76.4596Y11.5404
G01 X76.4124Y11.4975
G01 X76.3611Y11.4595
G01 X76.3064Y11.4268
G01 X76.2487Y11.3995
G01 X76.1887Y11.3780
G01 X76.1268Y11.3625
G01 X76.0637Y11.3531
G01 X76.0000Y11.3500
G01 X75.9363Y11.3531
G01 X75.8732Y11.3625
G01 X75.8113Y11.3780
G01 X75.7513Y11.3995
G01 X75.6936Y11.4268
G01 X75.6389Y11.4595
G01 X75.5876Y11.4975
G01 X75.5404Y11.5404
G01 X75.4975Y11.5876
G01 X75.4595Y11.6389
G01 X75.4268Y11.6936
G01 X75.3995Y11.7513
G01 X75.3780Y11.8113
G01 X75.3625Y11.8732
G01 X75.3531Y11.9363
G01 X75.3500Y12.0000
G01 X75.3531Y12.0637
G01 X75.3625Y12.1268
G01 X75.3780Y12.1887
G01 X75.3995Y12.2487
G01 X75.4268Y12.3064
G01 X75.4595Y12.3611
G01 X75.4975Y12.4124
G01 X75.5404Y12.4596
G01 X75.5876Y12.5025
G01 X75.6389Y12.5405
G01 X75.6936Y12.5732
G01 X75.7513Y12.6005
G01 X75.8113Y12.6220
G01 X75.8732Y12.6375
G01 X75.9363Y12.6469
G01 X76.0000Y12.6500
G01 X76.0637Y12.6469
G01 X76.1268Y12.6375
G01 X76.1887Y12.6220
G01 X76.2487Y12.6005
G01 X76.3064Y12.5732
G01 X76.3611Y12.5405
G01 X76.4124Y12.5025
G01 X76.4596Y12.4596
G01 X76.5025Y12.4124
G01 X76.5405Y12.3611
G01 X76.5732Y12.3064
G01 X76.6005Y12.2487
G01 X76.6220Y12.1887
G01 X76.6375Y12.1268
G01 X76.6469Y12.0637
G01 X76.6500Y12.0000
G00 X76.6500Y12.0000
G01 Z-0.7500
G01 X76.6469Y11.9363
G01 X76.6375Y11.8732
G01 X76.6220Y11.8113
G01 X76.6005Y11.7513
G01 X76.5732Y11.6936
G01 X76.5405Y11.6389
G01 X76.5025Y11.5876
G01 X76.4596Y11.5404
G01 X76.4124Y11.4975
G01 X76.3611Y11.4595
G01 X76.3064Y11.4268
G01 X76.2487Y11.3995
G01 X76.1887Y11.3780
G01 X76.1268Y11.3625
G01 X76.0637Y11.3531
G01 X76.0000Y11.3500
G01 X75.9363Y11.3531
G01 X75.8732Y11.3625
G01 X75.8113Y11.3780
G01 X75.7513Y11.3995
G01 X75.6936Y11.4268
G01 X75.6389Y11.4595
G01 X75.5876Y11.4975
G01 X75.5404Y11.5404
G01 X75.4975Y11.5876
G01 X75.4595Y11.6389
G01 X75.4268Y11.6936
G01 X75.3995Y11.7513
G01 X75.3780Y11.8113
G01 X75.3625Y11.8732
G01 X75.3531Y11.9363
G01 X75.3500Y12.0000
G01 X75.3531Y12.0637
G01 X75.3625Y12.1268
G01 X75.3780Y12.1887
G01 X75.3995Y12.2487
G01 X75.4268Y12.3064
G01 X75.4595Y12.3611
G01 X75.4975Y12.4124
G01 X75.5404Y12.4596
G01 X75.5876Y12.5025
G01 X75.6389Y12.5405
G01 X75.6936Y12.5732
G01 X75.7513Y12.6005
G01 X75.8113Y12.6220
G01 X75.8732Y12.6375
G01 X75.9363Y12.6469
G01 X76.0000Y12.6500
G01 X76.0637Y12.6469
G01 X76.1268Y12.6375
G01 X76.1887Y12.6220
G01 X76.2487Y12.6005
G01 X76.3064Y12.5732
G01 X76.3611Y12.5405
G01 X76.4124Y12.5025
G01 X76.4596Y12.4596
G01 X76.5025Y12.4124
G01 X76.5405Y12.3611
G01 X76.5732Y12.3064
G01 X76.6005Y12.2487
G01 X76.6220Y12.1887
G01 X76.6375Y12.1268
G01 X76.6469Y12.0637
G01 X76.6500Y12.0000
G00 X76.6500Y12.0000
G01 Z-1.0000
G01 X76.6469Y11.9363
G01 X76.6375Y11.8732
G01 X76.6220Y11.8113
G01 X76.6005Y11.7513
G01 X76.5732Y11.6936
G01 X76.5405Y11.6389
G01 X76.5025Y11.5876
G01 X76.4596Y11.5404
G01 X76.4124Y11.4975
G01 X76.3611Y11.4595
G01 X76.3064Y11.4268
G01 X76.2487Y11.3995
G01 X76.1887Y11.3780
G01 X76.1268Y11.3625
G01 X76.0637Y11.3531
G01 X76.0000Y11.3500
G01 X75.9363Y11.3531
G01 X75.8732Y11.3625
G01 X75.8113Y11.3780
G01 X75.7513Y11.3995
G01 X75.6936Y11.4268
G01 X75.6389Y11.4595
G01 X75.5876Y11.4975
G01 X75.5404Y11.5404
G01 X75.4975Y11.5876
G01 X75.4595Y11.6389
G01 X75.4268Y11.6936
G01 X75.3995Y11.7513
G01 X75.3780Y11.8113
G01 X75.3625Y11.8732
G01 X75.3531Y11.9363
G01 X75.3500Y12.0000
G01 X75.3531Y12.0637
G01 X75.3625Y12.1268
G01 X75.3780Y12.1887
G01 X75.3995Y12.2487
G01 X75.4268Y12.3064
G01 X75.4595Y12.3611
G01 X75.4975Y12.4124
G01 X75.5404Y12.4596
G01 X75.5876Y12.5025
G01 X75.6389Y12.5405
G01 X75.6936Y12.5732
G01 X75.7513Y12.6005
G01 X75.8113Y12.6220
G01 X75.8732Y12.6375
G01 X75.9363Y12.6469
G01 X76.0000Y12.6500
G01 X76.0637Y12.6469
G01 X76.1268Y12.6375
G01 X76.1887Y12.6220
G01 X76.2487Y12.6005
G01 X76.3064Y12.5732
G01 X76.3611Y12.5405
G01 X76.4124Y12.5025
G01 X76.4596Y12.4596
G01 X76.5025Y12.4124
G01 X76.5405Y12.3611
G01 X76.5732Y12.3064
G01 X76.6005Y12.2487
G01 X76.6220Y12.1887
G01 X76.6375Y12.1268
G01 X76.6469Y12.0637
G01 X76.6500Y12.0000
G00 X76.6500Y12.0000
G01 Z-1.2500
G01 X76.6469Y11.9363
G01 X76.6375Y11.8732
G01 X76.6220Y11.8113
G01 X76.6005Y11.7513
G01 X76.5732Y11.6936
G01 X76.5405Y11.6389
G01 X76.5025Y11.5876
G01 X76.4596Y11.5404
G01 X76.4124Y11.4975
G01 X76.3611Y11.4595
G01 X76.3064Y11.4268
G01 X76.2487Y11.3995
G01 X76.1887Y11.3780
G01 X76.1268Y11.3625
G01 X76.0637Y11.3531
G01 X76.0000Y11.3500
G01 X75.9363Y11.3531
G01 X75.8732Y11.3625
G01 X75.8113Y11.3780
G01 X75.7513Y11.3995
G01 X75.6936Y11.4268
G01 X75.6389Y11.4595
G01 X75.5876Y11.4975
G01 X75.5404Y11.5404
G01 X75.4975Y11.5876
G01 X75.4595Y11.6389
G01 X75.4268Y11.6936
G01 X75.3995Y11.7513
G01 X75.3780Y11.8113
G01 X75.3625Y11.8732
G01 X75.3531Y11.9363
G01 X75.3500Y12.0000
G01 X75.3531Y12.0637
G01 X75.3625Y12.1268
G01 X75.3780Y12.1887
G01 X75.3995Y12.2487
G01 X75.4268Y12.3064
G01 X75.4595Y12.3611
G01 X75.4975Y12.4124
G01 X75.5404Y12.4596
G01 X75.5876Y12.5025
G01 X75.6389Y12.5405
G01 X75.6936Y12.5732
G01 X75.7513Y12.6005
G01 X75.8113Y12.6220
G01 X75.8732Y12.6375
G01 X75.9363Y12.6469
G01 X76.0000Y12.6500
G01 X76.0637Y12.6469
G01 X76.1268Y12.6375
G01 X76.1887Y12.6220
G01 X76.2487Y12.6005
G01 X76.3064Y12.5732
G01 X76.3611Y12.5405
G01 X76.4124Y12.5025
G01 X76.4596Y12.4596
G01 X76.5025Y12.4124
G01 X76.5405Y12.3611
G01 X76.5732Y12.3064
G01 X76.6005Y12.2487
G01 X76.6220Y12.1887
G01 X76.6375Y12.1268
G01 X76.6469Y12.0637
G01 X76.6500Y12.0000
G00 X76.6500Y12.0000
G01 Z-1.5000
G01 X76.6469Y11.9363
G01 X76.6375Y11.8732
G01 X76.6220Y11.8113
G01 X76.6005Y11.7513
G01 X76.5732Y11.6936
G01 X76.5405Y11.6389
G01 X76.5025Y11.5876
G01 X76.4596Y11.5404
G01 X76.4124Y11.4975
G01 X76.3611Y11.4595
G01 X76.3064Y11.4268
G01 X76.2487Y11.3995
G01 X76.1887Y11.3780
G01 X76.1268Y11.3625
G01 X76.0637Y11.3531
G01 X76.0000Y11.3500
G01 X75.9363Y11.3531
G01 X75.8732Y11.3625
G01 X75.8113Y11.3780
G01 X75.7513Y11.3995
G01 X75.6936Y11.4268
G01 X75.6389Y11.4595
G01 X75.5876Y11.4975
G01 X75.5404Y11.5404
G01 X75.4975Y11.5876
G01 X75.4595Y11.6389
G01 X75.4268Y11.6936
G01 X75.3995Y11.7513
G01 X75.3780Y11.8113
G01 X75.3625Y11.8732
G01 X75.3531Y11.9363
G01 X75.3500Y12.0000
G01 X75.3531Y12.0637
G01 X75.3625Y12.1268
G01 X75.3780Y12.1887
G01 X75.3995Y12.2487
G01 X75.4268Y12.3064
G01 X75.4595Y12.3611
G01 X75.4975Y12.4124
G01 X75.5404Y12.4596
G01 X75.5876Y12.5025
G01 X75.6389Y12.5405
G01 X75.6936Y12.5732
G01 X75.7513Y12.6005
G01 X75.8113Y12.6220
G01 X75.8732Y12.6375
G01 X75.9363Y12.6469
G01 X76.0000Y12.6500
G01 X76.0637Y12.6469
G01 X76.1268Y12.6375
G01 X76.1887Y12.6220
G01 X76.2487Y12.6005
G01 X76.3064Y12.5732
G01 X76.3611Y12.5405
G01 X76.4124Y12.5025
G01 X76.4596Y12.4596
G01 X76.5025Y12.4124
G01 X76.5405Y12.3611
G01 X76.5732Y12.3064
G01 X76.6005Y12.2487
G01 X76.6220Y12.1887
G01 X76.6375Y12.1268
G01 X76.6469Y12.0637
G01 X76.6500Y12.0000
G00 X76.6500Y12.0000
G01 Z-1.7500
G01 X76.6469Y11.9363
G01 X76.6375Y11.8732
G01 X76.6220Y11.8113
G01 X76.6005Y11.7513
G01 X76.5732Y11.6936
G01 X76.5405Y11.6389
G01 X76.5025Y11.5876
G01 X76.4596Y11.5404
G01 X76.4124Y11.4975
G01 X76.3611Y11.4595
G01 X76.3064Y11.4268
G01 X76.2487Y11.3995
G01 X76.1887Y11.3780
G01 X76.1268Y11.3625
G01 X76.0637Y11.3531
G01 X76.0000Y11.3500
G01 X75.9363Y11.3531
G01 X75.8732Y11.3625
G01 X75.8113Y11.3780
G01 X75.7513Y11.3995
G01 X75.6936Y11.4268
G01 X75.6389Y11.4595
G01 X75.5876Y11.4975
G01 X75.5404Y11.5404
G01 X75.4975Y11.5876
G01 X75.4595Y11.6389
G01 X75.4268Y11.6936
G01 X75.3995Y11.7513
G01 X75.3780Y11.8113
G01 X75.3625Y11.8732
G01 X75.3531Y11.9363
G01 X75.3500Y12.0000
G01 X75.3531Y12.0637
G01 X75.3625Y12.1268
G01 X75.3780Y12.1887
G01 X75.3995Y12.2487
G01 X75.4268Y12.3064
G01 X75.4595Y12.3611
G01 X75.4975Y12.4124
G01 X75.5404Y12.4596
G01 X75.5876Y12.5025
G01 X75.6389Y12.5405
G01 X75.6936Y12.5732
G01 X75.7513Y12.6005
G01 X75.8113Y12.6220
G01 X75.8732Y12.6375
G01 X75.9363Y12.6469
G01 X76.0000Y12.6500
G01 X76.0637Y12.6469
G01 X76.1268Y12.6375
G01 X76.1887Y12.6220
G01 X76.2487Y12.6005
G01 X76.3064Y12.5732
G01 X76.3611Y12.5405
G01 X76.4124Y12.5025
G01 X76.4596Y12.4596
G01 X76.5025Y12.4124
G01 X76.5405Y12.3611
G01 X76.5732Y12.3064
G01 X76.6005Y12.2487
G01 X76.6220Y12.1887
G01 X76.6375Y12.1268
G01 X76.6469Y12.0637
G01 X76.6500Y12.0000
G00 X76.6500Y12.0000
G01 Z-2.0000
G01 X76.6469Y11.9363
G01 X76.6375Y11.8732
G01 X76.6220Y11.8113
G01 X76.6005Y11.7513
G01 X76.5732Y11.6936
G01 X76.5405Y11.6389
G01 X76.5025Y11.5876
G01 X76.4596Y11.5404
G01 X76.4124Y11.4975
G01 X76.3611Y11.4595
G01 X76.3064Y11.4268
G01 X76.2487Y11.3995
G01 X76.1887Y11.3780
G01 X76.1268Y11.3625
G01 X76.0637Y11.3531
G01 X76.0000Y11.3500
G01 X75.9363Y11.3531
G01 X75.8732Y11.3625
G01 X75.8113Y11.3780
G01 X75.7513Y11.3995
G01 X75.6936Y11.4268
G01 X75.6389Y11.4595
G01 X75.5876Y11.4975
G01 X75.5404Y11.5404
G01 X75.4975Y11.5876
G01 X75.4595Y11.6389
G01 X75.4268Y11.6936
G01 X75.3995Y11.7513
G01 X75.3780Y11.8113
G01 X75.3625Y11.8732
G01 X75.3531Y11.9363
G01 X75.3500Y12.0000
G01 X75.3531Y12.0637
G01 X75.3625Y12.1268
G01 X75.3780Y12.1887
G01 X75.3995Y12.2487
G01 X75.4268Y12.3064
G01 X75.4595Y12.3611
G01 X75.4975Y12.4124
G01 X75.5404Y12.4596
G01 X75.5876Y12.5025
G01 X75.6389Y12.5405
G01 X75.6936Y12.5732
G01 X75.7513Y12.6005
G01 X75.8113Y12.6220
G01 X75.8732Y12.6375
G01 X75.9363Y12.6469
G01 X76.0000Y12.6500
G01 X76.0637Y12.6469
G01 X76.1268Y12.6375
G01 X76.1887Y12.6220
G01 X76.2487Y12.6005
G01 X76.3064Y12.5732
G01 X76.3611Y12.5405
G01 X76.4124Y12.5025
G01 X76.4596Y12.4596
G01 X76.5025Y12.4124
G01 X76.5405Y12.3611
G01 X76.5732Y12.3064
G01 X76.6005Y12.2487
G01 X76.6220Y12.1887
G01 X76.6375Y12.1268
G01 X76.6469Y12.0637
G01 X76.6500Y12.0000
G00 Z3.0000
G00 X121.6500Y12.0000
G01 Z-0.2500
G01 X121.6469Y11.9363
G01 X121.6375Y11.8732
G01 X121.6220Y11.8113
G01 X121.6005Y11.7513
G01 X121.5732Y11.6936
G01 X121.5405Y11.6389
G01 X121.5025Y11.5876
G01 X121.4596Y11.5404
G01 X121.4124Y11.4975
G01 X121.3611Y11.4595
G01 X121.3064Y11.4268
G01 X121.2487Y11.3995
G01 X121.1887Y11.3780
G01 X121.1268Y11.3625
G01 X121.0637Y11.3531
G01 X121.0000Y11.3500
G01 X120.9363Y11.3531
G01 X120.8732Y11.3625
G01 X120.8113Y11.3780
G01 X120.7513Y11.3995
G01 X120.6936Y11.4268
G01 X120.6389Y11.4595
G01 X120.5876Y11.4975
G01 X120.5404Y11.5404
G01 X120.4975Y11.5876
G01 X120.4595Y11.6389
G01 X120.4268Y11.6936
G01 X120.3995Y11.7513
G01 X120.3780Y11.8113
G01 X120.3625Y11.8732
G01 X120.3531Y11.9363
G01 X120.3500Y12.0000
G01 X120.3531Y12.0637
G01 X120.3625Y12.1268
G01 X120.3780Y12.1887
G01 X120.3995Y12.2487
G01 X120.4268Y12.3064
G01 X120.4595Y12.3611
G01 X120.4975Y12.4124
G01 X120.5404Y12.4596
G01 X120.5876Y12.5025
G01 X120.6389Y12.5405
G01 X120.6936Y12.5732
G01 X120.7513Y12.6005
G01 X120.8113Y12.6220
G01 X120.8732Y12.6375
G01 X120.9363Y12.6469
G01 X121.0000Y12.6500
G01 X121.0637Y12.6469
G01 X121.1268Y12.6375
G01 X121.1887Y12.6220
G01 X121.2487Y12.6005
G01 X121.3064Y12.5732
G01 X121.3611Y12.5405
G01 X121.4124Y12.5025
G01 X121.4596Y12.4596
G01 X121.5025Y12.4124
G01 X121.5405Y12.3611
G01 X121.5732Y12.3064
G01 X121.6005Y12.2487
G01 X121.6220Y12.1887
G01 X121.6375Y12.1268
G01 X121.6469Y12.0637
G01 X121.6500Y12.0000
G00 X121.6500Y12.0000
G01 Z-0.5000
G01 X121.6469Y11.9363
G01 X121.6375Y11.8732
G01 X121.6220Y11.8113
G01 X121.6005Y11.7513
G01 X121.5732Y11.6936
G01 X121.5405Y11.6389
G01 X121.5025Y11.5876
G01 X121.4596Y11.5404
G01 X121.4124Y11.4975
G01 X121.3611Y11.4595
G01 X121.3064Y11.4268
G01 X121.2487Y11.3995
G01 X121.1887Y11.3780
G01 X121.1268Y11.3625
G01 X121.0637Y11.3531
G01 X121.0000Y11.3500
G01 X120.9363Y11.3531
G01 X120.8732Y11.3625
G01 X120.8113Y11.3780
G01 X120.7513Y11.3995
G01 X120.6936Y11.4268
G01 X120.6389Y11.4595
G01 X120.5876Y11.4975
G01 X120.5404Y11.5404
G01 X120.4975Y11.5876
G01 X120.4595Y11.6389
G01 X120.4268Y11.6936
G01 X120.3995Y11.7513
G01 X120.3780Y11.8113
G01 X120.3625Y11.8732
G01 X120.3531Y11.9363
G01 X120.3500Y12.0000
G01 X120.3531Y12.0637
G01 X120.3625Y12.1268
G01 X120.3780Y12.1887
G01 X120.3995Y12.2487
G01 X120.4268Y12.3064
G01 X120.4595Y12.3611
G01 X120.4975Y12.4124
G01 X120.5404Y12.4596
G01 X120.5876Y12.5025
G01 X120.6389Y12.5405
G01 X120.6936Y12.5732
G01 X120.7513Y12.6005
G01 X120.8113Y12.6220
G01 X120.8732Y12.6375
G01 X120.9363Y12.6469
G01 X121.0000Y12.6500
G01 X121.0637Y12.6469
G01 X121.1268Y12.6375
G01 X121.1887Y12.6220
G01 X121.2487Y12.6005
G01 X121.3064Y12.5732
G01 X121.3611Y12.5405
G01 X121.4124Y12.5025
G01 X121.4596Y12.4596
G01 X121.5025Y12.4124
G01 X121.5405Y12.3611
G01 X121.5732Y12.3064
G01 X121.6005Y12.2487
G01 X121.6220Y12.1887
G01 X121.6375Y12.1268
G01 X121.6469Y12.0637
G01 X121.6500Y12.0000
G00 X121.6500Y12.0000
G01 Z-0.7500
G01 X121.6469Y11.9363
G01 X121.6375Y11.8732
G01 X121.6220Y11.8113
G01 X121.6005Y11.7513
G01 X121.5732Y11.6936
G01 X121.5405Y11.6389
G01 X121.5025Y11.5876
G01 X121.4596Y11.5404
G01 X121.4124Y11.4975
G01 X121.3611Y11.4595
G01 X121.3064Y11.4268
G01 X121.2487Y11.3995
G01 X121.1887Y11.3780
G01 X121.1268Y11.3625
G01 X121.0637Y11.3531
G01 X121.0000Y11.3500
G01 X120.9363Y11.3531
G01 X120.8732Y11.3625
G01 X120.8113Y11.3780
G01 X120.7513Y11.3995
G01 X120.6936Y11.4268
G01 X120.6389Y11.4595
G01 X120.5876Y11.4975
G01 X120.5404Y11.5404
G01 X120.4975Y11.5876
G01 X120.4595Y11.6389
G01 X120.4268Y11.6936
G01 X120.3995Y11.7513
G01 X120.3780Y11.8113
G01 X120.3625Y11.8732
G01 X120.3531Y11.9363
G01 X120.3500Y12.0000
G01 X120.3531Y12.0637
G01 X120.3625Y12.1268
G01 X120.3780Y12.1887
G01 X120.3995Y12.2487
G01 X120.4268Y12.3064
G01 X120.4595Y12.3611
G01 X120.4975Y12.4124
G01 X120.5404Y12.4596
G01 X120.5876Y12.5025
G01 X120.6389Y12.5405
G01 X120.6936Y12.5732
G01 X120.7513Y12.6005
G01 X120.8113Y12.6220
G01 X120.8732Y12.6375
G01 X120.9363Y12.6469
G01 X121.0000Y12.6500
G01 X121.0637Y12.6469
G01 X121.1268Y12.6375
G01 X121.1887Y12.6220
G01 X121.2487Y12.6005
G01 X121.3064Y12.5732
G01 X121.3611Y12.5405
G01 X121.4124Y12.5025
G01 X121.4596Y12.4596
G01 X121.5025Y12.4124
G01 X121.5405Y12.3611
G01 X121.5732Y12.3064
G01 X121.6005Y12.2487
G01 X121.6220Y12.1887
G01 X121.6375Y12.1268
G01 X121.6469Y12.0637
G01 X121.6500Y12.0000
G00 X121.6500Y12.0000
G01 Z-1.0000
G01 X121.6469Y11.9363
G01 X121.6375Y11.8732
G01 X121.6220Y11.8113
G01 X121.6005Y11.7513
G01 X121.5732Y11.6936
G01 X121.5405Y11.6389
G01 X121.5025Y11.5876
G01 X121.4596Y11.5404
G01 X121.4124Y11.4975
G01 X121.3611Y11.4595
G01 X121.3064Y11.4268
G01 X121.2487Y11.3995
G01 X121.1887Y11.3780
G01 X121.1268Y11.3625
G01 X121.0637Y11.3531
G01 X121.0000Y11.3500
G01 X120.9363Y11.3531
G01 X120.8732Y11.3625
G01 X120.8113Y11.3780
G01 X120.7513Y11.3995
G01 X120.6936Y11.4268
G01 X120.6389Y11.4595
G01 X120.5876Y11.4975
G01 X120.5404Y11.5404
G01 X120.4975Y11.5876
G01 X120.4595Y11.6389
G01 X120.4268Y11.6936
G01 X120.3995Y11.7513
G01 X120.3780Y11.8113
G01 X120.3625Y11.8732
G01 X120.3531Y11.9363
G01 X120.3500Y12.0000
G01 X120.3531Y12.0637
G01 X120.3625Y12.1268
G01 X120.3780Y12.1887
G01 X120.3995Y12.2487
G01 X120.4268Y12.3064
G01 X120.4595Y12.3611
G01 X120.4975Y12.4124
G01 X120.5404Y12.4596
G01 X120.5876Y12.5025
G01 X120.6389Y12.5405
G01 X120.6936Y12.5732
G01 X120.7513Y12.6005
G01 X120.8113Y12.6220
G01 X120.8732Y12.6375
G01 X120.9363Y12.6469
G01 X121.0000Y12.6500
G01 X121.0637Y12.6469
G01 X121.1268Y12.6375
G01 X121.1887Y12.6220
G01 X121.2487Y12.6005
G01 X121.3064Y12.5732
G01 X121.3611Y12.5405
G01 X121.4124Y12.5025
G01 X121.4596Y12.4596
G01 X121.5025Y12.4124
G01 X121.5405Y12.3611
G01 X121.5732Y12.3064
G01 X121.6005Y12.2487
G01 X121.6220Y12.1887
G01 X121.6375Y12.1268
G01 X121.6469Y12.0637
G01 X121.6500Y12.0000
G00 X121.6500Y12.0000
G01 Z-1.2500
G01 X121.6469Y11.9363
G01 X121.6375Y11.8732
G01 X121.6220Y11.8113
G01 X121.6005Y11.7513
G01 X121.5732Y11.6936
G01 X121.5405Y11.6389
G01 X121.5025Y11.5876
G01 X121.4596Y11.5404
G01 X121.4124Y11.4975
G01 X121.3611Y11.4595
G01 X121.3064Y11.4268
G01 X121.2487Y11.3995
G01 X121.1887Y11.3780
G01 X121.1268Y11.3625
G01 X121.0637Y11.3531
G01 X121.0000Y11.3500
G01 X120.9363Y11.3531
G01 X120.8732Y11.3625
G01 X120.8113Y11.3780
G01 X120.7513Y11.3995
G01 X120.6936Y11.4268
G01 X120.6389Y11.4595
G01 X120.5876Y11.4975
G01 X120.5404Y11.5404
G01 X120.4975Y11.5876
G01 X120.4595Y11.6389
G01 X120.4268Y11.6936
G01 X120.3995Y11.7513
G01 X120.3780Y11.8113
G01 X120.3625Y11.8732
G01 X120.3531Y11.9363
G01 X120.3500Y12.0000
G01 X120.3531Y12.0637
G01 X120.3625Y12.1268
G01 X120.3780Y12.1887
G01 X120.3995Y12.2487
G01 X120.4268Y12.3064
G01 X120.4595Y12.3611
G01 X120.4975Y12.4124
G01 X120.5404Y12.4596
G01 X120.5876Y12.5025
G01 X120.6389Y12.5405
G01 X120.6936Y12.5732
G01 X120.7513Y12.6005
G01 X120.8113Y12.6220
G01 X120.8732Y12.6375
G01 X120.9363Y12.6469
G01 X121.0000Y12.6500
G01 X121.0637Y12.6469
G01 X121.1268Y12.6375
G01 X121.1887Y12.6220
G01 X121.2487Y12.6005
G01 X121.3064Y12.5732
G01 X121.3611Y12.5405
G01 X121.4124Y12.5025
G01 X121.4596Y12.4596
G01 X121.5025Y12.4124
G01 X121.5405Y12.3611
G01 X121.5732Y12.3064
G01 X121.6005Y12.2487
G01 X121.6220Y12.1887
G01 X121.6375Y12.1268
G01 X121.6469Y12.0637
G01 X121.6500Y12.0000
G00 X121.6500Y12.0000
G01 Z-1.5000
G01 X121.6469Y11.9363
G01 X121.6375Y11.8732
G01 X121.6220Y11.8113
G01 X121.6005Y11.7513
G01 X121.5732Y11.6936
G01 X121.5405Y11.6389
G01 X121.5025Y11.5876
G01 X121.4596Y11.5404
G01 X121.4124Y11.4975
G01 X121.3611Y11.4595
G01 X121.3064Y11.4268
G01 X121.2487Y11.3995
G01 X121.1887Y11.3780
G01 X121.1268Y11.3625
G01 X121.0637Y11.3531
G01 X121.0000Y11.3500
G01 X120.9363Y11.3531
G01 X120.8732Y11.3625
G01 X120.8113Y11.3780
G01 X120.7513Y11.3995
G01 X120.6936Y11.4268
G01 X120.6389Y11.4595
G01 X120.5876Y11.4975
G01 X120.5404Y11.5404
G01 X120.4975Y11.5876
G01 X120.4595Y11.6389
G01 X120.4268Y11.6936
G01 X120.3995Y11.7513
G01 X120.3780Y11.8113
G01 X120.3625Y11.8732
G01 X120.3531Y11.9363
G01 X120.3500Y12.0000
G01 X120.3531Y12.0637
G01 X120.3625Y12.1268
G01 X120.3780Y12.1887
G01 X120.3995Y12.2487
G01 X120.4268Y12.3064
G01 X120.4595Y12.3611
G01 X120.4975Y12.4124
G01 X120.5404Y12.4596
G01 X120.5876Y12.5025
G01 X120.6389Y12.5405
G01 X120.6936Y12.5732
G01 X120.7513Y12.6005
G01 X120.8113Y12.6220
G01 X120.8732Y12.6375
G01 X120.9363Y12.6469
G01 X121.0000Y12.6500
G01 X121.0637Y12.6469
G01 X121.1268Y12.6375
G01 X121.1887Y12.6220
G01 X121.2487Y12.6005
G01 X121.3064Y12.5732
G01 X121.3611Y12.5405
G01 X121.4124Y12.5025
G01 X121.4596Y12.4596
G01 X121.5025Y12.4124
G01 X121.5405Y12.3611
G01 X121.5732Y12.3064
G01 X121.6005Y12.2487
G01 X121.6220Y12.1887
G01 X121.6375Y12.1268
G01 X121.6469Y12.0637
G01 X121.6500Y12.0000
G00 X121.6500Y12.0000
G01 Z-1.7500
G01 X121.6469Y11.9363
G01 X121.6375Y11.8732
G01 X121.6220Y11.8113
G01 X121.6005Y11.7513
G01 X121.5732Y11.6936
G01 X121.5405Y11.6389
G01 X121.5025Y11.5876
G01 X121.4596Y11.5404
G01 X121.4124Y11.4975
G01 X121.3611Y11.4595
G01 X121.3064Y11.4268
G01 X121.2487Y11.3995
G01 X121.1887Y11.3780
G01 X121.1268Y11.3625
G01 X121.0637Y11.3531
G01 X121.0000Y11.3500
G01 X120.9363Y11.3531
G01 X120.8732Y11.3625
G01 X120.8113Y11.3780
G01 X120.7513Y11.3995
G01 X120.6936Y11.4268
G01 X120.6389Y11.4595
G01 X120.5876Y11.4975
G01 X120.5404Y11.5404
G01 X120.4975Y11.5876
G01 X120.4595Y11.6389
G01 X120.4268Y11.6936
G01 X120.3995Y11.7513
G01 X120.3780Y11.8113
G01 X120.3625Y11.8732
G01 X120.3531Y11.9363
G01 X120.3500Y12.0000
G01 X120.3531Y12.0637
G01 X120.3625Y12.1268
G01 X120.3780Y12.1887
G01 X120.3995Y12.2487
G01 X120.4268Y12.3064
G01 X120.4595Y12.3611
G01 X120.4975Y12.4124
G01 X120.5404Y12.4596
G01 X120.5876Y12.5025
G01 X120.6389Y12.5405
G01 X120.6936Y12.5732
G01 X120.7513Y12.6005
G01 X120.8113Y12.6220
G01 X120.8732Y12.6375
G01 X120.9363Y12.6469
G01 X121.0000Y12.6500
G01 X121.0637Y12.6469
G01 X121.1268Y12.6375
G01 X121.1887Y12.6220
G01 X121.2487Y12.6005
G01 X121.3064Y12.5732
G01 X121.3611Y12.5405
G01 X121.4124Y12.5025
G01 X121.4596Y12.4596
G01 X121.5025Y12.4124
G01 X121.5405Y12.3611
G01 X121.5732Y12.3064
G01 X121.6005Y12.2487
G01 X121.6220Y12.1887
G01 X121.6375Y12.1268
G01 X121.6469Y12.0637
G01 X121.6500Y12.0000
G00 X121.6500Y12.0000
G01 Z-2.0000
G01 X121.6469Y11.9363
G01 X121.6375Y11.8732
G01 X121.6220Y11.8113
G01 X121.6005Y11.7513
G01 X121.5732Y11.6936
G01 X121.5405Y11.6389
G01 X121.5025Y11.5876
G01 X121.4596Y11.5404
G01 X121.4124Y11.4975
G01 X121.3611Y11.4595
G01 X121.3064Y11.4268
G01 X121.2487Y11.3995
G01 X121.1887Y11.3780
G01 X121.1268Y11.3625
G01 X121.0637Y11.3531
G01 X121.0000Y11.3500
G01 X120.9363Y11.3531
G01 X120.8732Y11.3625
G01 X120.8113Y11.3780
G01 X120.7513Y11.3995
G01 X120.6936Y11.4268
G01 X120.6389Y11.4595
G01 X120.5876Y11.4975
G01 X120.5404Y11.5404
G01 X120.4975Y11.5876
G01 X120.4595Y11.6389
G01 X120.4268Y11.6936
G01 X120.3995Y11.7513
G01 X120.3780Y11.8113
G01 X120.3625Y11.8732
G01 X120.3531Y11.9363
G01 X120.3500Y12.0000
G01 X120.3531Y12.0637
G01 X120.3625Y12.1268
G01 X120.3780Y12.1887
G01 X120.3995Y12.2487
G01 X120.4268Y12.3064
G01 X120.4595Y12.3611
G01 X120.4975Y12.4124
G01 X120.5404Y12.4596
G01 X120.5876Y12.5025
G01 X120.6389Y12.5405
G01 X120.6936Y12.5732
G01 X120.7513Y12.6005
G01 X120.8113Y12.6220
G01 X120.8732Y12.6375
G01 X120.9363Y12.6469
G01 X121.0000Y12.6500
G01 X121.0637Y12.6469
G01 X121.1268Y12.6375
G01 X121.1887Y12.6220
G01 X121.2487Y12.6005
G01 X121.3064Y12.5732
G01 X121.3611Y12.5405
G01 X121.4124Y12.5025
G01 X121.4596Y12.4596
G01 X121.5025Y12.4124
G01 X121.5405Y12.3611
G01 X121.5732Y12.3064
G01 X121.6005Y12.2487
G01 X121.6220Y12.1887
G01 X121.6375Y12.1268
G01 X121.6469Y12.0637
G01 X121.6500Y12.0000
G00 Z3.0000
G00 X166.6500Y12.0000
G01 Z-0.2500
G01 X166.6469Y11.9363
G01 X166.6375Y11.8732
G01 X166.6220Y11.8113
G01 X166.6005Y11.7513
G01 X166.5732Y11.6936
G01 X166.5405Y11.6389
G01 X166.5025Y11.5876
G01 X166.4596Y11.5404
G01 X166.4124Y11.4975
G01 X166.3611Y11.4595
G01 X166.3064Y11.4268
G01 X166.2487Y11.3995
G01 X166.1887Y11.3780
G01 X166.1268Y11.3625
G01 X166.0637Y11.3531
G01 X166.0000Y11.3500
G01 X165.9363Y11.3531
G01 X165.8732Y11.3625
G01 X165.8113Y11.3780
G01 X165.7513Y11.3995
G01 X165.6936Y11.4268
G01 X165.6389Y11.4595
G01 X165.5876Y11.4975
G01 X165.5404Y11.5404
G01 X165.4975Y11.5876
G01 X165.4595Y11.6389
G01 X165.4268Y11.6936
G01 X165.3995Y11.7513
G01 X165.3780Y11.8113
G01 X165.3625Y11.8732
G01 X165.3531Y11.9363
G01 X165.3500Y12.0000
G01 X165.3531Y12.0637
G01 X165.3625Y12.1268
G01 X165.3780Y12.1887
G01 X165.3995Y12.2487
G01 X165.4268Y12.3064
G01 X165.4595Y12.3611
G01 X165.4975Y12.4124
G01 X165.5404Y12.4596
G01 X165.5876Y12.5025
G01 X165.6389Y12.5405
G01 X165.6936Y12.5732
G01 X165.7513Y12.6005
G01 X165.8113Y12.6220
G01 X165.8732Y12.6375
G01 X165.9363Y12.6469
G01 X166.0000Y12.6500
G01 X166.0637Y12.6469
G01 X166.1268Y12.6375
G01 X166.1887Y12.6220
G01 X166.2487Y12.6005
G01 X166.3064Y12.5732
G01 X166.3611Y12.5405
G01 X166.4124Y12.5025
G01 X166.4596Y12.4596
G01 X166.5025Y12.4124
G01 X166.5405Y12.3611
G01 X166.5732Y12.3064
G01 X166.6005Y12.2487
G01 X166.6220Y12.1887
G01 X166.6375Y12.1268
G01 X166.6469Y12.0637
G01 X166.6500Y12.0000
G00 X166.6500Y12.0000
G01 Z-0.5000
G01 X166.6469Y11.9363
G01 X166.6375Y11.8732
G01 X166.6220Y11.8113
G01 X166.6005Y11.7513
G01 X166.5732Y11.6936
G01 X166.5405Y11.6389
G01 X166.5025Y11.5876
G01 X166.4596Y11.5404
G01 X166.4124Y11.4975
G01 X166.3611Y11.4595
G01 X166.3064Y11.4268
G01 X166.2487Y11.3995
G01 X166.1887Y11.3780
G01 X166.1268Y11.3625
G01 X166.0637Y11.3531
G01 X166.0000Y11.3500
G01 X165.9363Y11.3531
G01 X165.8732Y11.3625
G01 X165.8113Y11.3780
G01 X165.7513Y11.3995
G01 X165.6936Y11.4268
G01 X165.6389Y11.4595
G01 X165.5876Y11.4975
G01 X165.5404Y11.5404
G01 X165.4975Y11.5876
G01 X165.4595Y11.6389
G01 X165.4268Y11.6936
G01 X165.3995Y11.7513
G01 X165.3780Y11.8113
G01 X165.3625Y11.8732
G01 X165.3531Y11.9363
G01 X165.3500Y12.0000
G01 X165.3531Y12.0637
G01 X165.3625Y12.1268
G01 X165.3780Y12.1887
G01 X165.3995Y12.2487
G01 X165.4268Y12.3064
G01 X165.4595Y12.3611
G01 X165.4975Y12.4124
G01 X165.5404Y12.4596
G01 X165.5876Y12.5025
G01 X165.6389Y12.5405
G01 X165.6936Y12.5732
G01 X165.7513Y12.6005
G01 X165.8113Y12.6220
G01 X165.8732Y12.6375
G01 X165.9363Y12.6469
G01 X166.0000Y12.6500
G01 X166.0637Y12.6469
G01 X166.1268Y12.6375
G01 X166.1887Y12.6220
G01 X166.2487Y12.6005
G01 X166.3064Y12.5732
G01 X166.3611Y12.5405
G01 X166.4124Y12.5025
G01 X166.4596Y12.4596
G01 X166.5025Y12.4124
G01 X166.5405Y12.3611
G01 X166.5732Y12.3064
G01 X166.6005Y12.2487
G01 X166.6220Y12.1887
G01 X166.6375Y12.1268
G01 X166.6469Y12.0637
G01 X166.6500Y12.0000
G00 X166.6500Y12.0000
G01 Z-0.7500
G01 X166.6469Y11.9363
G01 X166.6375Y11.8732
G01 X166.6220Y11.8113
G01 X166.6005Y11.7513
G01 X166.5732Y11.6936
G01 X166.5405Y11.6389
G01 X166.5025Y11.5876
G01 X166.4596Y11.5404
G01 X166.4124Y11.4975
G01 X166.3611Y11.4595
G01 X166.3064Y11.4268
G01 X166.2487Y11.3995
G01 X166.1887Y11.3780
G01 X166.1268Y11.3625
G01 X166.0637Y11.3531
G01 X166.0000Y11.3500
G01 X165.9363Y11.3531
G01 X165.8732Y11.3625
G01 X165.8113Y11.3780
G01 X165.7513Y11.3995
G01 X165.6936Y11.4268
G01 X165.6389Y11.4595
G01 X165.5876Y11.4975
G01 X165.5404Y11.5404
G01 X165.4975Y11.5876
G01 X165.4595Y11.6389
G01 X165.4268Y11.6936
G01 X165.3995Y11.7513
G01 X165.3780Y11.8113
G01 X165.3625Y11.8732
G01 X165.3531Y11.9363
G01 X165.3500Y12.0000
G01 X165.3531Y12.0637
G01 X165.3625Y12.1268
G01 X165.3780Y12.1887
G01 X165.3995Y12.2487
G01 X165.4268Y12.3064
G01 X165.4595Y12.3611
G01 X165.4975Y12.4124
G01 X165.5404Y12.4596
G01 X165.5876Y12.5025
G01 X165.6389Y12.5405
G01 X165.6936Y12.5732
G01 X165.7513Y12.6005
G01 X165.8113Y12.6220
G01 X165.8732Y12.6375
G01 X165.9363Y12.6469
G01 X166.0000Y12.6500
G01 X166.0637Y12.6469
G01 X166.1268Y12.6375
G01 X166.1887Y12.6220
G01 X166.2487Y12.6005
G01 X166.3064Y12.5732
G01 X166.3611Y12.5405
G01 X166.4124Y12.5025
G01 X166.4596Y12.4596
G01 X166.5025Y12.4124
G01 X166.5405Y12.3611
G01 X166.5732Y12.3064
G01 X166.6005Y12.2487
G01 X166.6220Y12.1887
G01 X166.6375Y12.1268
G01 X166.6469Y12.0637
G01 X166.6500Y12.0000
G00 X166.6500Y12.0000
G01 Z-1.0000
G01 X166.6469Y11.9363
G01 X166.6375Y11.8732
G01 X166.6220Y11.8113
G01 X166.6005Y11.7513
G01 X166.5732Y11.6936
G01 X166.5405Y11.6389
G01 X166.5025Y11.5876
G01 X166.4596Y11.5404
G01 X166.4124Y11.4975
G01 X166.3611Y11.4595
G01 X166.3064Y11.4268
G01 X166.2487Y11.3995
G01 X166.1887Y11.3780
G01 X166.1268Y11.3625
G01 X166.0637Y11.3531
G01 X166.0000Y11.3500
G01 X165.9363Y11.3531
G01 X165.8732Y11.3625
G01 X165.8113Y11.3780
G01 X165.7513Y11.3995
G01 X165.6936Y11.4268
G01 X165.6389Y11.4595
G01 X165.5876Y11.4975
G01 X165.5404Y11.5404
G01 X165.4975Y11.5876
G01 X165.4595Y11.6389
G01 X165.4268Y11.6936
G01 X165.3995Y11.7513
G01 X165.3780Y11.8113
G01 X165.3625Y11.8732
G01 X165.3531Y11.9363
G01 X165.3500Y12.0000
G01 X165.3531Y12.0637
G01 X165.3625Y12.1268
G01 X165.3780Y12.1887
G01 X165.3995Y12.2487
G01 X165.4268Y12.3064
G01 X165.4595Y12.3611
G01 X165.4975Y12.4124
G01 X165.5404Y12.4596
G01 X165.5876Y12.5025
G01 X165.6389Y12.5405
G01 X165.6936Y12.5732
G01 X165.7513Y12.6005
G01 X165.8113Y12.6220
G01 X165.8732Y12.6375
G01 X165.9363Y12.6469
G01 X166.0000Y12.6500
G01 X166.0637Y12.6469
G01 X166.1268Y12.6375
G01 X166.1887Y12.6220
G01 X166.2487Y12.6005
G01 X166.3064Y12.5732
G01 X166.3611Y12.5405
G01 X166.4124Y12.5025
G01 X166.4596Y12.4596
G01 X166.5025Y12.4124
G01 X166.5405Y12.3611
G01 X166.5732Y12.3064
G01 X166.6005Y12.2487
G01 X166.6220Y12.1887
G01 X166.6375Y12.1268
G01 X166.6469Y12.0637
G01 X166.6500Y12.0000
G00 X166.6500Y12.0000
G01 Z-1.2500
G01 X166.6469Y11.9363
G01 X166.6375Y11.8732
G01 X166.6220Y11.8113
G01 X166.6005Y11.7513
G01 X166.5732Y11.6936
G01 X166.5405Y11.6389
G01 X166.5025Y11.5876
G01 X166.4596Y11.5404
G01 X166.4124Y11.4975
G01 X166.3611Y11.4595
G01 X166.3064Y11.4268
G01 X166.2487Y11.3995
G01 X166.1887Y11.3780
G01 X166.1268Y11.3625
G01 X166.0637Y11.3531
G01 X166.0000Y11.3500
G01 X165.9363Y11.3531
G01 X165.8732Y11.3625
G01 X165.8113Y11.3780
G01 X165.7513Y11.3995
G01 X165.6936Y11.4268
G01 X165.6389Y11.4595
G01 X165.5876Y11.4975
G01 X165.5404Y11.5404
G01 X165.4975Y11.5876
G01 X165.4595Y11.6389
G01 X165.4268Y11.6936
G01 X165.3995Y11.7513
G01 X165.3780Y11.8113
G01 X165.3625Y11.8732
G01 X165.3531Y11.9363
G01 X165.3500Y12.0000
G01 X165.3531Y12.0637
G01 X165.3625Y12.1268
G01 X165.3780Y12.1887
G01 X165.3995Y12.2487
G01 X165.4268Y12.3064
G01 X165.4595Y12.3611
G01 X165.4975Y12.4124
G01 X165.5404Y12.4596
G01 X165.5876Y12.5025
G01 X165.6389Y12.5405
G01 X165.6936Y12.5732
G01 X165.7513Y12.6005
G01 X165.8113Y12.6220
G01 X165.8732Y12.6375
G01 X165.9363Y12.6469
G01 X166.0000Y12.6500
G01 X166.0637Y12.6469
G01 X166.1268Y12.6375
G01 X166.1887Y12.6220
G01 X166.2487Y12.6005
G01 X166.3064Y12.5732
G01 X166.3611Y12.5405
G01 X166.4124Y12.5025
G01 X166.4596Y12.4596
G01 X166.5025Y12.4124
G01 X166.5405Y12.3611
G01 X166.5732Y12.3064
G01 X166.6005Y12.2487
G01 X166.6220Y12.1887
G01 X166.6375Y12.1268
G01 X166.6469Y12.0637
G01 X166.6500Y12.0000
G00 X166.6500Y12.0000
G01 Z-1.5000
G01 X166.6469Y11.9363
G01 X166.6375Y11.8732
G01 X166.6220Y11.8113
G01 X166.6005Y11.7513
G01 X166.5732Y11.6936
G01 X166.5405Y11.6389
G01 X166.5025Y11.5876
G01 X166.4596Y11.5404
G01 X166.4124Y11.4975
G01 X166.3611Y11.4595
G01 X166.3064Y11.4268
G01 X166.2487Y11.3995
G01 X166.1887Y11.3780
G01 X166.1268Y11.3625
G01 X166.0637Y11.3531
G01 X166.0000Y11.3500
G01 X165.9363Y11.3531
G01 X165.8732Y11.3625
G01 X165.8113Y11.3780
G01 X165.7513Y11.3995
G01 X165.6936Y11.4268
G01 X165.6389Y11.4595
G01 X165.5876Y11.4975
G01 X165.5404Y11.5404
G01 X165.4975Y11.5876
G01 X165.4595Y11.6389
G01 X165.4268Y11.6936
G01 X165.3995Y11.7513
G01 X165.3780Y11.8113
G01 X165.3625Y11.8732
G01 X165.3531Y11.9363
G01 X165.3500Y12.0000
G01 X165.3531Y12.0637
G01 X165.3625Y12.1268
G01 X165.3780Y12.1887
G01 X165.3995Y12.2487
G01 X165.4268Y12.3064
G01 X165.4595Y12.3611
G01 X165.4975Y12.4124
G01 X165.5404Y12.4596
G01 X165.5876Y12.5025
G01 X165.6389Y12.5405
G01 X165.6936Y12.5732
G01 X165.7513Y12.6005
G01 X165.8113Y12.6220
G01 X165.8732Y12.6375
G01 X165.9363Y12.6469
G01 X166.0000Y12.6500
G01 X166.0637Y12.6469
G01 X166.1268Y12.6375
G01 X166.1887Y12.6220
G01 X166.2487Y12.6005
G01 X166.3064Y12.5732
G01 X166.3611Y12.5405
G01 X166.4124Y12.5025
G01 X166.4596Y12.4596
G01 X166.5025Y12.4124
G01 X166.5405Y12.3611
G01 X166.5732Y12.3064
G01 X166.6005Y12.2487
G01 X166.6220Y12.1887
G01 X166.6375Y12.1268
G01 X166.6469Y12.0637
G01 X166.6500Y12.0000
G00 X166.6500Y12.0000
G01 Z-1.7500
G01 X166.6469Y11.9363
G01 X166.6375Y11.8732
G01 X166.6220Y11.8113
G01 X166.6005Y11.7513
G01 X166.5732Y11.6936
G01 X166.5405Y11.6389
G01 X166.5025Y11.5876
G01 X166.4596Y11.5404
G01 X166.4124Y11.4975
G01 X166.3611Y11.4595
G01 X166.3064Y11.4268
G01 X166.2487Y11.3995
G01 X166.1887Y11.3780
G01 X166.1268Y11.3625
G01 X166.0637Y11.3531
G01 X166.0000Y11.3500
G01 X165.9363Y11.3531
G01 X165.8732Y11.3625
G01 X165.8113Y11.3780
G01 X165.7513Y11.3995
G01 X165.6936Y11.4268
G01 X165.6389Y11.4595
G01 X165.5876Y11.4975
G01 X165.5404Y11.5404
G01 X165.4975Y11.5876
G01 X165.4595Y11.6389
G01 X165.4268Y11.6936
G01 X165.3995Y11.7513
G01 X165.3780Y11.8113
G01 X165.3625Y11.8732
G01 X165.3531Y11.9363
G01 X165.3500Y12.0000
G01 X165.3531Y12.0637
G01 X165.3625Y12.1268
G01 X165.3780Y12.1887
G01 X165.3995Y12.2487
G01 X165.4268Y12.3064
G01 X165.4595Y12.3611
G01 X165.4975Y12.4124
G01 X165.5404Y12.4596
G01 X165.5876Y12.5025
G01 X165.6389Y12.5405
G01 X165.6936Y12.5732
G01 X165.7513Y12.6005
G01 X165.8113Y12.6220
G01 X165.8732Y12.6375
G01 X165.9363Y12.6469
G01 X166.0000Y12.6500
G01 X166.0637Y12.6469
G01 X166.1268Y12.6375
G01 X166.1887Y12.6220
G01 X166.2487Y12.6005
G01 X166.3064Y12.5732
G01 X166.3611Y12.5405
G01 X166.4124Y12.5025
G01 X166.4596Y12.4596
G01 X166.5025Y12.4124
G01 X166.5405Y12.3611
G01 X166.5732Y12.3064
G01 X166.6005Y12.2487
G01 X166.6220Y12.1887
G01 X166.6375Y12.1268
G01 X166.6469Y12.0637
G01 X166.6500Y12.0000
G00 X166.6500Y12.0000
G01 Z-2.0000
G01 X166.6469Y11.9363
G01 X166.6375Y11.8732
G01 X166.6220Y11.8113
G01 X166.6005Y11.7513
G01 X166.5732Y11.6936
G01 X166.5405Y11.6389
G01 X166.5025Y11.5876
G01 X166.4596Y11.5404
G01 X166.4124Y11.4975
G01 X166.3611Y11.4595
G01 X166.3064Y11.4268
G01 X166.2487Y11.3995
G01 X166.1887Y11.3780
G01 X166.1268Y11.3625
G01 X166.0637Y11.3531
G01 X166.0000Y11.3500
G01 X165.9363Y11.3531
G01 X165.8732Y11.3625
G01 X165.8113Y11.3780
G01 X165.7513Y11.3995
G01 X165.6936Y11.4268
G01 X165.6389Y11.4595
G01 X165.5876Y11.4975
G01 X165.5404Y11.5404
G01 X165.4975Y11.5876
G01 X165.4595Y11.6389
G01 X165.4268Y11.6936
G01 X165.3995Y11.7513
G01 X165.3780Y11.8113
G01 X165.3625Y11.8732
G01 X165.3531Y11.9363
G01 X165.3500Y12.0000
G01 X165.3531Y12.0637
G01 X165.3625Y12.1268
G01 X165.3780Y12.1887
G01 X165.3995Y12.2487
G01 X165.4268Y12.3064
G01 X165.4595Y12.3611
G01 X165.4975Y12.4124
G01 X165.5404Y12.4596
G01 X165.5876Y12.5025
G01 X165.6389Y12.5405
G01 X165.6936Y12.5732
G01 X165.7513Y12.6005
G01 X165.8113Y12.6220
G01 X165.8732Y12.6375
G01 X165.9363Y12.6469
G01 X166.0000Y12.6500
G01 X166.0637Y12.6469
G01 X166.1268Y12.6375
G01 X166.1887Y12.6220
G01 X166.2487Y12.6005
G01 X166.3064Y12.5732
G01 X166.3611Y12.5405
G01 X166.4124Y12.5025
G01 X166.4596Y12.4596
G01 X166.5025Y12.4124
G01 X166.5405Y12.3611
G01 X166.5732Y12.3064
G01 X166.6005Y12.2487
G01 X166.6220Y12.1887
G01 X166.6375Y12.1268
G01 X166.6469Y12.0637
G01 X166.6500Y12.0000
G00 Z3.0000
G00 Z3.0000
G00 X0Y0
M05
G0 Z20
G0 X0 Y25