G0 Z20
G21
G90
G94
F100.00
G00 Z3.0000
M03 S45
G4 P1
G00 X-0.9739Y-0.0466
G01 Z-0.2500
G01 X-0.9646Y-0.1418
G01 X-0.9460Y-0.2357
G01 X-0.9184Y-0.3273
G01 X-0.8819Y-0.4157
G01 X-0.8369Y-0.5002
G01 X-0.7838Y-0.5798
G01 X-0.7232Y-0.6538
G01 X-0.6557Y-0.7216
G01 X-0.5818Y-0.7824
G01 X-0.5023Y-0.8356
G01 X-0.4180Y-0.8808
G01 X-0.3296Y-0.9176
G01 X-0.2381Y-0.9455
G01 X-0.1443Y-0.9642
G01 X-0.0491Y-0.9737
G01 X0.0000Y-0.9750
G01 X197.0000Y-0.9750
G01 X197.0491Y-0.9737
G01 X197.1418Y-0.9646
G01 X197.2381Y-0.9455
G01 X197.3296Y-0.9176
G01 X197.4180Y-0.8808
G01 X197.5002Y-0.8369
G01 X197.5798Y-0.7838
G01 X197.6538Y-0.7232
G01 X197.7216Y-0.6557
G01 X197.7824Y-0.5818
G01 X197.8356Y-0.5023
G01 X197.8808Y-0.4180
G01 X197.9176Y-0.3296
G01 X197.9460Y-0.2357
G01 X197.9646Y-0.1418
G01 X197.9739Y-0.0466
G01 X197.9750Y0.0000
G01 X197.9750Y25.0000
G01 X197.9737Y25.0491
G01 X197.9646Y25.1418
G01 X197.9460Y25.2357
G01 X197.9184Y25.3273
G01 X197.8819Y25.4157
G01 X197.8369Y25.5002
G01 X197.7838Y25.5798
G01 X197.7232Y25.6538
G01 X197.6538Y25.7232
G01 X197.5798Y25.7838
G01 X197.5002Y25.8369
G01 X197.4180Y25.8808
G01 X197.3296Y25.9176
G01 X197.2381Y25.9455
G01 X197.1443Y25.9642
G01 X197.0491Y25.9737
G01 X197.0000Y25.9750
G01 X0.0000Y25.9750
G01 X-0.0491Y25.9737
G01 X-0.1418Y25.9646
G01 X-0.2381Y25.9455
G01 X-0.3296Y25.9176
G01 X-0.4180Y25.8808
G01 X-0.5002Y25.8369
G01 X-0.5798Y25.7838
G01 X-0.6538Y25.7232
G01 X-0.7216Y25.6557
G01 X-0.7824Y25.5818
G01 X-0.8356Y25.5023
G01 X-0.8808Y25.4180
G01 X-0.9176Y25.3296
G01 X-0.9460Y25.2357
G01 X-0.9646Y25.1418
G01 X-0.9739Y25.0466
G01 X-0.9750Y25.0000
G01 X-0.9750Y0.0000
G01 X-0.9739Y-0.0466
G00 X-0.9739Y-0.0466
G01 Z-0.5000
G01 X-0.9646Y-0.1418
G01 X-0.9460Y-0.2357
G01 X-0.9184Y-0.3273
G01 X-0.8819Y-0.4157
G01 X-0.8369Y-0.5002
G01 X-0.7838Y-0.5798
G01 X-0.7232Y-0.6538
G01 X-0.6557Y-0.7216
G01 X-0.5818Y-0.7824
G01 X-0.5023Y-0.8356
G01 X-0.4180Y-0.8808
G01 X-0.3296Y-0.9176
G01 X-0.2381Y-0.9455
G01 X-0.1443Y-0.9642
G01 X-0.0491Y-0.9737
G01 X0.0000Y-0.9750
G01 X197.0000Y-0.9750
G01 X197.0491Y-0.9737
G01 X197.1418Y-0.9646
G01 X197.2381Y-0.9455
G01 X197.3296Y-0.9176
G01 X197.4180Y-0.8808
G01 X197.5002Y-0.8369
G01 X197.5798Y-0.7838
G01 X197.6538Y-0.7232
G01 X197.7216Y-0.6557
G01 X197.7824Y-0.5818
G01 X197.8356Y-0.5023
G01 X197.8808Y-0.4180
G01 X197.9176Y-0.3296
G01 X197.9460Y-0.2357
G01 X197.9646Y-0.1418
G01 X197.9739Y-0.0466
G01 X197.9750Y0.0000
G01 X197.9750Y25.0000
G01 X197.9737Y25.0491
G01 X197.9646Y25.1418
G01 X197.9460Y25.2357
G01 X197.9184Y25.3273
G01 X197.8819Y25.4157
G01 X197.8369Y25.5002
G01 X197.7838Y25.5798
G01 X197.7232Y25.6538
G01 X197.6538Y25.7232
G01 X197.5798Y25.7838
G01 X197.5002Y25.8369
G01 X197.4180Y25.8808
G01 X197.3296Y25.9176
G01 X197.2381Y25.9455
G01 X197.1443Y25.9642
G01 X197.0491Y25.9737
G01 X197.0000Y25.9750
G01 X0.0000Y25.9750
G01 X-0.0491Y25.9737
G01 X-0.1418Y25.9646
G01 X-0.2381Y25.9455
G01 X-0.3296Y25.9176
G01 X-0.4180Y25.8808
G01 X-0.5002Y25.8369
G01 X-0.5798Y25.7838
G01 X-0.6538Y25.7232
G01 X-0.7216Y25.6557
G01 X-0.7824Y25.5818
G01 X-0.8356Y25.5023
G01 X-0.8808Y25.4180
G01 X-0.9176Y25.3296
G01 X-0.9460Y25.2357
G01 X-0.9646Y25.1418
G01 X-0.9739Y25.0466
G01 X-0.9750Y25.0000
G01 X-0.9750Y0.0000
G01 X-0.9739Y-0.0466
G00 X-0.9739Y-0.0466
G01 Z-0.7500
G01 X-0.9646Y-0.1418
G01 X-0.9460Y-0.2357
G01 X-0.9184Y-0.3273
G01 X-0.8819Y-0.4157
G01 X-0.8369Y-0.5002
G01 X-0.7838Y-0.5798
G01 X-0.7232Y-0.6538
G01 X-0.6557Y-0.7216
G01 X-0.5818Y-0.7824
G01 X-0.5023Y-0.8356
G01 X-0.4180Y-0.8808
G01 X-0.3296Y-0.9176
G01 X-0.2381Y-0.9455
G01 X-0.1443Y-0.9642
G01 X-0.0491Y-0.9737
G01 X0.0000Y-0.9750
G01 X197.0000Y-0.9750
G01 X197.0491Y-0.9737
G01 X197.1418Y-0.9646
G01 X197.2381Y-0.9455
G01 X197.3296Y-0.9176
G01 X197.4180Y-0.8808
G01 X197.5002Y-0.8369
G01 X197.5798Y-0.7838
G01 X197.6538Y-0.7232
G01 X197.7216Y-0.6557
G01 X197.7824Y-0.5818
G01 X197.8356Y-0.5023
G01 X197.8808Y-0.4180
G01 X197.9176Y-0.3296
G01 X197.9460Y-0.2357
G01 X197.9646Y-0.1418
G01 X197.9739Y-0.0466
G01 X197.9750Y0.0000
G01 X197.9750Y25.0000
G01 X197.9737Y25.0491
G01 X197.9646Y25.1418
G01 X197.9460Y25.2357
G01 X197.9184Y25.3273
G01 X197.8819Y25.4157
G01 X197.8369Y25.5002
G01 X197.7838Y25.5798
G01 X197.7232Y25.6538
G01 X197.6538Y25.7232
G01 X197.5798Y25.7838
G01 X197.5002Y25.8369
G01 X197.4180Y25.8808
G01 X197.3296Y25.9176
G01 X197.2381Y25.9455
G01 X197.1443Y25.9642
G01 X197.0491Y25.9737
G01 X197.0000Y25.9750
G01 X0.0000Y25.9750
G01 X-0.0491Y25.9737
G01 X-0.1418Y25.9646
G01 X-0.2381Y25.9455
G01 X-0.3296Y25.9176
G01 X-0.4180Y25.8808
G01 X-0.5002Y25.8369
G01 X-0.5798Y25.7838
G01 X-0.6538Y25.7232
G01 X-0.7216Y25.6557
G01 X-0.7824Y25.5818
G01 X-0.8356Y25.5023
G01 X-0.8808Y25.4180
G01 X-0.9176Y25.3296
G01 X-0.9460Y25.2357
G01 X-0.9646Y25.1418
G01 X-0.9739Y25.0466
G01 X-0.9750Y25.0000
G01 X-0.9750Y0.0000
G01 X-0.9739Y-0.0466
G00 X-0.9739Y-0.0466
G01 Z-1.0000
G01 X-0.9646Y-0.1418
G01 X-0.9460Y-0.2357
G01 X-0.9184Y-0.3273
G01 X-0.8819Y-0.4157
G01 X-0.8369Y-0.5002
G01 X-0.7838Y-0.5798
G01 X-0.7232Y-0.6538
G01 X-0.6557Y-0.7216
G01 X-0.5818Y-0.7824
G01 X-0.5023Y-0.8356
G01 X-0.4180Y-0.8808
G01 X-0.3296Y-0.9176
G01 X-0.2381Y-0.9455
G01 X-0.1443Y-0.9642
G01 X-0.0491Y-0.9737
G01 X0.0000Y-0.9750
G01 X197.0000Y-0.9750
G01 X197.0491Y-0.9737
G01 X197.1418Y-0.9646
G01 X197.2381Y-0.9455
G01 X197.3296Y-0.9176
G01 X197.4180Y-0.8808
G01 X197.5002Y-0.8369
G01 X197.5798Y-0.7838
G01 X197.6538Y-0.7232
G01 X197.7216Y-0.6557
G01 X197.7824Y-0.5818
G01 X197.8356Y-0.5023
G01 X197.8808Y-0.4180
G01 X197.9176Y-0.3296
G01 X197.9460Y-0.2357
G01 X197.9646Y-0.1418
G01 X197.9739Y-0.0466
G01 X197.9750Y0.0000
G01 X197.9750Y25.0000
G01 X197.9737Y25.0491
G01 X197.9646Y25.1418
G01 X197.9460Y25.2357
G01 X197.9184Y25.3273
G01 X197.8819Y25.4157
G01 X197.8369Y25.5002
G01 X197.7838Y25.5798
G01 X197.7232Y25.6538
G01 X197.6538Y25.7232
G01 X197.5798Y25.7838
G01 X197.5002Y25.8369
G01 X197.4180Y25.8808
G01 X197.3296Y25.9176
G01 X197.2381Y25.9455
G01 X197.1443Y25.9642
G01 X197.0491Y25.9737
G01 X197.0000Y25.9750
G01 X0.0000Y25.9750
G01 X-0.0491Y25.9737
G01 X-0.1418Y25.9646
G01 X-0.2381Y25.9455
G01 X-0.3296Y25.9176
G01 X-0.4180Y25.8808
G01 X-0.5002Y25.8369
G01 X-0.5798Y25.7838
G01 X-0.6538Y25.7232
G01 X-0.7216Y25.6557
G01 X-0.7824Y25.5818
G01 X-0.8356Y25.5023
G01 X-0.8808Y25.4180
G01 X-0.9176Y25.3296
G01 X-0.9460Y25.2357
G01 X-0.9646Y25.1418
G01 X-0.9739Y25.0466
G01 X-0.9750Y25.0000
G01 X-0.9750Y0.0000
G01 X-0.9739Y-0.0466
G00 X-0.9739Y-0.0466
G01 Z-1.2500
G01 X-0.9646Y-0.1418
G01 X-0.9460Y-0.2357
G01 X-0.9184Y-0.3273
G01 X-0.8819Y-0.4157
G01 X-0.8369Y-0.5002
G01 X-0.7838Y-0.5798
G01 X-0.7232Y-0.6538
G01 X-0.6557Y-0.7216
G01 X-0.5818Y-0.7824
G01 X-0.5023Y-0.8356
G01 X-0.4180Y-0.8808
G01 X-0.3296Y-0.9176
G01 X-0.2381Y-0.9455
G01 X-0.1443Y-0.9642
G01 X-0.0491Y-0.9737
G01 X0.0000Y-0.9750
G01 X197.0000Y-0.9750
G01 X197.0491Y-0.9737
G01 X197.1418Y-0.9646
G01 X197.2381Y-0.9455
G01 X197.3296Y-0.9176
G01 X197.4180Y-0.8808
G01 X197.5002Y-0.8369
G01 X197.5798Y-0.7838
G01 X197.6538Y-0.7232
G01 X197.7216Y-0.6557
G01 X197.7824Y-0.5818
G01 X197.8356Y-0.5023
G01 X197.8808Y-0.4180
G01 X197.9176Y-0.3296
G01 X197.9460Y-0.2357
G01 X197.9646Y-0.1418
G01 X197.9739Y-0.0466
G01 X197.9750Y0.0000
G01 X197.9750Y25.0000
G01 X197.9737Y25.0491
G01 X197.9646Y25.1418
G01 X197.9460Y25.2357
G01 X197.9184Y25.3273
G01 X197.8819Y25.4157
G01 X197.8369Y25.5002
G01 X197.7838Y25.5798
G01 X197.7232Y25.6538
G01 X197.6538Y25.7232
G01 X197.5798Y25.7838
G01 X197.5002Y25.8369
G01 X197.4180Y25.8808
G01 X197.3296Y25.9176
G01 X197.2381Y25.9455
G01 X197.1443Y25.9642
G01 X197.0491Y25.9737
G01 X197.0000Y25.9750
G01 X0.0000Y25.9750
G01 X-0.0491Y25.9737
G01 X-0.1418Y25.9646
G01 X-0.2381Y25.9455
G01 X-0.3296Y25.9176
G01 X-0.4180Y25.8808
G01 X-0.5002Y25.8369
G01 X-0.5798Y25.7838
G01 X-0.6538Y25.7232
G01 X-0.7216Y25.6557
G01 X-0.7824Y25.5818
G01 X-0.8356Y25.5023
G01 X-0.8808Y25.4180
G01 X-0.9176Y25.3296
G01 X-0.9460Y25.2357
G01 X-0.9646Y25.1418
G01 X-0.9739Y25.0466
G01 X-0.9750Y25.0000
G01 X-0.9750Y0.0000
G01 X-0.9739Y-0.0466
G00 X-0.9739Y-0.0466
G01 Z-1.5000
G01 X-0.9646Y-0.1418
G01 X-0.9460Y-0.2357
G01 X-0.9184Y-0.3273
G01 X-0.8819Y-0.4157
G01 X-0.8369Y-0.5002
G01 X-0.7838Y-0.5798
G01 X-0.7232Y-0.6538
G01 X-0.6557Y-0.7216
G01 X-0.5818Y-0.7824
G01 X-0.5023Y-0.8356
G01 X-0.4180Y-0.8808
G01 X-0.3296Y-0.9176
G01 X-0.2381Y-0.9455
G01 X-0.1443Y-0.9642
G01 X-0.0491Y-0.9737
G01 X0.0000Y-0.9750
G01 X197.0000Y-0.9750
G01 X197.0491Y-0.9737
G01 X197.1418Y-0.9646
G01 X197.2381Y-0.9455
G01 X197.3296Y-0.9176
G01 X197.4180Y-0.8808
G01 X197.5002Y-0.8369
G01 X197.5798Y-0.7838
G01 X197.6538Y-0.7232
G01 X197.7216Y-0.6557
G01 X197.7824Y-0.5818
G01 X197.8356Y-0.5023
G01 X197.8808Y-0.4180
G01 X197.9176Y-0.3296
G01 X197.9460Y-0.2357
G01 X197.9646Y-0.1418
G01 X197.9739Y-0.0466
G01 X197.9750Y0.0000
G01 X197.9750Y25.0000
G01 X197.9737Y25.0491
G01 X197.9646Y25.1418
G01 X197.9460Y25.2357
G01 X197.9184Y25.3273
G01 X197.8819Y25.4157
G01 X197.8369Y25.5002
G01 X197.7838Y25.5798
G01 X197.7232Y25.6538
G01 X197.6538Y25.7232
G01 X197.5798Y25.7838
G01 X197.5002Y25.8369
G01 X197.4180Y25.8808
G01 X197.3296Y25.9176
G01 X197.2381Y25.9455
G01 X197.1443Y25.9642
G01 X197.0491Y25.9737
G01 X197.0000Y25.9750
G01 X0.0000Y25.9750
G01 X-0.0491Y25.9737
G01 X-0.1418Y25.9646
G01 X-0.2381Y25.9455
G01 X-0.3296Y25.9176
G01 X-0.4180Y25.8808
G01 X-0.5002Y25.8369
G01 X-0.5798Y25.7838
G01 X-0.6538Y25.7232
G01 X-0.7216Y25.6557
G01 X-0.7824Y25.5818
G01 X-0.8356Y25.5023
G01 X-0.8808Y25.4180
G01 X-0.9176Y25.3296
G01 X-0.9460Y25.2357
G01 X-0.9646Y25.1418
G01 X-0.9739Y25.0466
G01 X-0.9750Y25.0000
G01 X-0.9750Y0.0000
G01 X-0.9739Y-0.0466
G00 X-0.9739Y-0.0466
G01 Z-1.7500
G01 X-0.9646Y-0.1418
G01 X-0.9460Y-0.2357
G01 X-0.9184Y-0.3273
G01 X-0.8819Y-0.4157
G01 X-0.8369Y-0.5002
G01 X-0.7838Y-0.5798
G01 X-0.7232Y-0.6538
G01 X-0.6557Y-0.7216
G01 X-0.5818Y-0.7824
G01 X-0.5023Y-0.8356
G01 X-0.4180Y-0.8808
G01 X-0.3296Y-0.9176
G01 X-0.2381Y-0.9455
G01 X-0.1443Y-0.9642
G01 X-0.0491Y-0.9737
G01 X0.0000Y-0.9750
G01 X197.0000Y-0.9750
G01 X197.0491Y-0.9737
G01 X197.1418Y-0.9646
G01 X197.2381Y-0.9455
G01 X197.3296Y-0.9176
G01 X197.4180Y-0.8808
G01 X197.5002Y-0.8369
G01 X197.5798Y-0.7838
G01 X197.6538Y-0.7232
G01 X197.7216Y-0.6557
G01 X197.7824Y-0.5818
G01 X197.8356Y-0.5023
G01 X197.8808Y-0.4180
G01 X197.9176Y-0.3296
G01 X197.9460Y-0.2357
G01 X197.9646Y-0.1418
G01 X197.9739Y-0.0466
G01 X197.9750Y0.0000
G01 X197.9750Y25.0000
G01 X197.9737Y25.0491
G01 X197.9646Y25.1418
G01 X197.9460Y25.2357
G01 X197.9184Y25.3273
G01 X197.8819Y25.4157
G01 X197.8369Y25.5002
G01 X197.7838Y25.5798
G01 X197.7232Y25.6538
G01 X197.6538Y25.7232
G01 X197.5798Y25.7838
G01 X197.5002Y25.8369
G01 X197.4180Y25.8808
G01 X197.3296Y25.9176
G01 X197.2381Y25.9455
G01 X197.1443Y25.9642
G01 X197.0491Y25.9737
G01 X197.0000Y25.9750
G01 X0.0000Y25.9750
G01 X-0.0491Y25.9737
G01 X-0.1418Y25.9646
G01 X-0.2381Y25.9455
G01 X-0.3296Y25.9176
G01 X-0.4180Y25.8808
G01 X-0.5002Y25.8369
G01 X-0.5798Y25.7838
G01 X-0.6538Y25.7232
G01 X-0.7216Y25.6557
G01 X-0.7824Y25.5818
G01 X-0.8356Y25.5023
G01 X-0.8808Y25.4180
G01 X-0.9176Y25.3296
G01 X-0.9460Y25.2357
G01 X-0.9646Y25.1418
G01 X-0.9739Y25.0466
G01 X-0.9750Y25.0000
G01 X-0.9750Y0.0000
G01 X-0.9739Y-0.0466
G00 Z3.0000
G00 Z3.0000
G00 X0Y0
M05
G0 Z20
G0 X0 Y25