G0 Z20
G21
G90
G94
F50.00
G00 Z3.0000
M03 S45
G4 P1
G00 X3.4500Y14.0000
G01 Z-0.2500
G01 X3.4478Y13.9559
G01 X3.4414Y13.9122
G01 X3.4306Y13.8694
G01 X3.4157Y13.8278
G01 X3.3969Y13.7879
G01 X3.3742Y13.7500
G01 X3.3479Y13.7145
G01 X3.3182Y13.6818
G01 X3.2855Y13.6521
G01 X3.2500Y13.6258
G01 X3.2121Y13.6031
G01 X3.1722Y13.5843
G01 X3.1306Y13.5694
G01 X3.0878Y13.5586
G01 X3.0441Y13.5522
G01 X3.0000Y13.5500
G01 X2.9559Y13.5522
G01 X2.9122Y13.5586
G01 X2.8694Y13.5694
G01 X2.8278Y13.5843
G01 X2.7879Y13.6031
G01 X2.7500Y13.6258
G01 X2.7145Y13.6521
G01 X2.6818Y13.6818
G01 X2.6521Y13.7145
G01 X2.6258Y13.7500
G01 X2.6031Y13.7879
G01 X2.5843Y13.8278
G01 X2.5694Y13.8694
G01 X2.5586Y13.9122
G01 X2.5522Y13.9559
G01 X2.5500Y14.0000
G01 X2.5522Y14.0441
G01 X2.5586Y14.0878
G01 X2.5694Y14.1306
G01 X2.5843Y14.1722
G01 X2.6031Y14.2121
G01 X2.6258Y14.2500
G01 X2.6521Y14.2855
G01 X2.6818Y14.3182
G01 X2.7145Y14.3479
G01 X2.7500Y14.3742
G01 X2.7879Y14.3969
G01 X2.8278Y14.4157
G01 X2.8694Y14.4306
G01 X2.9122Y14.4414
G01 X2.9559Y14.4478
G01 X3.0000Y14.4500
G01 X3.0441Y14.4478
G01 X3.0878Y14.4414
G01 X3.1306Y14.4306
G01 X3.1722Y14.4157
G01 X3.2121Y14.3969
G01 X3.2500Y14.3742
G01 X3.2855Y14.3479
G01 X3.3182Y14.3182
G01 X3.3479Y14.2855
G01 X3.3742Y14.2500
G01 X3.3969Y14.2121
G01 X3.4157Y14.1722
G01 X3.4306Y14.1306
G01 X3.4414Y14.0878
G01 X3.4478Y14.0441
G01 X3.4500Y14.0000
G00 X3.4500Y14.0000
G01 Z-0.5000
G01 X3.4478Y13.9559
G01 X3.4414Y13.9122
G01 X3.4306Y13.8694
G01 X3.4157Y13.8278
G01 X3.3969Y13.7879
G01 X3.3742Y13.7500
G01 X3.3479Y13.7145
G01 X3.3182Y13.6818
G01 X3.2855Y13.6521
G01 X3.2500Y13.6258
G01 X3.2121Y13.6031
G01 X3.1722Y13.5843
G01 X3.1306Y13.5694
G01 X3.0878Y13.5586
G01 X3.0441Y13.5522
G01 X3.0000Y13.5500
G01 X2.9559Y13.5522
G01 X2.9122Y13.5586
G01 X2.8694Y13.5694
G01 X2.8278Y13.5843
G01 X2.7879Y13.6031
G01 X2.7500Y13.6258
G01 X2.7145Y13.6521
G01 X2.6818Y13.6818
G01 X2.6521Y13.7145
G01 X2.6258Y13.7500
G01 X2.6031Y13.7879
G01 X2.5843Y13.8278
G01 X2.5694Y13.8694
G01 X2.5586Y13.9122
G01 X2.5522Y13.9559
G01 X2.5500Y14.0000
G01 X2.5522Y14.0441
G01 X2.5586Y14.0878
G01 X2.5694Y14.1306
G01 X2.5843Y14.1722
G01 X2.6031Y14.2121
G01 X2.6258Y14.2500
G01 X2.6521Y14.2855
G01 X2.6818Y14.3182
G01 X2.7145Y14.3479
G01 X2.7500Y14.3742
G01 X2.7879Y14.3969
G01 X2.8278Y14.4157
G01 X2.8694Y14.4306
G01 X2.9122Y14.4414
G01 X2.9559Y14.4478
G01 X3.0000Y14.4500
G01 X3.0441Y14.4478
G01 X3.0878Y14.4414
G01 X3.1306Y14.4306
G01 X3.1722Y14.4157
G01 X3.2121Y14.3969
G01 X3.2500Y14.3742
G01 X3.2855Y14.3479
G01 X3.3182Y14.3182
G01 X3.3479Y14.2855
G01 X3.3742Y14.2500
G01 X3.3969Y14.2121
G01 X3.4157Y14.1722
G01 X3.4306Y14.1306
G01 X3.4414Y14.0878
G01 X3.4478Y14.0441
G01 X3.4500Y14.0000
G00 X3.4500Y14.0000
G01 Z-0.7500
G01 X3.4478Y13.9559
G01 X3.4414Y13.9122
G01 X3.4306Y13.8694
G01 X3.4157Y13.8278
G01 X3.3969Y13.7879
G01 X3.3742Y13.7500
G01 X3.3479Y13.7145
G01 X3.3182Y13.6818
G01 X3.2855Y13.6521
G01 X3.2500Y13.6258
G01 X3.2121Y13.6031
G01 X3.1722Y13.5843
G01 X3.1306Y13.5694
G01 X3.0878Y13.5586
G01 X3.0441Y13.5522
G01 X3.0000Y13.5500
G01 X2.9559Y13.5522
G01 X2.9122Y13.5586
G01 X2.8694Y13.5694
G01 X2.8278Y13.5843
G01 X2.7879Y13.6031
G01 X2.7500Y13.6258
G01 X2.7145Y13.6521
G01 X2.6818Y13.6818
G01 X2.6521Y13.7145
G01 X2.6258Y13.7500
G01 X2.6031Y13.7879
G01 X2.5843Y13.8278
G01 X2.5694Y13.8694
G01 X2.5586Y13.9122
G01 X2.5522Y13.9559
G01 X2.5500Y14.0000
G01 X2.5522Y14.0441
G01 X2.5586Y14.0878
G01 X2.5694Y14.1306
G01 X2.5843Y14.1722
G01 X2.6031Y14.2121
G01 X2.6258Y14.2500
G01 X2.6521Y14.2855
G01 X2.6818Y14.3182
G01 X2.7145Y14.3479
G01 X2.7500Y14.3742
G01 X2.7879Y14.3969
G01 X2.8278Y14.4157
G01 X2.8694Y14.4306
G01 X2.9122Y14.4414
G01 X2.9559Y14.4478
G01 X3.0000Y14.4500
G01 X3.0441Y14.4478
G01 X3.0878Y14.4414
G01 X3.1306Y14.4306
G01 X3.1722Y14.4157
G01 X3.2121Y14.3969
G01 X3.2500Y14.3742
G01 X3.2855Y14.3479
G01 X3.3182Y14.3182
G01 X3.3479Y14.2855
G01 X3.3742Y14.2500
G01 X3.3969Y14.2121
G01 X3.4157Y14.1722
G01 X3.4306Y14.1306
G01 X3.4414Y14.0878
G01 X3.4478Y14.0441
G01 X3.4500Y14.0000
G00 X3.4500Y14.0000
G01 Z-1.0000
G01 X3.4478Y13.9559
G01 X3.4414Y13.9122
G01 X3.4306Y13.8694
G01 X3.4157Y13.8278
G01 X3.3969Y13.7879
G01 X3.3742Y13.7500
G01 X3.3479Y13.7145
G01 X3.3182Y13.6818
G01 X3.2855Y13.6521
G01 X3.2500Y13.6258
G01 X3.2121Y13.6031
G01 X3.1722Y13.5843
G01 X3.1306Y13.5694
G01 X3.0878Y13.5586
G01 X3.0441Y13.5522
G01 X3.0000Y13.5500
G01 X2.9559Y13.5522
G01 X2.9122Y13.5586
G01 X2.8694Y13.5694
G01 X2.8278Y13.5843
G01 X2.7879Y13.6031
G01 X2.7500Y13.6258
G01 X2.7145Y13.6521
G01 X2.6818Y13.6818
G01 X2.6521Y13.7145
G01 X2.6258Y13.7500
G01 X2.6031Y13.7879
G01 X2.5843Y13.8278
G01 X2.5694Y13.8694
G01 X2.5586Y13.9122
G01 X2.5522Y13.9559
G01 X2.5500Y14.0000
G01 X2.5522Y14.0441
G01 X2.5586Y14.0878
G01 X2.5694Y14.1306
G01 X2.5843Y14.1722
G01 X2.6031Y14.2121
G01 X2.6258Y14.2500
G01 X2.6521Y14.2855
G01 X2.6818Y14.3182
G01 X2.7145Y14.3479
G01 X2.7500Y14.3742
G01 X2.7879Y14.3969
G01 X2.8278Y14.4157
G01 X2.8694Y14.4306
G01 X2.9122Y14.4414
G01 X2.9559Y14.4478
G01 X3.0000Y14.4500
G01 X3.0441Y14.4478
G01 X3.0878Y14.4414
G01 X3.1306Y14.4306
G01 X3.1722Y14.4157
G01 X3.2121Y14.3969
G01 X3.2500Y14.3742
G01 X3.2855Y14.3479
G01 X3.3182Y14.3182
G01 X3.3479Y14.2855
G01 X3.3742Y14.2500
G01 X3.3969Y14.2121
G01 X3.4157Y14.1722
G01 X3.4306Y14.1306
G01 X3.4414Y14.0878
G01 X3.4478Y14.0441
G01 X3.4500Y14.0000
G00 X3.4500Y14.0000
G01 Z-1.2500
G01 X3.4478Y13.9559
G01 X3.4414Y13.9122
G01 X3.4306Y13.8694
G01 X3.4157Y13.8278
G01 X3.3969Y13.7879
G01 X3.3742Y13.7500
G01 X3.3479Y13.7145
G01 X3.3182Y13.6818
G01 X3.2855Y13.6521
G01 X3.2500Y13.6258
G01 X3.2121Y13.6031
G01 X3.1722Y13.5843
G01 X3.1306Y13.5694
G01 X3.0878Y13.5586
G01 X3.0441Y13.5522
G01 X3.0000Y13.5500
G01 X2.9559Y13.5522
G01 X2.9122Y13.5586
G01 X2.8694Y13.5694
G01 X2.8278Y13.5843
G01 X2.7879Y13.6031
G01 X2.7500Y13.6258
G01 X2.7145Y13.6521
G01 X2.6818Y13.6818
G01 X2.6521Y13.7145
G01 X2.6258Y13.7500
G01 X2.6031Y13.7879
G01 X2.5843Y13.8278
G01 X2.5694Y13.8694
G01 X2.5586Y13.9122
G01 X2.5522Y13.9559
G01 X2.5500Y14.0000
G01 X2.5522Y14.0441
G01 X2.5586Y14.0878
G01 X2.5694Y14.1306
G01 X2.5843Y14.1722
G01 X2.6031Y14.2121
G01 X2.6258Y14.2500
G01 X2.6521Y14.2855
G01 X2.6818Y14.3182
G01 X2.7145Y14.3479
G01 X2.7500Y14.3742
G01 X2.7879Y14.3969
G01 X2.8278Y14.4157
G01 X2.8694Y14.4306
G01 X2.9122Y14.4414
G01 X2.9559Y14.4478
G01 X3.0000Y14.4500
G01 X3.0441Y14.4478
G01 X3.0878Y14.4414
G01 X3.1306Y14.4306
G01 X3.1722Y14.4157
G01 X3.2121Y14.3969
G01 X3.2500Y14.3742
G01 X3.2855Y14.3479
G01 X3.3182Y14.3182
G01 X3.3479Y14.2855
G01 X3.3742Y14.2500
G01 X3.3969Y14.2121
G01 X3.4157Y14.1722
G01 X3.4306Y14.1306
G01 X3.4414Y14.0878
G01 X3.4478Y14.0441
G01 X3.4500Y14.0000
G00 X3.4500Y14.0000
G01 Z-1.5000
G01 X3.4478Y13.9559
G01 X3.4414Y13.9122
G01 X3.4306Y13.8694
G01 X3.4157Y13.8278
G01 X3.3969Y13.7879
G01 X3.3742Y13.7500
G01 X3.3479Y13.7145
G01 X3.3182Y13.6818
G01 X3.2855Y13.6521
G01 X3.2500Y13.6258
G01 X3.2121Y13.6031
G01 X3.1722Y13.5843
G01 X3.1306Y13.5694
G01 X3.0878Y13.5586
G01 X3.0441Y13.5522
G01 X3.0000Y13.5500
G01 X2.9559Y13.5522
G01 X2.9122Y13.5586
G01 X2.8694Y13.5694
G01 X2.8278Y13.5843
G01 X2.7879Y13.6031
G01 X2.7500Y13.6258
G01 X2.7145Y13.6521
G01 X2.6818Y13.6818
G01 X2.6521Y13.7145
G01 X2.6258Y13.7500
G01 X2.6031Y13.7879
G01 X2.5843Y13.8278
G01 X2.5694Y13.8694
G01 X2.5586Y13.9122
G01 X2.5522Y13.9559
G01 X2.5500Y14.0000
G01 X2.5522Y14.0441
G01 X2.5586Y14.0878
G01 X2.5694Y14.1306
G01 X2.5843Y14.1722
G01 X2.6031Y14.2121
G01 X2.6258Y14.2500
G01 X2.6521Y14.2855
G01 X2.6818Y14.3182
G01 X2.7145Y14.3479
G01 X2.7500Y14.3742
G01 X2.7879Y14.3969
G01 X2.8278Y14.4157
G01 X2.8694Y14.4306
G01 X2.9122Y14.4414
G01 X2.9559Y14.4478
G01 X3.0000Y14.4500
G01 X3.0441Y14.4478
G01 X3.0878Y14.4414
G01 X3.1306Y14.4306
G01 X3.1722Y14.4157
G01 X3.2121Y14.3969
G01 X3.2500Y14.3742
G01 X3.2855Y14.3479
G01 X3.3182Y14.3182
G01 X3.3479Y14.2855
G01 X3.3742Y14.2500
G01 X3.3969Y14.2121
G01 X3.4157Y14.1722
G01 X3.4306Y14.1306
G01 X3.4414Y14.0878
G01 X3.4478Y14.0441
G01 X3.4500Y14.0000
G00 X3.4500Y14.0000
G01 Z-1.7500
G01 X3.4478Y13.9559
G01 X3.4414Y13.9122
G01 X3.4306Y13.8694
G01 X3.4157Y13.8278
G01 X3.3969Y13.7879
G01 X3.3742Y13.7500
G01 X3.3479Y13.7145
G01 X3.3182Y13.6818
G01 X3.2855Y13.6521
G01 X3.2500Y13.6258
G01 X3.2121Y13.6031
G01 X3.1722Y13.5843
G01 X3.1306Y13.5694
G01 X3.0878Y13.5586
G01 X3.0441Y13.5522
G01 X3.0000Y13.5500
G01 X2.9559Y13.5522
G01 X2.9122Y13.5586
G01 X2.8694Y13.5694
G01 X2.8278Y13.5843
G01 X2.7879Y13.6031
G01 X2.7500Y13.6258
G01 X2.7145Y13.6521
G01 X2.6818Y13.6818
G01 X2.6521Y13.7145
G01 X2.6258Y13.7500
G01 X2.6031Y13.7879
G01 X2.5843Y13.8278
G01 X2.5694Y13.8694
G01 X2.5586Y13.9122
G01 X2.5522Y13.9559
G01 X2.5500Y14.0000
G01 X2.5522Y14.0441
G01 X2.5586Y14.0878
G01 X2.5694Y14.1306
G01 X2.5843Y14.1722
G01 X2.6031Y14.2121
G01 X2.6258Y14.2500
G01 X2.6521Y14.2855
G01 X2.6818Y14.3182
G01 X2.7145Y14.3479
G01 X2.7500Y14.3742
G01 X2.7879Y14.3969
G01 X2.8278Y14.4157
G01 X2.8694Y14.4306
G01 X2.9122Y14.4414
G01 X2.9559Y14.4478
G01 X3.0000Y14.4500
G01 X3.0441Y14.4478
G01 X3.0878Y14.4414
G01 X3.1306Y14.4306
G01 X3.1722Y14.4157
G01 X3.2121Y14.3969
G01 X3.2500Y14.3742
G01 X3.2855Y14.3479
G01 X3.3182Y14.3182
G01 X3.3479Y14.2855
G01 X3.3742Y14.2500
G01 X3.3969Y14.2121
G01 X3.4157Y14.1722
G01 X3.4306Y14.1306
G01 X3.4414Y14.0878
G01 X3.4478Y14.0441
G01 X3.4500Y14.0000
G00 X3.4500Y14.0000
G01 Z-2.0000
G01 X3.4478Y13.9559
G01 X3.4414Y13.9122
G01 X3.4306Y13.8694
G01 X3.4157Y13.8278
G01 X3.3969Y13.7879
G01 X3.3742Y13.7500
G01 X3.3479Y13.7145
G01 X3.3182Y13.6818
G01 X3.2855Y13.6521
G01 X3.2500Y13.6258
G01 X3.2121Y13.6031
G01 X3.1722Y13.5843
G01 X3.1306Y13.5694
G01 X3.0878Y13.5586
G01 X3.0441Y13.5522
G01 X3.0000Y13.5500
G01 X2.9559Y13.5522
G01 X2.9122Y13.5586
G01 X2.8694Y13.5694
G01 X2.8278Y13.5843
G01 X2.7879Y13.6031
G01 X2.7500Y13.6258
G01 X2.7145Y13.6521
G01 X2.6818Y13.6818
G01 X2.6521Y13.7145
G01 X2.6258Y13.7500
G01 X2.6031Y13.7879
G01 X2.5843Y13.8278
G01 X2.5694Y13.8694
G01 X2.5586Y13.9122
G01 X2.5522Y13.9559
G01 X2.5500Y14.0000
G01 X2.5522Y14.0441
G01 X2.5586Y14.0878
G01 X2.5694Y14.1306
G01 X2.5843Y14.1722
G01 X2.6031Y14.2121
G01 X2.6258Y14.2500
G01 X2.6521Y14.2855
G01 X2.6818Y14.3182
G01 X2.7145Y14.3479
G01 X2.7500Y14.3742
G01 X2.7879Y14.3969
G01 X2.8278Y14.4157
G01 X2.8694Y14.4306
G01 X2.9122Y14.4414
G01 X2.9559Y14.4478
G01 X3.0000Y14.4500
G01 X3.0441Y14.4478
G01 X3.0878Y14.4414
G01 X3.1306Y14.4306
G01 X3.1722Y14.4157
G01 X3.2121Y14.3969
G01 X3.2500Y14.3742
G01 X3.2855Y14.3479
G01 X3.3182Y14.3182
G01 X3.3479Y14.2855
G01 X3.3742Y14.2500
G01 X3.3969Y14.2121
G01 X3.4157Y14.1722
G01 X3.4306Y14.1306
G01 X3.4414Y14.0878
G01 X3.4478Y14.0441
G01 X3.4500Y14.0000
G00 Z3.0000
M05
G0 Z20
G0 X0 Y25