G0 Z20
G21
G90
G94
F50.00
G00 Z3.0000
M03 S45
G4 P1
G00 X22.1500Y3.5000
G01 Z-2.0000
G01 Z0
G00 Z3.0000
G00 X24.6900Y3.5000
G01 Z-2.0000
G01 Z0
G00 Z3.0000
G00 X27.2300Y3.5000
G01 Z-2.0000
G01 Z0
G00 Z3.0000
G00 X29.7700Y3.5000
G01 Z-2.0000
G01 Z0
G00 Z3.0000
G00 X32.3100Y3.5000
G01 Z-2.0000
G01 Z0
G00 Z3.0000
G00 X34.8500Y3.5000
G01 Z-2.0000
G01 Z0
G00 Z3.0000
G00 X12.3100Y3.6600
G01 Z-2.0000
G01 Z0
G00 Z3.0000
G00 X4.6900Y3.6600
G01 Z-2.0000
G01 Z0
G00 Z3.0000
G00 X192.3100Y3.6600
G01 Z-2.0000
G01 Z0
G00 Z3.0000
G00 X184.6900Y3.6600
G01 Z-2.0000
G01 Z0
G00 Z3.0000
G00 X102.3100Y3.6600
G01 Z-2.0000
G01 Z0
G00 Z3.0000
G00 X94.6900Y3.6600
G01 Z-2.0000
G01 Z0
G00 Z3.0000
G00 X57.3100Y3.6600
G01 Z-2.0000
G01 Z0
G00 Z3.0000
G00 X49.6900Y3.6600
G01 Z-2.0000
G01 Z0
G00 Z3.0000
G00 X147.3100Y3.6600
G01 Z-2.0000
G01 Z0
G00 Z3.0000
G00 X139.6900Y3.6600
G01 Z-2.0000
G01 Z0
G00 Z3.0000
G00 X44.0000Y3.7000
G01 Z-2.0000
G01 Z0
G00 Z3.0000
G00 X21.6500Y6.1500
G01 Z-2.0000
G01 Z0
G00 Z3.0000
G00 X16.9000Y6.1500
G01 Z-2.0000
G01 Z0
G00 Z3.0000
G00 X39.3000Y6.8000
G01 Z-2.0000
G01 Z0
G00 Z3.0000
G00 X41.6000Y6.8000
G01 Z-2.0000
G01 Z0
G00 Z3.0000
G00 X43.9000Y6.8000
G01 Z-2.0000
G01 Z0
G00 Z3.0000
G00 X37.1000Y7.9000
G01 Z-2.0000
G01 Z0
G00 Z3.0000
G00 X24.4300Y7.9200
G01 Z-2.0000
G01 Z0
G00 Z3.0000
G00 X12.3100Y8.7400
G01 Z-2.0000
G01 Z0
G00 Z3.0000
G00 X4.6900Y8.7400
G01 Z-2.0000
G01 Z0
G00 Z3.0000
G00 X192.3100Y8.7400
G01 Z-2.0000
G01 Z0
G00 Z3.0000
G00 X184.6900Y8.7400
G01 Z-2.0000
G01 Z0
G00 Z3.0000
G00 X102.3100Y8.7400
G01 Z-2.0000
G01 Z0
G00 Z3.0000
G00 X94.6900Y8.7400
G01 Z-2.0000
G01 Z0
G00 Z3.0000
G00 X57.3100Y8.7400
G01 Z-2.0000
G01 Z0
G00 Z3.0000
G00 X49.6900Y8.7400
G01 Z-2.0000
G01 Z0
G00 Z3.0000
G00 X147.3100Y8.7400
G01 Z-2.0000
G01 Z0
G00 Z3.0000
G00 X139.6900Y8.7400
G01 Z-2.0000
G01 Z0
G00 Z3.0000
G00 X43.8000Y17.1750
G01 Z-2.0000
G01 Z0
G00 Z3.0000
G00 X41.5000Y17.2000
G01 Z-2.0000
G01 Z0
G00 Z3.0000
G00 X39.2000Y17.2000
G01 Z-2.0000
G01 Z0
G00 Z3.0000
G00 X19.1000Y19.1000
G01 Z-2.0000
G01 Z0
G00 Z3.0000
G00 X46.6000Y19.1000
G01 Z-2.0000
G01 Z0
G00 Z3.0000
G00 X17.0000Y20.9000
G01 Z-2.0000
G01 Z0
G00 Z3.0000
G00 X22.1500Y31.5000
G01 Z-2.0000
G01 Z0
G00 Z3.0000
G00 X24.6900Y31.5000
G01 Z-2.0000
G01 Z0
G00 Z3.0000
G00 X27.2300Y31.5000
G01 Z-2.0000
G01 Z0
G00 Z3.0000
G00 X29.7700Y31.5000
G01 Z-2.0000
G01 Z0
G00 Z3.0000
G00 X32.3100Y31.5000
G01 Z-2.0000
G01 Z0
G00 Z3.0000
G00 X34.8500Y31.5000
G01 Z-2.0000
G01 Z0
G00 Z3.0000
G00 X12.3100Y31.6600
G01 Z-2.0000
G01 Z0
G00 Z3.0000
G00 X4.6900Y31.6600
G01 Z-2.0000
G01 Z0
G00 Z3.0000
G00 X192.3100Y31.6600
G01 Z-2.0000
G01 Z0
G00 Z3.0000
G00 X184.6900Y31.6600
G01 Z-2.0000
G01 Z0
G00 Z3.0000
G00 X102.3100Y31.6600
G01 Z-2.0000
G01 Z0
G00 Z3.0000
G00 X94.6900Y31.6600
G01 Z-2.0000
G01 Z0
G00 Z3.0000
G00 X147.3100Y31.6600
G01 Z-2.0000
G01 Z0
G00 Z3.0000
G00 X139.6900Y31.6600
G01 Z-2.0000
G01 Z0
G00 Z3.0000
G00 X57.3100Y31.6600
G01 Z-2.0000
G01 Z0
G00 Z3.0000
G00 X49.6900Y31.6600
G01 Z-2.0000
G01 Z0
G00 Z3.0000
G00 X44.0000Y31.7000
G01 Z-2.0000
G01 Z0
G00 Z3.0000
G00 X21.6500Y34.1500
G01 Z-2.0000
G01 Z0
G00 Z3.0000
G00 X16.9000Y34.1500
G01 Z-2.0000
G01 Z0
G00 Z3.0000
G00 X39.3000Y34.8000
G01 Z-2.0000
G01 Z0
G00 Z3.0000
G00 X41.6000Y34.8000
G01 Z-2.0000
G01 Z0
G00 Z3.0000
G00 X43.9000Y34.8000
G01 Z-2.0000
G01 Z0
G00 Z3.0000
G00 X37.1000Y35.9000
G01 Z-2.0000
G01 Z0
G00 Z3.0000
G00 X24.4300Y35.9200
G01 Z-2.0000
G01 Z0
G00 Z3.0000
G00 X12.3100Y36.7400
G01 Z-2.0000
G01 Z0
G00 Z3.0000
G00 X4.6900Y36.7400
G01 Z-2.0000
G01 Z0
G00 Z3.0000
G00 X192.3100Y36.7400
G01 Z-2.0000
G01 Z0
G00 Z3.0000
G00 X184.6900Y36.7400
G01 Z-2.0000
G01 Z0
G00 Z3.0000
G00 X102.3100Y36.7400
G01 Z-2.0000
G01 Z0
G00 Z3.0000
G00 X94.6900Y36.7400
G01 Z-2.0000
G01 Z0
G00 Z3.0000
G00 X147.3100Y36.7400
G01 Z-2.0000
G01 Z0
G00 Z3.0000
G00 X139.6900Y36.7400
G01 Z-2.0000
G01 Z0
G00 Z3.0000
G00 X57.3100Y36.7400
G01 Z-2.0000
G01 Z0
G00 Z3.0000
G00 X49.6900Y36.7400
G01 Z-2.0000
G01 Z0
G00 Z3.0000
G00 X43.8000Y45.1750
G01 Z-2.0000
G01 Z0
G00 Z3.0000
G00 X41.5000Y45.2000
G01 Z-2.0000
G01 Z0
G00 Z3.0000
G00 X39.2000Y45.2000
G01 Z-2.0000
G01 Z0
G00 Z3.0000
G00 X19.1000Y47.1000
G01 Z-2.0000
G01 Z0
G00 Z3.0000
G00 X46.6000Y47.1000
G01 Z-2.0000
G01 Z0
G00 Z3.0000
G00 X17.0000Y48.9000
G01 Z-2.0000
G01 Z0
G00 Z3.0000
M05
G0 Z20
G0 X0 Y50