G0 Z20
G21
G90
G94
F50.00
G00 Z3.0000
M03 S45
G4 P1
G00 X22.5000Y21.5000
G01 Z-2.0000
G01 Z0
G00 Z3.0000
G00 X25.0400Y21.5000
G01 Z-2.0000
G01 Z0
G00 Z3.0000
G00 X27.5800Y21.5000
G01 Z-2.0000
G01 Z0
G00 Z3.0000
G00 X30.1200Y21.5000
G01 Z-2.0000
G01 Z0
G00 Z3.0000
G00 X32.6600Y21.5000
G01 Z-2.0000
G01 Z0
G00 Z3.0000
G00 X35.2000Y21.5000
G01 Z-2.0000
G01 Z0
G00 Z3.0000
G00 X35.2000Y49.5000
G01 Z-2.0000
G01 Z0
G00 Z3.0000
G00 X32.6600Y49.5000
G01 Z-2.0000
G01 Z0
G00 Z3.0000
G00 X30.1200Y49.5000
G01 Z-2.0000
G01 Z0
G00 Z3.0000
G00 X27.5800Y49.5000
G01 Z-2.0000
G01 Z0
G00 Z3.0000
G00 X25.0400Y49.5000
G01 Z-2.0000
G01 Z0
G00 Z3.0000
G00 X22.5000Y49.5000
G01 Z-2.0000
G01 Z0
G00 Z3.0000
M05
G0 Z20
G0 X0 Y50