G0 Z20
G21
G90
G94
F50.00
G00 Z3.0000
M03 S45
G4 P1
G00 X3.6500Y14.0000
G01 Z-0.2500
G01 X3.6469Y13.9363
G01 X3.6375Y13.8732
G01 X3.6220Y13.8113
G01 X3.6005Y13.7513
G01 X3.5732Y13.6936
G01 X3.5405Y13.6389
G01 X3.5025Y13.5876
G01 X3.4596Y13.5404
G01 X3.4124Y13.4975
G01 X3.3611Y13.4595
G01 X3.3064Y13.4268
G01 X3.2487Y13.3995
G01 X3.1887Y13.3780
G01 X3.1268Y13.3625
G01 X3.0637Y13.3531
G01 X3.0000Y13.3500
G01 X2.9363Y13.3531
G01 X2.8732Y13.3625
G01 X2.8113Y13.3780
G01 X2.7513Y13.3995
G01 X2.6936Y13.4268
G01 X2.6389Y13.4595
G01 X2.5876Y13.4975
G01 X2.5404Y13.5404
G01 X2.4975Y13.5876
G01 X2.4595Y13.6389
G01 X2.4268Y13.6936
G01 X2.3995Y13.7513
G01 X2.3780Y13.8113
G01 X2.3625Y13.8732
G01 X2.3531Y13.9363
G01 X2.3500Y14.0000
G01 X2.3531Y14.0637
G01 X2.3625Y14.1268
G01 X2.3780Y14.1887
G01 X2.3995Y14.2487
G01 X2.4268Y14.3064
G01 X2.4595Y14.3611
G01 X2.4975Y14.4124
G01 X2.5404Y14.4596
G01 X2.5876Y14.5025
G01 X2.6389Y14.5405
G01 X2.6936Y14.5732
G01 X2.7513Y14.6005
G01 X2.8113Y14.6220
G01 X2.8732Y14.6375
G01 X2.9363Y14.6469
G01 X3.0000Y14.6500
G01 X3.0637Y14.6469
G01 X3.1268Y14.6375
G01 X3.1887Y14.6220
G01 X3.2487Y14.6005
G01 X3.3064Y14.5732
G01 X3.3611Y14.5405
G01 X3.4124Y14.5025
G01 X3.4596Y14.4596
G01 X3.5025Y14.4124
G01 X3.5405Y14.3611
G01 X3.5732Y14.3064
G01 X3.6005Y14.2487
G01 X3.6220Y14.1887
G01 X3.6375Y14.1268
G01 X3.6469Y14.0637
G01 X3.6500Y14.0000
G00 X3.6500Y14.0000
G01 Z-0.5000
G01 X3.6469Y13.9363
G01 X3.6375Y13.8732
G01 X3.6220Y13.8113
G01 X3.6005Y13.7513
G01 X3.5732Y13.6936
G01 X3.5405Y13.6389
G01 X3.5025Y13.5876
G01 X3.4596Y13.5404
G01 X3.4124Y13.4975
G01 X3.3611Y13.4595
G01 X3.3064Y13.4268
G01 X3.2487Y13.3995
G01 X3.1887Y13.3780
G01 X3.1268Y13.3625
G01 X3.0637Y13.3531
G01 X3.0000Y13.3500
G01 X2.9363Y13.3531
G01 X2.8732Y13.3625
G01 X2.8113Y13.3780
G01 X2.7513Y13.3995
G01 X2.6936Y13.4268
G01 X2.6389Y13.4595
G01 X2.5876Y13.4975
G01 X2.5404Y13.5404
G01 X2.4975Y13.5876
G01 X2.4595Y13.6389
G01 X2.4268Y13.6936
G01 X2.3995Y13.7513
G01 X2.3780Y13.8113
G01 X2.3625Y13.8732
G01 X2.3531Y13.9363
G01 X2.3500Y14.0000
G01 X2.3531Y14.0637
G01 X2.3625Y14.1268
G01 X2.3780Y14.1887
G01 X2.3995Y14.2487
G01 X2.4268Y14.3064
G01 X2.4595Y14.3611
G01 X2.4975Y14.4124
G01 X2.5404Y14.4596
G01 X2.5876Y14.5025
G01 X2.6389Y14.5405
G01 X2.6936Y14.5732
G01 X2.7513Y14.6005
G01 X2.8113Y14.6220
G01 X2.8732Y14.6375
G01 X2.9363Y14.6469
G01 X3.0000Y14.6500
G01 X3.0637Y14.6469
G01 X3.1268Y14.6375
G01 X3.1887Y14.6220
G01 X3.2487Y14.6005
G01 X3.3064Y14.5732
G01 X3.3611Y14.5405
G01 X3.4124Y14.5025
G01 X3.4596Y14.4596
G01 X3.5025Y14.4124
G01 X3.5405Y14.3611
G01 X3.5732Y14.3064
G01 X3.6005Y14.2487
G01 X3.6220Y14.1887
G01 X3.6375Y14.1268
G01 X3.6469Y14.0637
G01 X3.6500Y14.0000
G00 X3.6500Y14.0000
G01 Z-0.7500
G01 X3.6469Y13.9363
G01 X3.6375Y13.8732
G01 X3.6220Y13.8113
G01 X3.6005Y13.7513
G01 X3.5732Y13.6936
G01 X3.5405Y13.6389
G01 X3.5025Y13.5876
G01 X3.4596Y13.5404
G01 X3.4124Y13.4975
G01 X3.3611Y13.4595
G01 X3.3064Y13.4268
G01 X3.2487Y13.3995
G01 X3.1887Y13.3780
G01 X3.1268Y13.3625
G01 X3.0637Y13.3531
G01 X3.0000Y13.3500
G01 X2.9363Y13.3531
G01 X2.8732Y13.3625
G01 X2.8113Y13.3780
G01 X2.7513Y13.3995
G01 X2.6936Y13.4268
G01 X2.6389Y13.4595
G01 X2.5876Y13.4975
G01 X2.5404Y13.5404
G01 X2.4975Y13.5876
G01 X2.4595Y13.6389
G01 X2.4268Y13.6936
G01 X2.3995Y13.7513
G01 X2.3780Y13.8113
G01 X2.3625Y13.8732
G01 X2.3531Y13.9363
G01 X2.3500Y14.0000
G01 X2.3531Y14.0637
G01 X2.3625Y14.1268
G01 X2.3780Y14.1887
G01 X2.3995Y14.2487
G01 X2.4268Y14.3064
G01 X2.4595Y14.3611
G01 X2.4975Y14.4124
G01 X2.5404Y14.4596
G01 X2.5876Y14.5025
G01 X2.6389Y14.5405
G01 X2.6936Y14.5732
G01 X2.7513Y14.6005
G01 X2.8113Y14.6220
G01 X2.8732Y14.6375
G01 X2.9363Y14.6469
G01 X3.0000Y14.6500
G01 X3.0637Y14.6469
G01 X3.1268Y14.6375
G01 X3.1887Y14.6220
G01 X3.2487Y14.6005
G01 X3.3064Y14.5732
G01 X3.3611Y14.5405
G01 X3.4124Y14.5025
G01 X3.4596Y14.4596
G01 X3.5025Y14.4124
G01 X3.5405Y14.3611
G01 X3.5732Y14.3064
G01 X3.6005Y14.2487
G01 X3.6220Y14.1887
G01 X3.6375Y14.1268
G01 X3.6469Y14.0637
G01 X3.6500Y14.0000
G00 X3.6500Y14.0000
G01 Z-1.0000
G01 X3.6469Y13.9363
G01 X3.6375Y13.8732
G01 X3.6220Y13.8113
G01 X3.6005Y13.7513
G01 X3.5732Y13.6936
G01 X3.5405Y13.6389
G01 X3.5025Y13.5876
G01 X3.4596Y13.5404
G01 X3.4124Y13.4975
G01 X3.3611Y13.4595
G01 X3.3064Y13.4268
G01 X3.2487Y13.3995
G01 X3.1887Y13.3780
G01 X3.1268Y13.3625
G01 X3.0637Y13.3531
G01 X3.0000Y13.3500
G01 X2.9363Y13.3531
G01 X2.8732Y13.3625
G01 X2.8113Y13.3780
G01 X2.7513Y13.3995
G01 X2.6936Y13.4268
G01 X2.6389Y13.4595
G01 X2.5876Y13.4975
G01 X2.5404Y13.5404
G01 X2.4975Y13.5876
G01 X2.4595Y13.6389
G01 X2.4268Y13.6936
G01 X2.3995Y13.7513
G01 X2.3780Y13.8113
G01 X2.3625Y13.8732
G01 X2.3531Y13.9363
G01 X2.3500Y14.0000
G01 X2.3531Y14.0637
G01 X2.3625Y14.1268
G01 X2.3780Y14.1887
G01 X2.3995Y14.2487
G01 X2.4268Y14.3064
G01 X2.4595Y14.3611
G01 X2.4975Y14.4124
G01 X2.5404Y14.4596
G01 X2.5876Y14.5025
G01 X2.6389Y14.5405
G01 X2.6936Y14.5732
G01 X2.7513Y14.6005
G01 X2.8113Y14.6220
G01 X2.8732Y14.6375
G01 X2.9363Y14.6469
G01 X3.0000Y14.6500
G01 X3.0637Y14.6469
G01 X3.1268Y14.6375
G01 X3.1887Y14.6220
G01 X3.2487Y14.6005
G01 X3.3064Y14.5732
G01 X3.3611Y14.5405
G01 X3.4124Y14.5025
G01 X3.4596Y14.4596
G01 X3.5025Y14.4124
G01 X3.5405Y14.3611
G01 X3.5732Y14.3064
G01 X3.6005Y14.2487
G01 X3.6220Y14.1887
G01 X3.6375Y14.1268
G01 X3.6469Y14.0637
G01 X3.6500Y14.0000
G00 X3.6500Y14.0000
G01 Z-1.2500
G01 X3.6469Y13.9363
G01 X3.6375Y13.8732
G01 X3.6220Y13.8113
G01 X3.6005Y13.7513
G01 X3.5732Y13.6936
G01 X3.5405Y13.6389
G01 X3.5025Y13.5876
G01 X3.4596Y13.5404
G01 X3.4124Y13.4975
G01 X3.3611Y13.4595
G01 X3.3064Y13.4268
G01 X3.2487Y13.3995
G01 X3.1887Y13.3780
G01 X3.1268Y13.3625
G01 X3.0637Y13.3531
G01 X3.0000Y13.3500
G01 X2.9363Y13.3531
G01 X2.8732Y13.3625
G01 X2.8113Y13.3780
G01 X2.7513Y13.3995
G01 X2.6936Y13.4268
G01 X2.6389Y13.4595
G01 X2.5876Y13.4975
G01 X2.5404Y13.5404
G01 X2.4975Y13.5876
G01 X2.4595Y13.6389
G01 X2.4268Y13.6936
G01 X2.3995Y13.7513
G01 X2.3780Y13.8113
G01 X2.3625Y13.8732
G01 X2.3531Y13.9363
G01 X2.3500Y14.0000
G01 X2.3531Y14.0637
G01 X2.3625Y14.1268
G01 X2.3780Y14.1887
G01 X2.3995Y14.2487
G01 X2.4268Y14.3064
G01 X2.4595Y14.3611
G01 X2.4975Y14.4124
G01 X2.5404Y14.4596
G01 X2.5876Y14.5025
G01 X2.6389Y14.5405
G01 X2.6936Y14.5732
G01 X2.7513Y14.6005
G01 X2.8113Y14.6220
G01 X2.8732Y14.6375
G01 X2.9363Y14.6469
G01 X3.0000Y14.6500
G01 X3.0637Y14.6469
G01 X3.1268Y14.6375
G01 X3.1887Y14.6220
G01 X3.2487Y14.6005
G01 X3.3064Y14.5732
G01 X3.3611Y14.5405
G01 X3.4124Y14.5025
G01 X3.4596Y14.4596
G01 X3.5025Y14.4124
G01 X3.5405Y14.3611
G01 X3.5732Y14.3064
G01 X3.6005Y14.2487
G01 X3.6220Y14.1887
G01 X3.6375Y14.1268
G01 X3.6469Y14.0637
G01 X3.6500Y14.0000
G00 X3.6500Y14.0000
G01 Z-1.5000
G01 X3.6469Y13.9363
G01 X3.6375Y13.8732
G01 X3.6220Y13.8113
G01 X3.6005Y13.7513
G01 X3.5732Y13.6936
G01 X3.5405Y13.6389
G01 X3.5025Y13.5876
G01 X3.4596Y13.5404
G01 X3.4124Y13.4975
G01 X3.3611Y13.4595
G01 X3.3064Y13.4268
G01 X3.2487Y13.3995
G01 X3.1887Y13.3780
G01 X3.1268Y13.3625
G01 X3.0637Y13.3531
G01 X3.0000Y13.3500
G01 X2.9363Y13.3531
G01 X2.8732Y13.3625
G01 X2.8113Y13.3780
G01 X2.7513Y13.3995
G01 X2.6936Y13.4268
G01 X2.6389Y13.4595
G01 X2.5876Y13.4975
G01 X2.5404Y13.5404
G01 X2.4975Y13.5876
G01 X2.4595Y13.6389
G01 X2.4268Y13.6936
G01 X2.3995Y13.7513
G01 X2.3780Y13.8113
G01 X2.3625Y13.8732
G01 X2.3531Y13.9363
G01 X2.3500Y14.0000
G01 X2.3531Y14.0637
G01 X2.3625Y14.1268
G01 X2.3780Y14.1887
G01 X2.3995Y14.2487
G01 X2.4268Y14.3064
G01 X2.4595Y14.3611
G01 X2.4975Y14.4124
G01 X2.5404Y14.4596
G01 X2.5876Y14.5025
G01 X2.6389Y14.5405
G01 X2.6936Y14.5732
G01 X2.7513Y14.6005
G01 X2.8113Y14.6220
G01 X2.8732Y14.6375
G01 X2.9363Y14.6469
G01 X3.0000Y14.6500
G01 X3.0637Y14.6469
G01 X3.1268Y14.6375
G01 X3.1887Y14.6220
G01 X3.2487Y14.6005
G01 X3.3064Y14.5732
G01 X3.3611Y14.5405
G01 X3.4124Y14.5025
G01 X3.4596Y14.4596
G01 X3.5025Y14.4124
G01 X3.5405Y14.3611
G01 X3.5732Y14.3064
G01 X3.6005Y14.2487
G01 X3.6220Y14.1887
G01 X3.6375Y14.1268
G01 X3.6469Y14.0637
G01 X3.6500Y14.0000
G00 X3.6500Y14.0000
G01 Z-1.7500
G01 X3.6469Y13.9363
G01 X3.6375Y13.8732
G01 X3.6220Y13.8113
G01 X3.6005Y13.7513
G01 X3.5732Y13.6936
G01 X3.5405Y13.6389
G01 X3.5025Y13.5876
G01 X3.4596Y13.5404
G01 X3.4124Y13.4975
G01 X3.3611Y13.4595
G01 X3.3064Y13.4268
G01 X3.2487Y13.3995
G01 X3.1887Y13.3780
G01 X3.1268Y13.3625
G01 X3.0637Y13.3531
G01 X3.0000Y13.3500
G01 X2.9363Y13.3531
G01 X2.8732Y13.3625
G01 X2.8113Y13.3780
G01 X2.7513Y13.3995
G01 X2.6936Y13.4268
G01 X2.6389Y13.4595
G01 X2.5876Y13.4975
G01 X2.5404Y13.5404
G01 X2.4975Y13.5876
G01 X2.4595Y13.6389
G01 X2.4268Y13.6936
G01 X2.3995Y13.7513
G01 X2.3780Y13.8113
G01 X2.3625Y13.8732
G01 X2.3531Y13.9363
G01 X2.3500Y14.0000
G01 X2.3531Y14.0637
G01 X2.3625Y14.1268
G01 X2.3780Y14.1887
G01 X2.3995Y14.2487
G01 X2.4268Y14.3064
G01 X2.4595Y14.3611
G01 X2.4975Y14.4124
G01 X2.5404Y14.4596
G01 X2.5876Y14.5025
G01 X2.6389Y14.5405
G01 X2.6936Y14.5732
G01 X2.7513Y14.6005
G01 X2.8113Y14.6220
G01 X2.8732Y14.6375
G01 X2.9363Y14.6469
G01 X3.0000Y14.6500
G01 X3.0637Y14.6469
G01 X3.1268Y14.6375
G01 X3.1887Y14.6220
G01 X3.2487Y14.6005
G01 X3.3064Y14.5732
G01 X3.3611Y14.5405
G01 X3.4124Y14.5025
G01 X3.4596Y14.4596
G01 X3.5025Y14.4124
G01 X3.5405Y14.3611
G01 X3.5732Y14.3064
G01 X3.6005Y14.2487
G01 X3.6220Y14.1887
G01 X3.6375Y14.1268
G01 X3.6469Y14.0637
G01 X3.6500Y14.0000
G00 X3.6500Y14.0000
G01 Z-2.0000
G01 X3.6469Y13.9363
G01 X3.6375Y13.8732
G01 X3.6220Y13.8113
G01 X3.6005Y13.7513
G01 X3.5732Y13.6936
G01 X3.5405Y13.6389
G01 X3.5025Y13.5876
G01 X3.4596Y13.5404
G01 X3.4124Y13.4975
G01 X3.3611Y13.4595
G01 X3.3064Y13.4268
G01 X3.2487Y13.3995
G01 X3.1887Y13.3780
G01 X3.1268Y13.3625
G01 X3.0637Y13.3531
G01 X3.0000Y13.3500
G01 X2.9363Y13.3531
G01 X2.8732Y13.3625
G01 X2.8113Y13.3780
G01 X2.7513Y13.3995
G01 X2.6936Y13.4268
G01 X2.6389Y13.4595
G01 X2.5876Y13.4975
G01 X2.5404Y13.5404
G01 X2.4975Y13.5876
G01 X2.4595Y13.6389
G01 X2.4268Y13.6936
G01 X2.3995Y13.7513
G01 X2.3780Y13.8113
G01 X2.3625Y13.8732
G01 X2.3531Y13.9363
G01 X2.3500Y14.0000
G01 X2.3531Y14.0637
G01 X2.3625Y14.1268
G01 X2.3780Y14.1887
G01 X2.3995Y14.2487
G01 X2.4268Y14.3064
G01 X2.4595Y14.3611
G01 X2.4975Y14.4124
G01 X2.5404Y14.4596
G01 X2.5876Y14.5025
G01 X2.6389Y14.5405
G01 X2.6936Y14.5732
G01 X2.7513Y14.6005
G01 X2.8113Y14.6220
G01 X2.8732Y14.6375
G01 X2.9363Y14.6469
G01 X3.0000Y14.6500
G01 X3.0637Y14.6469
G01 X3.1268Y14.6375
G01 X3.1887Y14.6220
G01 X3.2487Y14.6005
G01 X3.3064Y14.5732
G01 X3.3611Y14.5405
G01 X3.4124Y14.5025
G01 X3.4596Y14.4596
G01 X3.5025Y14.4124
G01 X3.5405Y14.3611
G01 X3.5732Y14.3064
G01 X3.6005Y14.2487
G01 X3.6220Y14.1887
G01 X3.6375Y14.1268
G01 X3.6469Y14.0637
G01 X3.6500Y14.0000
G00 Z3.0000
G00 X3.6500Y42.0000
G01 Z-0.2500
G01 X3.6469Y41.9363
G01 X3.6375Y41.8732
G01 X3.6220Y41.8113
G01 X3.6005Y41.7513
G01 X3.5732Y41.6936
G01 X3.5405Y41.6389
G01 X3.5025Y41.5876
G01 X3.4596Y41.5404
G01 X3.4124Y41.4975
G01 X3.3611Y41.4595
G01 X3.3064Y41.4268
G01 X3.2487Y41.3995
G01 X3.1887Y41.3780
G01 X3.1268Y41.3625
G01 X3.0637Y41.3531
G01 X3.0000Y41.3500
G01 X2.9363Y41.3531
G01 X2.8732Y41.3625
G01 X2.8113Y41.3780
G01 X2.7513Y41.3995
G01 X2.6936Y41.4268
G01 X2.6389Y41.4595
G01 X2.5876Y41.4975
G01 X2.5404Y41.5404
G01 X2.4975Y41.5876
G01 X2.4595Y41.6389
G01 X2.4268Y41.6936
G01 X2.3995Y41.7513
G01 X2.3780Y41.8113
G01 X2.3625Y41.8732
G01 X2.3531Y41.9363
G01 X2.3500Y42.0000
G01 X2.3531Y42.0637
G01 X2.3625Y42.1268
G01 X2.3780Y42.1887
G01 X2.3995Y42.2487
G01 X2.4268Y42.3064
G01 X2.4595Y42.3611
G01 X2.4975Y42.4124
G01 X2.5404Y42.4596
G01 X2.5876Y42.5025
G01 X2.6389Y42.5405
G01 X2.6936Y42.5732
G01 X2.7513Y42.6005
G01 X2.8113Y42.6220
G01 X2.8732Y42.6375
G01 X2.9363Y42.6469
G01 X3.0000Y42.6500
G01 X3.0637Y42.6469
G01 X3.1268Y42.6375
G01 X3.1887Y42.6220
G01 X3.2487Y42.6005
G01 X3.3064Y42.5732
G01 X3.3611Y42.5405
G01 X3.4124Y42.5025
G01 X3.4596Y42.4596
G01 X3.5025Y42.4124
G01 X3.5405Y42.3611
G01 X3.5732Y42.3064
G01 X3.6005Y42.2487
G01 X3.6220Y42.1887
G01 X3.6375Y42.1268
G01 X3.6469Y42.0637
G01 X3.6500Y42.0000
G00 X3.6500Y42.0000
G01 Z-0.5000
G01 X3.6469Y41.9363
G01 X3.6375Y41.8732
G01 X3.6220Y41.8113
G01 X3.6005Y41.7513
G01 X3.5732Y41.6936
G01 X3.5405Y41.6389
G01 X3.5025Y41.5876
G01 X3.4596Y41.5404
G01 X3.4124Y41.4975
G01 X3.3611Y41.4595
G01 X3.3064Y41.4268
G01 X3.2487Y41.3995
G01 X3.1887Y41.3780
G01 X3.1268Y41.3625
G01 X3.0637Y41.3531
G01 X3.0000Y41.3500
G01 X2.9363Y41.3531
G01 X2.8732Y41.3625
G01 X2.8113Y41.3780
G01 X2.7513Y41.3995
G01 X2.6936Y41.4268
G01 X2.6389Y41.4595
G01 X2.5876Y41.4975
G01 X2.5404Y41.5404
G01 X2.4975Y41.5876
G01 X2.4595Y41.6389
G01 X2.4268Y41.6936
G01 X2.3995Y41.7513
G01 X2.3780Y41.8113
G01 X2.3625Y41.8732
G01 X2.3531Y41.9363
G01 X2.3500Y42.0000
G01 X2.3531Y42.0637
G01 X2.3625Y42.1268
G01 X2.3780Y42.1887
G01 X2.3995Y42.2487
G01 X2.4268Y42.3064
G01 X2.4595Y42.3611
G01 X2.4975Y42.4124
G01 X2.5404Y42.4596
G01 X2.5876Y42.5025
G01 X2.6389Y42.5405
G01 X2.6936Y42.5732
G01 X2.7513Y42.6005
G01 X2.8113Y42.6220
G01 X2.8732Y42.6375
G01 X2.9363Y42.6469
G01 X3.0000Y42.6500
G01 X3.0637Y42.6469
G01 X3.1268Y42.6375
G01 X3.1887Y42.6220
G01 X3.2487Y42.6005
G01 X3.3064Y42.5732
G01 X3.3611Y42.5405
G01 X3.4124Y42.5025
G01 X3.4596Y42.4596
G01 X3.5025Y42.4124
G01 X3.5405Y42.3611
G01 X3.5732Y42.3064
G01 X3.6005Y42.2487
G01 X3.6220Y42.1887
G01 X3.6375Y42.1268
G01 X3.6469Y42.0637
G01 X3.6500Y42.0000
G00 X3.6500Y42.0000
G01 Z-0.7500
G01 X3.6469Y41.9363
G01 X3.6375Y41.8732
G01 X3.6220Y41.8113
G01 X3.6005Y41.7513
G01 X3.5732Y41.6936
G01 X3.5405Y41.6389
G01 X3.5025Y41.5876
G01 X3.4596Y41.5404
G01 X3.4124Y41.4975
G01 X3.3611Y41.4595
G01 X3.3064Y41.4268
G01 X3.2487Y41.3995
G01 X3.1887Y41.3780
G01 X3.1268Y41.3625
G01 X3.0637Y41.3531
G01 X3.0000Y41.3500
G01 X2.9363Y41.3531
G01 X2.8732Y41.3625
G01 X2.8113Y41.3780
G01 X2.7513Y41.3995
G01 X2.6936Y41.4268
G01 X2.6389Y41.4595
G01 X2.5876Y41.4975
G01 X2.5404Y41.5404
G01 X2.4975Y41.5876
G01 X2.4595Y41.6389
G01 X2.4268Y41.6936
G01 X2.3995Y41.7513
G01 X2.3780Y41.8113
G01 X2.3625Y41.8732
G01 X2.3531Y41.9363
G01 X2.3500Y42.0000
G01 X2.3531Y42.0637
G01 X2.3625Y42.1268
G01 X2.3780Y42.1887
G01 X2.3995Y42.2487
G01 X2.4268Y42.3064
G01 X2.4595Y42.3611
G01 X2.4975Y42.4124
G01 X2.5404Y42.4596
G01 X2.5876Y42.5025
G01 X2.6389Y42.5405
G01 X2.6936Y42.5732
G01 X2.7513Y42.6005
G01 X2.8113Y42.6220
G01 X2.8732Y42.6375
G01 X2.9363Y42.6469
G01 X3.0000Y42.6500
G01 X3.0637Y42.6469
G01 X3.1268Y42.6375
G01 X3.1887Y42.6220
G01 X3.2487Y42.6005
G01 X3.3064Y42.5732
G01 X3.3611Y42.5405
G01 X3.4124Y42.5025
G01 X3.4596Y42.4596
G01 X3.5025Y42.4124
G01 X3.5405Y42.3611
G01 X3.5732Y42.3064
G01 X3.6005Y42.2487
G01 X3.6220Y42.1887
G01 X3.6375Y42.1268
G01 X3.6469Y42.0637
G01 X3.6500Y42.0000
G00 X3.6500Y42.0000
G01 Z-1.0000
G01 X3.6469Y41.9363
G01 X3.6375Y41.8732
G01 X3.6220Y41.8113
G01 X3.6005Y41.7513
G01 X3.5732Y41.6936
G01 X3.5405Y41.6389
G01 X3.5025Y41.5876
G01 X3.4596Y41.5404
G01 X3.4124Y41.4975
G01 X3.3611Y41.4595
G01 X3.3064Y41.4268
G01 X3.2487Y41.3995
G01 X3.1887Y41.3780
G01 X3.1268Y41.3625
G01 X3.0637Y41.3531
G01 X3.0000Y41.3500
G01 X2.9363Y41.3531
G01 X2.8732Y41.3625
G01 X2.8113Y41.3780
G01 X2.7513Y41.3995
G01 X2.6936Y41.4268
G01 X2.6389Y41.4595
G01 X2.5876Y41.4975
G01 X2.5404Y41.5404
G01 X2.4975Y41.5876
G01 X2.4595Y41.6389
G01 X2.4268Y41.6936
G01 X2.3995Y41.7513
G01 X2.3780Y41.8113
G01 X2.3625Y41.8732
G01 X2.3531Y41.9363
G01 X2.3500Y42.0000
G01 X2.3531Y42.0637
G01 X2.3625Y42.1268
G01 X2.3780Y42.1887
G01 X2.3995Y42.2487
G01 X2.4268Y42.3064
G01 X2.4595Y42.3611
G01 X2.4975Y42.4124
G01 X2.5404Y42.4596
G01 X2.5876Y42.5025
G01 X2.6389Y42.5405
G01 X2.6936Y42.5732
G01 X2.7513Y42.6005
G01 X2.8113Y42.6220
G01 X2.8732Y42.6375
G01 X2.9363Y42.6469
G01 X3.0000Y42.6500
G01 X3.0637Y42.6469
G01 X3.1268Y42.6375
G01 X3.1887Y42.6220
G01 X3.2487Y42.6005
G01 X3.3064Y42.5732
G01 X3.3611Y42.5405
G01 X3.4124Y42.5025
G01 X3.4596Y42.4596
G01 X3.5025Y42.4124
G01 X3.5405Y42.3611
G01 X3.5732Y42.3064
G01 X3.6005Y42.2487
G01 X3.6220Y42.1887
G01 X3.6375Y42.1268
G01 X3.6469Y42.0637
G01 X3.6500Y42.0000
G00 X3.6500Y42.0000
G01 Z-1.2500
G01 X3.6469Y41.9363
G01 X3.6375Y41.8732
G01 X3.6220Y41.8113
G01 X3.6005Y41.7513
G01 X3.5732Y41.6936
G01 X3.5405Y41.6389
G01 X3.5025Y41.5876
G01 X3.4596Y41.5404
G01 X3.4124Y41.4975
G01 X3.3611Y41.4595
G01 X3.3064Y41.4268
G01 X3.2487Y41.3995
G01 X3.1887Y41.3780
G01 X3.1268Y41.3625
G01 X3.0637Y41.3531
G01 X3.0000Y41.3500
G01 X2.9363Y41.3531
G01 X2.8732Y41.3625
G01 X2.8113Y41.3780
G01 X2.7513Y41.3995
G01 X2.6936Y41.4268
G01 X2.6389Y41.4595
G01 X2.5876Y41.4975
G01 X2.5404Y41.5404
G01 X2.4975Y41.5876
G01 X2.4595Y41.6389
G01 X2.4268Y41.6936
G01 X2.3995Y41.7513
G01 X2.3780Y41.8113
G01 X2.3625Y41.8732
G01 X2.3531Y41.9363
G01 X2.3500Y42.0000
G01 X2.3531Y42.0637
G01 X2.3625Y42.1268
G01 X2.3780Y42.1887
G01 X2.3995Y42.2487
G01 X2.4268Y42.3064
G01 X2.4595Y42.3611
G01 X2.4975Y42.4124
G01 X2.5404Y42.4596
G01 X2.5876Y42.5025
G01 X2.6389Y42.5405
G01 X2.6936Y42.5732
G01 X2.7513Y42.6005
G01 X2.8113Y42.6220
G01 X2.8732Y42.6375
G01 X2.9363Y42.6469
G01 X3.0000Y42.6500
G01 X3.0637Y42.6469
G01 X3.1268Y42.6375
G01 X3.1887Y42.6220
G01 X3.2487Y42.6005
G01 X3.3064Y42.5732
G01 X3.3611Y42.5405
G01 X3.4124Y42.5025
G01 X3.4596Y42.4596
G01 X3.5025Y42.4124
G01 X3.5405Y42.3611
G01 X3.5732Y42.3064
G01 X3.6005Y42.2487
G01 X3.6220Y42.1887
G01 X3.6375Y42.1268
G01 X3.6469Y42.0637
G01 X3.6500Y42.0000
G00 X3.6500Y42.0000
G01 Z-1.5000
G01 X3.6469Y41.9363
G01 X3.6375Y41.8732
G01 X3.6220Y41.8113
G01 X3.6005Y41.7513
G01 X3.5732Y41.6936
G01 X3.5405Y41.6389
G01 X3.5025Y41.5876
G01 X3.4596Y41.5404
G01 X3.4124Y41.4975
G01 X3.3611Y41.4595
G01 X3.3064Y41.4268
G01 X3.2487Y41.3995
G01 X3.1887Y41.3780
G01 X3.1268Y41.3625
G01 X3.0637Y41.3531
G01 X3.0000Y41.3500
G01 X2.9363Y41.3531
G01 X2.8732Y41.3625
G01 X2.8113Y41.3780
G01 X2.7513Y41.3995
G01 X2.6936Y41.4268
G01 X2.6389Y41.4595
G01 X2.5876Y41.4975
G01 X2.5404Y41.5404
G01 X2.4975Y41.5876
G01 X2.4595Y41.6389
G01 X2.4268Y41.6936
G01 X2.3995Y41.7513
G01 X2.3780Y41.8113
G01 X2.3625Y41.8732
G01 X2.3531Y41.9363
G01 X2.3500Y42.0000
G01 X2.3531Y42.0637
G01 X2.3625Y42.1268
G01 X2.3780Y42.1887
G01 X2.3995Y42.2487
G01 X2.4268Y42.3064
G01 X2.4595Y42.3611
G01 X2.4975Y42.4124
G01 X2.5404Y42.4596
G01 X2.5876Y42.5025
G01 X2.6389Y42.5405
G01 X2.6936Y42.5732
G01 X2.7513Y42.6005
G01 X2.8113Y42.6220
G01 X2.8732Y42.6375
G01 X2.9363Y42.6469
G01 X3.0000Y42.6500
G01 X3.0637Y42.6469
G01 X3.1268Y42.6375
G01 X3.1887Y42.6220
G01 X3.2487Y42.6005
G01 X3.3064Y42.5732
G01 X3.3611Y42.5405
G01 X3.4124Y42.5025
G01 X3.4596Y42.4596
G01 X3.5025Y42.4124
G01 X3.5405Y42.3611
G01 X3.5732Y42.3064
G01 X3.6005Y42.2487
G01 X3.6220Y42.1887
G01 X3.6375Y42.1268
G01 X3.6469Y42.0637
G01 X3.6500Y42.0000
G00 X3.6500Y42.0000
G01 Z-1.7500
G01 X3.6469Y41.9363
G01 X3.6375Y41.8732
G01 X3.6220Y41.8113
G01 X3.6005Y41.7513
G01 X3.5732Y41.6936
G01 X3.5405Y41.6389
G01 X3.5025Y41.5876
G01 X3.4596Y41.5404
G01 X3.4124Y41.4975
G01 X3.3611Y41.4595
G01 X3.3064Y41.4268
G01 X3.2487Y41.3995
G01 X3.1887Y41.3780
G01 X3.1268Y41.3625
G01 X3.0637Y41.3531
G01 X3.0000Y41.3500
G01 X2.9363Y41.3531
G01 X2.8732Y41.3625
G01 X2.8113Y41.3780
G01 X2.7513Y41.3995
G01 X2.6936Y41.4268
G01 X2.6389Y41.4595
G01 X2.5876Y41.4975
G01 X2.5404Y41.5404
G01 X2.4975Y41.5876
G01 X2.4595Y41.6389
G01 X2.4268Y41.6936
G01 X2.3995Y41.7513
G01 X2.3780Y41.8113
G01 X2.3625Y41.8732
G01 X2.3531Y41.9363
G01 X2.3500Y42.0000
G01 X2.3531Y42.0637
G01 X2.3625Y42.1268
G01 X2.3780Y42.1887
G01 X2.3995Y42.2487
G01 X2.4268Y42.3064
G01 X2.4595Y42.3611
G01 X2.4975Y42.4124
G01 X2.5404Y42.4596
G01 X2.5876Y42.5025
G01 X2.6389Y42.5405
G01 X2.6936Y42.5732
G01 X2.7513Y42.6005
G01 X2.8113Y42.6220
G01 X2.8732Y42.6375
G01 X2.9363Y42.6469
G01 X3.0000Y42.6500
G01 X3.0637Y42.6469
G01 X3.1268Y42.6375
G01 X3.1887Y42.6220
G01 X3.2487Y42.6005
G01 X3.3064Y42.5732
G01 X3.3611Y42.5405
G01 X3.4124Y42.5025
G01 X3.4596Y42.4596
G01 X3.5025Y42.4124
G01 X3.5405Y42.3611
G01 X3.5732Y42.3064
G01 X3.6005Y42.2487
G01 X3.6220Y42.1887
G01 X3.6375Y42.1268
G01 X3.6469Y42.0637
G01 X3.6500Y42.0000
G00 X3.6500Y42.0000
G01 Z-2.0000
G01 X3.6469Y41.9363
G01 X3.6375Y41.8732
G01 X3.6220Y41.8113
G01 X3.6005Y41.7513
G01 X3.5732Y41.6936
G01 X3.5405Y41.6389
G01 X3.5025Y41.5876
G01 X3.4596Y41.5404
G01 X3.4124Y41.4975
G01 X3.3611Y41.4595
G01 X3.3064Y41.4268
G01 X3.2487Y41.3995
G01 X3.1887Y41.3780
G01 X3.1268Y41.3625
G01 X3.0637Y41.3531
G01 X3.0000Y41.3500
G01 X2.9363Y41.3531
G01 X2.8732Y41.3625
G01 X2.8113Y41.3780
G01 X2.7513Y41.3995
G01 X2.6936Y41.4268
G01 X2.6389Y41.4595
G01 X2.5876Y41.4975
G01 X2.5404Y41.5404
G01 X2.4975Y41.5876
G01 X2.4595Y41.6389
G01 X2.4268Y41.6936
G01 X2.3995Y41.7513
G01 X2.3780Y41.8113
G01 X2.3625Y41.8732
G01 X2.3531Y41.9363
G01 X2.3500Y42.0000
G01 X2.3531Y42.0637
G01 X2.3625Y42.1268
G01 X2.3780Y42.1887
G01 X2.3995Y42.2487
G01 X2.4268Y42.3064
G01 X2.4595Y42.3611
G01 X2.4975Y42.4124
G01 X2.5404Y42.4596
G01 X2.5876Y42.5025
G01 X2.6389Y42.5405
G01 X2.6936Y42.5732
G01 X2.7513Y42.6005
G01 X2.8113Y42.6220
G01 X2.8732Y42.6375
G01 X2.9363Y42.6469
G01 X3.0000Y42.6500
G01 X3.0637Y42.6469
G01 X3.1268Y42.6375
G01 X3.1887Y42.6220
G01 X3.2487Y42.6005
G01 X3.3064Y42.5732
G01 X3.3611Y42.5405
G01 X3.4124Y42.5025
G01 X3.4596Y42.4596
G01 X3.5025Y42.4124
G01 X3.5405Y42.3611
G01 X3.5732Y42.3064
G01 X3.6005Y42.2487
G01 X3.6220Y42.1887
G01 X3.6375Y42.1268
G01 X3.6469Y42.0637
G01 X3.6500Y42.0000
G00 Z3.0000
M05
G0 Z20
G0 X0 Y50