G0 Z20
G21
G90
G94
F100.00
G00 Z3.0000
M03 S45
G4 P1
G00 X-0.9739Y-0.0466
G01 Z-0.2500
G01 X-0.9646Y-0.1418
G01 X-0.9460Y-0.2357
G01 X-0.9184Y-0.3273
G01 X-0.8819Y-0.4157
G01 X-0.8369Y-0.5002
G01 X-0.7838Y-0.5798
G01 X-0.7232Y-0.6538
G01 X-0.6557Y-0.7216
G01 X-0.5818Y-0.7824
G01 X-0.5023Y-0.8356
G01 X-0.4180Y-0.8808
G01 X-0.3296Y-0.9176
G01 X-0.2381Y-0.9455
G01 X-0.1443Y-0.9642
G01 X-0.0491Y-0.9737
G01 X0.0000Y-0.9750
G01 X197.0000Y-0.9750
G01 X197.0491Y-0.9737
G01 X197.1418Y-0.9646
G01 X197.2381Y-0.9455
G01 X197.3296Y-0.9176
G01 X197.4180Y-0.8808
G01 X197.5002Y-0.8369
G01 X197.5798Y-0.7838
G01 X197.6538Y-0.7232
G01 X197.7216Y-0.6557
G01 X197.7824Y-0.5818
G01 X197.8356Y-0.5023
G01 X197.8808Y-0.4180
G01 X197.9176Y-0.3296
G01 X197.9460Y-0.2357
G01 X197.9646Y-0.1418
G01 X197.9739Y-0.0466
G01 X197.9750Y0.0000
G01 X197.9750Y25.0000
G01 X197.9737Y25.0491
G01 X197.9646Y25.1418
G01 X197.9460Y25.2357
G01 X197.9184Y25.3273
G01 X197.8819Y25.4157
G01 X197.8369Y25.5002
G01 X197.7838Y25.5798
G01 X197.7232Y25.6538
G01 X197.6538Y25.7232
G01 X197.5798Y25.7838
G01 X197.5002Y25.8369
G01 X197.4180Y25.8808
G01 X197.3296Y25.9176
G01 X197.2381Y25.9455
G01 X197.1443Y25.9642
G01 X197.0491Y25.9737
G01 X197.0000Y25.9750
G01 X0.0000Y25.9750
G01 X-0.0491Y25.9737
G01 X-0.1418Y25.9646
G01 X-0.2381Y25.9455
G01 X-0.3296Y25.9176
G01 X-0.4180Y25.8808
G01 X-0.5002Y25.8369
G01 X-0.5798Y25.7838
G01 X-0.6538Y25.7232
G01 X-0.7216Y25.6557
G01 X-0.7824Y25.5818
G01 X-0.8356Y25.5023
G01 X-0.8808Y25.4180
G01 X-0.9176Y25.3296
G01 X-0.9460Y25.2357
G01 X-0.9646Y25.1418
G01 X-0.9739Y25.0466
G01 X-0.9750Y25.0000
G01 X-0.9750Y0.0000
G01 X-0.9739Y-0.0466
G00 X-0.9739Y-0.0466
G01 Z-0.5000
G01 X-0.9646Y-0.1418
G01 X-0.9460Y-0.2357
G01 X-0.9184Y-0.3273
G01 X-0.8819Y-0.4157
G01 X-0.8369Y-0.5002
G01 X-0.7838Y-0.5798
G01 X-0.7232Y-0.6538
G01 X-0.6557Y-0.7216
G01 X-0.5818Y-0.7824
G01 X-0.5023Y-0.8356
G01 X-0.4180Y-0.8808
G01 X-0.3296Y-0.9176
G01 X-0.2381Y-0.9455
G01 X-0.1443Y-0.9642
G01 X-0.0491Y-0.9737
G01 X0.0000Y-0.9750
G01 X197.0000Y-0.9750
G01 X197.0491Y-0.9737
G01 X197.1418Y-0.9646
G01 X197.2381Y-0.9455
G01 X197.3296Y-0.9176
G01 X197.4180Y-0.8808
G01 X197.5002Y-0.8369
G01 X197.5798Y-0.7838
G01 X197.6538Y-0.7232
G01 X197.7216Y-0.6557
G01 X197.7824Y-0.5818
G01 X197.8356Y-0.5023
G01 X197.8808Y-0.4180
G01 X197.9176Y-0.3296
G01 X197.9460Y-0.2357
G01 X197.9646Y-0.1418
G01 X197.9739Y-0.0466
G01 X197.9750Y0.0000
G01 X197.9750Y25.0000
G01 X197.9737Y25.0491
G01 X197.9646Y25.1418
G01 X197.9460Y25.2357
G01 X197.9184Y25.3273
G01 X197.8819Y25.4157
G01 X197.8369Y25.5002
G01 X197.7838Y25.5798
G01 X197.7232Y25.6538
G01 X197.6538Y25.7232
G01 X197.5798Y25.7838
G01 X197.5002Y25.8369
G01 X197.4180Y25.8808
G01 X197.3296Y25.9176
G01 X197.2381Y25.9455
G01 X197.1443Y25.9642
G01 X197.0491Y25.9737
G01 X197.0000Y25.9750
G01 X0.0000Y25.9750
G01 X-0.0491Y25.9737
G01 X-0.1418Y25.9646
G01 X-0.2381Y25.9455
G01 X-0.3296Y25.9176
G01 X-0.4180Y25.8808
G01 X-0.5002Y25.8369
G01 X-0.5798Y25.7838
G01 X-0.6538Y25.7232
G01 X-0.7216Y25.6557
G01 X-0.7824Y25.5818
G01 X-0.8356Y25.5023
G01 X-0.8808Y25.4180
G01 X-0.9176Y25.3296
G01 X-0.9460Y25.2357
G01 X-0.9646Y25.1418
G01 X-0.9739Y25.0466
G01 X-0.9750Y25.0000
G01 X-0.9750Y0.0000
G01 X-0.9739Y-0.0466
G00 X-0.9739Y-0.0466
G01 Z-0.7500
G01 X-0.9646Y-0.1418
G01 X-0.9460Y-0.2357
G01 X-0.9184Y-0.3273
G01 X-0.8819Y-0.4157
G01 X-0.8369Y-0.5002
G01 X-0.7838Y-0.5798
G01 X-0.7232Y-0.6538
G01 X-0.6557Y-0.7216
G01 X-0.5818Y-0.7824
G01 X-0.5023Y-0.8356
G01 X-0.4180Y-0.8808
G01 X-0.3296Y-0.9176
G01 X-0.2381Y-0.9455
G01 X-0.1443Y-0.9642
G01 X-0.0491Y-0.9737
G01 X0.0000Y-0.9750
G01 X197.0000Y-0.9750
G01 X197.0491Y-0.9737
G01 X197.1418Y-0.9646
G01 X197.2381Y-0.9455
G01 X197.3296Y-0.9176
G01 X197.4180Y-0.8808
G01 X197.5002Y-0.8369
G01 X197.5798Y-0.7838
G01 X197.6538Y-0.7232
G01 X197.7216Y-0.6557
G01 X197.7824Y-0.5818
G01 X197.8356Y-0.5023
G01 X197.8808Y-0.4180
G01 X197.9176Y-0.3296
G01 X197.9460Y-0.2357
G01 X197.9646Y-0.1418
G01 X197.9739Y-0.0466
G01 X197.9750Y0.0000
G01 X197.9750Y25.0000
G01 X197.9737Y25.0491
G01 X197.9646Y25.1418
G01 X197.9460Y25.2357
G01 X197.9184Y25.3273
G01 X197.8819Y25.4157
G01 X197.8369Y25.5002
G01 X197.7838Y25.5798
G01 X197.7232Y25.6538
G01 X197.6538Y25.7232
G01 X197.5798Y25.7838
G01 X197.5002Y25.8369
G01 X197.4180Y25.8808
G01 X197.3296Y25.9176
G01 X197.2381Y25.9455
G01 X197.1443Y25.9642
G01 X197.0491Y25.9737
G01 X197.0000Y25.9750
G01 X0.0000Y25.9750
G01 X-0.0491Y25.9737
G01 X-0.1418Y25.9646
G01 X-0.2381Y25.9455
G01 X-0.3296Y25.9176
G01 X-0.4180Y25.8808
G01 X-0.5002Y25.8369
G01 X-0.5798Y25.7838
G01 X-0.6538Y25.7232
G01 X-0.7216Y25.6557
G01 X-0.7824Y25.5818
G01 X-0.8356Y25.5023
G01 X-0.8808Y25.4180
G01 X-0.9176Y25.3296
G01 X-0.9460Y25.2357
G01 X-0.9646Y25.1418
G01 X-0.9739Y25.0466
G01 X-0.9750Y25.0000
G01 X-0.9750Y0.0000
G01 X-0.9739Y-0.0466
G00 X-0.9739Y-0.0466
G01 Z-1.0000
G01 X-0.9646Y-0.1418
G01 X-0.9460Y-0.2357
G01 X-0.9184Y-0.3273
G01 X-0.8819Y-0.4157
G01 X-0.8369Y-0.5002
G01 X-0.7838Y-0.5798
G01 X-0.7232Y-0.6538
G01 X-0.6557Y-0.7216
G01 X-0.5818Y-0.7824
G01 X-0.5023Y-0.8356
G01 X-0.4180Y-0.8808
G01 X-0.3296Y-0.9176
G01 X-0.2381Y-0.9455
G01 X-0.1443Y-0.9642
G01 X-0.0491Y-0.9737
G01 X0.0000Y-0.9750
G01 X197.0000Y-0.9750
G01 X197.0491Y-0.9737
G01 X197.1418Y-0.9646
G01 X197.2381Y-0.9455
G01 X197.3296Y-0.9176
G01 X197.4180Y-0.8808
G01 X197.5002Y-0.8369
G01 X197.5798Y-0.7838
G01 X197.6538Y-0.7232
G01 X197.7216Y-0.6557
G01 X197.7824Y-0.5818
G01 X197.8356Y-0.5023
G01 X197.8808Y-0.4180
G01 X197.9176Y-0.3296
G01 X197.9460Y-0.2357
G01 X197.9646Y-0.1418
G01 X197.9739Y-0.0466
G01 X197.9750Y0.0000
G01 X197.9750Y25.0000
G01 X197.9737Y25.0491
G01 X197.9646Y25.1418
G01 X197.9460Y25.2357
G01 X197.9184Y25.3273
G01 X197.8819Y25.4157
G01 X197.8369Y25.5002
G01 X197.7838Y25.5798
G01 X197.7232Y25.6538
G01 X197.6538Y25.7232
G01 X197.5798Y25.7838
G01 X197.5002Y25.8369
G01 X197.4180Y25.8808
G01 X197.3296Y25.9176
G01 X197.2381Y25.9455
G01 X197.1443Y25.9642
G01 X197.0491Y25.9737
G01 X197.0000Y25.9750
G01 X0.0000Y25.9750
G01 X-0.0491Y25.9737
G01 X-0.1418Y25.9646
G01 X-0.2381Y25.9455
G01 X-0.3296Y25.9176
G01 X-0.4180Y25.8808
G01 X-0.5002Y25.8369
G01 X-0.5798Y25.7838
G01 X-0.6538Y25.7232
G01 X-0.7216Y25.6557
G01 X-0.7824Y25.5818
G01 X-0.8356Y25.5023
G01 X-0.8808Y25.4180
G01 X-0.9176Y25.3296
G01 X-0.9460Y25.2357
G01 X-0.9646Y25.1418
G01 X-0.9739Y25.0466
G01 X-0.9750Y25.0000
G01 X-0.9750Y0.0000
G01 X-0.9739Y-0.0466
G00 X-0.9739Y-0.0466
G01 Z-1.2500
G01 X-0.9646Y-0.1418
G01 X-0.9460Y-0.2357
G01 X-0.9184Y-0.3273
G01 X-0.8819Y-0.4157
G01 X-0.8369Y-0.5002
G01 X-0.7838Y-0.5798
G01 X-0.7232Y-0.6538
G01 X-0.6557Y-0.7216
G01 X-0.5818Y-0.7824
G01 X-0.5023Y-0.8356
G01 X-0.4180Y-0.8808
G01 X-0.3296Y-0.9176
G01 X-0.2381Y-0.9455
G01 X-0.1443Y-0.9642
G01 X-0.0491Y-0.9737
G01 X0.0000Y-0.9750
G01 X197.0000Y-0.9750
G01 X197.0491Y-0.9737
G01 X197.1418Y-0.9646
G01 X197.2381Y-0.9455
G01 X197.3296Y-0.9176
G01 X197.4180Y-0.8808
G01 X197.5002Y-0.8369
G01 X197.5798Y-0.7838
G01 X197.6538Y-0.7232
G01 X197.7216Y-0.6557
G01 X197.7824Y-0.5818
G01 X197.8356Y-0.5023
G01 X197.8808Y-0.4180
G01 X197.9176Y-0.3296
G01 X197.9460Y-0.2357
G01 X197.9646Y-0.1418
G01 X197.9739Y-0.0466
G01 X197.9750Y0.0000
G01 X197.9750Y25.0000
G01 X197.9737Y25.0491
G01 X197.9646Y25.1418
G01 X197.9460Y25.2357
G01 X197.9184Y25.3273
G01 X197.8819Y25.4157
G01 X197.8369Y25.5002
G01 X197.7838Y25.5798
G01 X197.7232Y25.6538
G01 X197.6538Y25.7232
G01 X197.5798Y25.7838
G01 X197.5002Y25.8369
G01 X197.4180Y25.8808
G01 X197.3296Y25.9176
G01 X197.2381Y25.9455
G01 X197.1443Y25.9642
G01 X197.0491Y25.9737
G01 X197.0000Y25.9750
G01 X0.0000Y25.9750
G01 X-0.0491Y25.9737
G01 X-0.1418Y25.9646
G01 X-0.2381Y25.9455
G01 X-0.3296Y25.9176
G01 X-0.4180Y25.8808
G01 X-0.5002Y25.8369
G01 X-0.5798Y25.7838
G01 X-0.6538Y25.7232
G01 X-0.7216Y25.6557
G01 X-0.7824Y25.5818
G01 X-0.8356Y25.5023
G01 X-0.8808Y25.4180
G01 X-0.9176Y25.3296
G01 X-0.9460Y25.2357
G01 X-0.9646Y25.1418
G01 X-0.9739Y25.0466
G01 X-0.9750Y25.0000
G01 X-0.9750Y0.0000
G01 X-0.9739Y-0.0466
G00 X-0.9739Y-0.0466
G01 Z-1.5000
G01 X-0.9646Y-0.1418
G01 X-0.9460Y-0.2357
G01 X-0.9184Y-0.3273
G01 X-0.8819Y-0.4157
G01 X-0.8369Y-0.5002
G01 X-0.7838Y-0.5798
G01 X-0.7232Y-0.6538
G01 X-0.6557Y-0.7216
G01 X-0.5818Y-0.7824
G01 X-0.5023Y-0.8356
G01 X-0.4180Y-0.8808
G01 X-0.3296Y-0.9176
G01 X-0.2381Y-0.9455
G01 X-0.1443Y-0.9642
G01 X-0.0491Y-0.9737
G01 X0.0000Y-0.9750
G01 X197.0000Y-0.9750
G01 X197.0491Y-0.9737
G01 X197.1418Y-0.9646
G01 X197.2381Y-0.9455
G01 X197.3296Y-0.9176
G01 X197.4180Y-0.8808
G01 X197.5002Y-0.8369
G01 X197.5798Y-0.7838
G01 X197.6538Y-0.7232
G01 X197.7216Y-0.6557
G01 X197.7824Y-0.5818
G01 X197.8356Y-0.5023
G01 X197.8808Y-0.4180
G01 X197.9176Y-0.3296
G01 X197.9460Y-0.2357
G01 X197.9646Y-0.1418
G01 X197.9739Y-0.0466
G01 X197.9750Y0.0000
G01 X197.9750Y25.0000
G01 X197.9737Y25.0491
G01 X197.9646Y25.1418
G01 X197.9460Y25.2357
G01 X197.9184Y25.3273
G01 X197.8819Y25.4157
G01 X197.8369Y25.5002
G01 X197.7838Y25.5798
G01 X197.7232Y25.6538
G01 X197.6538Y25.7232
G01 X197.5798Y25.7838
G01 X197.5002Y25.8369
G01 X197.4180Y25.8808
G01 X197.3296Y25.9176
G01 X197.2381Y25.9455
G01 X197.1443Y25.9642
G01 X197.0491Y25.9737
G01 X197.0000Y25.9750
G01 X0.0000Y25.9750
G01 X-0.0491Y25.9737
G01 X-0.1418Y25.9646
G01 X-0.2381Y25.9455
G01 X-0.3296Y25.9176
G01 X-0.4180Y25.8808
G01 X-0.5002Y25.8369
G01 X-0.5798Y25.7838
G01 X-0.6538Y25.7232
G01 X-0.7216Y25.6557
G01 X-0.7824Y25.5818
G01 X-0.8356Y25.5023
G01 X-0.8808Y25.4180
G01 X-0.9176Y25.3296
G01 X-0.9460Y25.2357
G01 X-0.9646Y25.1418
G01 X-0.9739Y25.0466
G01 X-0.9750Y25.0000
G01 X-0.9750Y0.0000
G01 X-0.9739Y-0.0466
G00 X-0.9739Y-0.0466
G01 Z-1.7500
G01 X-0.9646Y-0.1418
G01 X-0.9460Y-0.2357
G01 X-0.9184Y-0.3273
G01 X-0.8819Y-0.4157
G01 X-0.8369Y-0.5002
G01 X-0.7838Y-0.5798
G01 X-0.7232Y-0.6538
G01 X-0.6557Y-0.7216
G01 X-0.5818Y-0.7824
G01 X-0.5023Y-0.8356
G01 X-0.4180Y-0.8808
G01 X-0.3296Y-0.9176
G01 X-0.2381Y-0.9455
G01 X-0.1443Y-0.9642
G01 X-0.0491Y-0.9737
G01 X0.0000Y-0.9750
G01 X197.0000Y-0.9750
G01 X197.0491Y-0.9737
G01 X197.1418Y-0.9646
G01 X197.2381Y-0.9455
G01 X197.3296Y-0.9176
G01 X197.4180Y-0.8808
G01 X197.5002Y-0.8369
G01 X197.5798Y-0.7838
G01 X197.6538Y-0.7232
G01 X197.7216Y-0.6557
G01 X197.7824Y-0.5818
G01 X197.8356Y-0.5023
G01 X197.8808Y-0.4180
G01 X197.9176Y-0.3296
G01 X197.9460Y-0.2357
G01 X197.9646Y-0.1418
G01 X197.9739Y-0.0466
G01 X197.9750Y0.0000
G01 X197.9750Y25.0000
G01 X197.9737Y25.0491
G01 X197.9646Y25.1418
G01 X197.9460Y25.2357
G01 X197.9184Y25.3273
G01 X197.8819Y25.4157
G01 X197.8369Y25.5002
G01 X197.7838Y25.5798
G01 X197.7232Y25.6538
G01 X197.6538Y25.7232
G01 X197.5798Y25.7838
G01 X197.5002Y25.8369
G01 X197.4180Y25.8808
G01 X197.3296Y25.9176
G01 X197.2381Y25.9455
G01 X197.1443Y25.9642
G01 X197.0491Y25.9737
G01 X197.0000Y25.9750
G01 X0.0000Y25.9750
G01 X-0.0491Y25.9737
G01 X-0.1418Y25.9646
G01 X-0.2381Y25.9455
G01 X-0.3296Y25.9176
G01 X-0.4180Y25.8808
G01 X-0.5002Y25.8369
G01 X-0.5798Y25.7838
G01 X-0.6538Y25.7232
G01 X-0.7216Y25.6557
G01 X-0.7824Y25.5818
G01 X-0.8356Y25.5023
G01 X-0.8808Y25.4180
G01 X-0.9176Y25.3296
G01 X-0.9460Y25.2357
G01 X-0.9646Y25.1418
G01 X-0.9739Y25.0466
G01 X-0.9750Y25.0000
G01 X-0.9750Y0.0000
G01 X-0.9739Y-0.0466
G00 X-0.9739Y-0.0466
G01 Z-2.0000
G01 X-0.9646Y-0.1418
G01 X-0.9460Y-0.2357
G01 X-0.9184Y-0.3273
G01 X-0.8819Y-0.4157
G01 X-0.8369Y-0.5002
G01 X-0.7838Y-0.5798
G01 X-0.7232Y-0.6538
G01 X-0.6557Y-0.7216
G01 X-0.5818Y-0.7824
G01 X-0.5023Y-0.8356
G01 X-0.4180Y-0.8808
G01 X-0.3296Y-0.9176
G01 X-0.2381Y-0.9455
G01 X-0.1443Y-0.9642
G01 X-0.0491Y-0.9737
G01 X0.0000Y-0.9750
G01 X197.0000Y-0.9750
G01 X197.0491Y-0.9737
G01 X197.1418Y-0.9646
G01 X197.2381Y-0.9455
G01 X197.3296Y-0.9176
G01 X197.4180Y-0.8808
G01 X197.5002Y-0.8369
G01 X197.5798Y-0.7838
G01 X197.6538Y-0.7232
G01 X197.7216Y-0.6557
G01 X197.7824Y-0.5818
G01 X197.8356Y-0.5023
G01 X197.8808Y-0.4180
G01 X197.9176Y-0.3296
G01 X197.9460Y-0.2357
G01 X197.9646Y-0.1418
G01 X197.9739Y-0.0466
G01 X197.9750Y0.0000
G01 X197.9750Y25.0000
G01 X197.9737Y25.0491
G01 X197.9646Y25.1418
G01 X197.9460Y25.2357
G01 X197.9184Y25.3273
G01 X197.8819Y25.4157
G01 X197.8369Y25.5002
G01 X197.7838Y25.5798
G01 X197.7232Y25.6538
G01 X197.6538Y25.7232
G01 X197.5798Y25.7838
G01 X197.5002Y25.8369
G01 X197.4180Y25.8808
G01 X197.3296Y25.9176
G01 X197.2381Y25.9455
G01 X197.1443Y25.9642
G01 X197.0491Y25.9737
G01 X197.0000Y25.9750
G01 X0.0000Y25.9750
G01 X-0.0491Y25.9737
G01 X-0.1418Y25.9646
G01 X-0.2381Y25.9455
G01 X-0.3296Y25.9176
G01 X-0.4180Y25.8808
G01 X-0.5002Y25.8369
G01 X-0.5798Y25.7838
G01 X-0.6538Y25.7232
G01 X-0.7216Y25.6557
G01 X-0.7824Y25.5818
G01 X-0.8356Y25.5023
G01 X-0.8808Y25.4180
G01 X-0.9176Y25.3296
G01 X-0.9460Y25.2357
G01 X-0.9646Y25.1418
G01 X-0.9739Y25.0466
G01 X-0.9750Y25.0000
G01 X-0.9750Y0.0000
G01 X-0.9739Y-0.0466
G00 Z3.0000
G00 X-0.9739Y27.9534
G01 Z-0.2500
G01 X-0.9646Y27.8582
G01 X-0.9460Y27.7643
G01 X-0.9184Y27.6727
G01 X-0.8819Y27.5843
G01 X-0.8369Y27.4998
G01 X-0.7838Y27.4202
G01 X-0.7232Y27.3462
G01 X-0.6557Y27.2784
G01 X-0.5818Y27.2176
G01 X-0.5023Y27.1644
G01 X-0.4180Y27.1192
G01 X-0.3296Y27.0824
G01 X-0.2381Y27.0545
G01 X-0.1443Y27.0358
G01 X-0.0491Y27.0263
G01 X0.0000Y27.0250
G01 X197.0000Y27.0250
G01 X197.0491Y27.0263
G01 X197.1418Y27.0354
G01 X197.2381Y27.0545
G01 X197.3296Y27.0824
G01 X197.4180Y27.1192
G01 X197.5002Y27.1631
G01 X197.5798Y27.2162
G01 X197.6538Y27.2768
G01 X197.7216Y27.3443
G01 X197.7824Y27.4182
G01 X197.8356Y27.4977
G01 X197.8808Y27.5820
G01 X197.9176Y27.6704
G01 X197.9460Y27.7643
G01 X197.9646Y27.8582
G01 X197.9739Y27.9534
G01 X197.9750Y28.0000
G01 X197.9750Y53.0000
G01 X197.9737Y53.0491
G01 X197.9646Y53.1418
G01 X197.9460Y53.2357
G01 X197.9184Y53.3273
G01 X197.8819Y53.4157
G01 X197.8369Y53.5002
G01 X197.7838Y53.5798
G01 X197.7232Y53.6538
G01 X197.6538Y53.7232
G01 X197.5798Y53.7838
G01 X197.5002Y53.8369
G01 X197.4180Y53.8808
G01 X197.3296Y53.9176
G01 X197.2381Y53.9455
G01 X197.1443Y53.9642
G01 X197.0491Y53.9737
G01 X197.0000Y53.9750
G01 X0.0000Y53.9750
G01 X-0.0491Y53.9737
G01 X-0.1418Y53.9646
G01 X-0.2381Y53.9455
G01 X-0.3296Y53.9176
G01 X-0.4180Y53.8808
G01 X-0.5002Y53.8369
G01 X-0.5798Y53.7838
G01 X-0.6538Y53.7232
G01 X-0.7216Y53.6557
G01 X-0.7824Y53.5818
G01 X-0.8356Y53.5023
G01 X-0.8808Y53.4180
G01 X-0.9176Y53.3296
G01 X-0.9460Y53.2357
G01 X-0.9646Y53.1418
G01 X-0.9739Y53.0466
G01 X-0.9750Y53.0000
G01 X-0.9750Y28.0000
G01 X-0.9739Y27.9534
G00 X-0.9739Y27.9534
G01 Z-0.5000
G01 X-0.9646Y27.8582
G01 X-0.9460Y27.7643
G01 X-0.9184Y27.6727
G01 X-0.8819Y27.5843
G01 X-0.8369Y27.4998
G01 X-0.7838Y27.4202
G01 X-0.7232Y27.3462
G01 X-0.6557Y27.2784
G01 X-0.5818Y27.2176
G01 X-0.5023Y27.1644
G01 X-0.4180Y27.1192
G01 X-0.3296Y27.0824
G01 X-0.2381Y27.0545
G01 X-0.1443Y27.0358
G01 X-0.0491Y27.0263
G01 X0.0000Y27.0250
G01 X197.0000Y27.0250
G01 X197.0491Y27.0263
G01 X197.1418Y27.0354
G01 X197.2381Y27.0545
G01 X197.3296Y27.0824
G01 X197.4180Y27.1192
G01 X197.5002Y27.1631
G01 X197.5798Y27.2162
G01 X197.6538Y27.2768
G01 X197.7216Y27.3443
G01 X197.7824Y27.4182
G01 X197.8356Y27.4977
G01 X197.8808Y27.5820
G01 X197.9176Y27.6704
G01 X197.9460Y27.7643
G01 X197.9646Y27.8582
G01 X197.9739Y27.9534
G01 X197.9750Y28.0000
G01 X197.9750Y53.0000
G01 X197.9737Y53.0491
G01 X197.9646Y53.1418
G01 X197.9460Y53.2357
G01 X197.9184Y53.3273
G01 X197.8819Y53.4157
G01 X197.8369Y53.5002
G01 X197.7838Y53.5798
G01 X197.7232Y53.6538
G01 X197.6538Y53.7232
G01 X197.5798Y53.7838
G01 X197.5002Y53.8369
G01 X197.4180Y53.8808
G01 X197.3296Y53.9176
G01 X197.2381Y53.9455
G01 X197.1443Y53.9642
G01 X197.0491Y53.9737
G01 X197.0000Y53.9750
G01 X0.0000Y53.9750
G01 X-0.0491Y53.9737
G01 X-0.1418Y53.9646
G01 X-0.2381Y53.9455
G01 X-0.3296Y53.9176
G01 X-0.4180Y53.8808
G01 X-0.5002Y53.8369
G01 X-0.5798Y53.7838
G01 X-0.6538Y53.7232
G01 X-0.7216Y53.6557
G01 X-0.7824Y53.5818
G01 X-0.8356Y53.5023
G01 X-0.8808Y53.4180
G01 X-0.9176Y53.3296
G01 X-0.9460Y53.2357
G01 X-0.9646Y53.1418
G01 X-0.9739Y53.0466
G01 X-0.9750Y53.0000
G01 X-0.9750Y28.0000
G01 X-0.9739Y27.9534
G00 X-0.9739Y27.9534
G01 Z-0.7500
G01 X-0.9646Y27.8582
G01 X-0.9460Y27.7643
G01 X-0.9184Y27.6727
G01 X-0.8819Y27.5843
G01 X-0.8369Y27.4998
G01 X-0.7838Y27.4202
G01 X-0.7232Y27.3462
G01 X-0.6557Y27.2784
G01 X-0.5818Y27.2176
G01 X-0.5023Y27.1644
G01 X-0.4180Y27.1192
G01 X-0.3296Y27.0824
G01 X-0.2381Y27.0545
G01 X-0.1443Y27.0358
G01 X-0.0491Y27.0263
G01 X0.0000Y27.0250
G01 X197.0000Y27.0250
G01 X197.0491Y27.0263
G01 X197.1418Y27.0354
G01 X197.2381Y27.0545
G01 X197.3296Y27.0824
G01 X197.4180Y27.1192
G01 X197.5002Y27.1631
G01 X197.5798Y27.2162
G01 X197.6538Y27.2768
G01 X197.7216Y27.3443
G01 X197.7824Y27.4182
G01 X197.8356Y27.4977
G01 X197.8808Y27.5820
G01 X197.9176Y27.6704
G01 X197.9460Y27.7643
G01 X197.9646Y27.8582
G01 X197.9739Y27.9534
G01 X197.9750Y28.0000
G01 X197.9750Y53.0000
G01 X197.9737Y53.0491
G01 X197.9646Y53.1418
G01 X197.9460Y53.2357
G01 X197.9184Y53.3273
G01 X197.8819Y53.4157
G01 X197.8369Y53.5002
G01 X197.7838Y53.5798
G01 X197.7232Y53.6538
G01 X197.6538Y53.7232
G01 X197.5798Y53.7838
G01 X197.5002Y53.8369
G01 X197.4180Y53.8808
G01 X197.3296Y53.9176
G01 X197.2381Y53.9455
G01 X197.1443Y53.9642
G01 X197.0491Y53.9737
G01 X197.0000Y53.9750
G01 X0.0000Y53.9750
G01 X-0.0491Y53.9737
G01 X-0.1418Y53.9646
G01 X-0.2381Y53.9455
G01 X-0.3296Y53.9176
G01 X-0.4180Y53.8808
G01 X-0.5002Y53.8369
G01 X-0.5798Y53.7838
G01 X-0.6538Y53.7232
G01 X-0.7216Y53.6557
G01 X-0.7824Y53.5818
G01 X-0.8356Y53.5023
G01 X-0.8808Y53.4180
G01 X-0.9176Y53.3296
G01 X-0.9460Y53.2357
G01 X-0.9646Y53.1418
G01 X-0.9739Y53.0466
G01 X-0.9750Y53.0000
G01 X-0.9750Y28.0000
G01 X-0.9739Y27.9534
G00 X-0.9739Y27.9534
G01 Z-1.0000
G01 X-0.9646Y27.8582
G01 X-0.9460Y27.7643
G01 X-0.9184Y27.6727
G01 X-0.8819Y27.5843
G01 X-0.8369Y27.4998
G01 X-0.7838Y27.4202
G01 X-0.7232Y27.3462
G01 X-0.6557Y27.2784
G01 X-0.5818Y27.2176
G01 X-0.5023Y27.1644
G01 X-0.4180Y27.1192
G01 X-0.3296Y27.0824
G01 X-0.2381Y27.0545
G01 X-0.1443Y27.0358
G01 X-0.0491Y27.0263
G01 X0.0000Y27.0250
G01 X197.0000Y27.0250
G01 X197.0491Y27.0263
G01 X197.1418Y27.0354
G01 X197.2381Y27.0545
G01 X197.3296Y27.0824
G01 X197.4180Y27.1192
G01 X197.5002Y27.1631
G01 X197.5798Y27.2162
G01 X197.6538Y27.2768
G01 X197.7216Y27.3443
G01 X197.7824Y27.4182
G01 X197.8356Y27.4977
G01 X197.8808Y27.5820
G01 X197.9176Y27.6704
G01 X197.9460Y27.7643
G01 X197.9646Y27.8582
G01 X197.9739Y27.9534
G01 X197.9750Y28.0000
G01 X197.9750Y53.0000
G01 X197.9737Y53.0491
G01 X197.9646Y53.1418
G01 X197.9460Y53.2357
G01 X197.9184Y53.3273
G01 X197.8819Y53.4157
G01 X197.8369Y53.5002
G01 X197.7838Y53.5798
G01 X197.7232Y53.6538
G01 X197.6538Y53.7232
G01 X197.5798Y53.7838
G01 X197.5002Y53.8369
G01 X197.4180Y53.8808
G01 X197.3296Y53.9176
G01 X197.2381Y53.9455
G01 X197.1443Y53.9642
G01 X197.0491Y53.9737
G01 X197.0000Y53.9750
G01 X0.0000Y53.9750
G01 X-0.0491Y53.9737
G01 X-0.1418Y53.9646
G01 X-0.2381Y53.9455
G01 X-0.3296Y53.9176
G01 X-0.4180Y53.8808
G01 X-0.5002Y53.8369
G01 X-0.5798Y53.7838
G01 X-0.6538Y53.7232
G01 X-0.7216Y53.6557
G01 X-0.7824Y53.5818
G01 X-0.8356Y53.5023
G01 X-0.8808Y53.4180
G01 X-0.9176Y53.3296
G01 X-0.9460Y53.2357
G01 X-0.9646Y53.1418
G01 X-0.9739Y53.0466
G01 X-0.9750Y53.0000
G01 X-0.9750Y28.0000
G01 X-0.9739Y27.9534
G00 X-0.9739Y27.9534
G01 Z-1.2500
G01 X-0.9646Y27.8582
G01 X-0.9460Y27.7643
G01 X-0.9184Y27.6727
G01 X-0.8819Y27.5843
G01 X-0.8369Y27.4998
G01 X-0.7838Y27.4202
G01 X-0.7232Y27.3462
G01 X-0.6557Y27.2784
G01 X-0.5818Y27.2176
G01 X-0.5023Y27.1644
G01 X-0.4180Y27.1192
G01 X-0.3296Y27.0824
G01 X-0.2381Y27.0545
G01 X-0.1443Y27.0358
G01 X-0.0491Y27.0263
G01 X0.0000Y27.0250
G01 X197.0000Y27.0250
G01 X197.0491Y27.0263
G01 X197.1418Y27.0354
G01 X197.2381Y27.0545
G01 X197.3296Y27.0824
G01 X197.4180Y27.1192
G01 X197.5002Y27.1631
G01 X197.5798Y27.2162
G01 X197.6538Y27.2768
G01 X197.7216Y27.3443
G01 X197.7824Y27.4182
G01 X197.8356Y27.4977
G01 X197.8808Y27.5820
G01 X197.9176Y27.6704
G01 X197.9460Y27.7643
G01 X197.9646Y27.8582
G01 X197.9739Y27.9534
G01 X197.9750Y28.0000
G01 X197.9750Y53.0000
G01 X197.9737Y53.0491
G01 X197.9646Y53.1418
G01 X197.9460Y53.2357
G01 X197.9184Y53.3273
G01 X197.8819Y53.4157
G01 X197.8369Y53.5002
G01 X197.7838Y53.5798
G01 X197.7232Y53.6538
G01 X197.6538Y53.7232
G01 X197.5798Y53.7838
G01 X197.5002Y53.8369
G01 X197.4180Y53.8808
G01 X197.3296Y53.9176
G01 X197.2381Y53.9455
G01 X197.1443Y53.9642
G01 X197.0491Y53.9737
G01 X197.0000Y53.9750
G01 X0.0000Y53.9750
G01 X-0.0491Y53.9737
G01 X-0.1418Y53.9646
G01 X-0.2381Y53.9455
G01 X-0.3296Y53.9176
G01 X-0.4180Y53.8808
G01 X-0.5002Y53.8369
G01 X-0.5798Y53.7838
G01 X-0.6538Y53.7232
G01 X-0.7216Y53.6557
G01 X-0.7824Y53.5818
G01 X-0.8356Y53.5023
G01 X-0.8808Y53.4180
G01 X-0.9176Y53.3296
G01 X-0.9460Y53.2357
G01 X-0.9646Y53.1418
G01 X-0.9739Y53.0466
G01 X-0.9750Y53.0000
G01 X-0.9750Y28.0000
G01 X-0.9739Y27.9534
G00 X-0.9739Y27.9534
G01 Z-1.5000
G01 X-0.9646Y27.8582
G01 X-0.9460Y27.7643
G01 X-0.9184Y27.6727
G01 X-0.8819Y27.5843
G01 X-0.8369Y27.4998
G01 X-0.7838Y27.4202
G01 X-0.7232Y27.3462
G01 X-0.6557Y27.2784
G01 X-0.5818Y27.2176
G01 X-0.5023Y27.1644
G01 X-0.4180Y27.1192
G01 X-0.3296Y27.0824
G01 X-0.2381Y27.0545
G01 X-0.1443Y27.0358
G01 X-0.0491Y27.0263
G01 X0.0000Y27.0250
G01 X197.0000Y27.0250
G01 X197.0491Y27.0263
G01 X197.1418Y27.0354
G01 X197.2381Y27.0545
G01 X197.3296Y27.0824
G01 X197.4180Y27.1192
G01 X197.5002Y27.1631
G01 X197.5798Y27.2162
G01 X197.6538Y27.2768
G01 X197.7216Y27.3443
G01 X197.7824Y27.4182
G01 X197.8356Y27.4977
G01 X197.8808Y27.5820
G01 X197.9176Y27.6704
G01 X197.9460Y27.7643
G01 X197.9646Y27.8582
G01 X197.9739Y27.9534
G01 X197.9750Y28.0000
G01 X197.9750Y53.0000
G01 X197.9737Y53.0491
G01 X197.9646Y53.1418
G01 X197.9460Y53.2357
G01 X197.9184Y53.3273
G01 X197.8819Y53.4157
G01 X197.8369Y53.5002
G01 X197.7838Y53.5798
G01 X197.7232Y53.6538
G01 X197.6538Y53.7232
G01 X197.5798Y53.7838
G01 X197.5002Y53.8369
G01 X197.4180Y53.8808
G01 X197.3296Y53.9176
G01 X197.2381Y53.9455
G01 X197.1443Y53.9642
G01 X197.0491Y53.9737
G01 X197.0000Y53.9750
G01 X0.0000Y53.9750
G01 X-0.0491Y53.9737
G01 X-0.1418Y53.9646
G01 X-0.2381Y53.9455
G01 X-0.3296Y53.9176
G01 X-0.4180Y53.8808
G01 X-0.5002Y53.8369
G01 X-0.5798Y53.7838
G01 X-0.6538Y53.7232
G01 X-0.7216Y53.6557
G01 X-0.7824Y53.5818
G01 X-0.8356Y53.5023
G01 X-0.8808Y53.4180
G01 X-0.9176Y53.3296
G01 X-0.9460Y53.2357
G01 X-0.9646Y53.1418
G01 X-0.9739Y53.0466
G01 X-0.9750Y53.0000
G01 X-0.9750Y28.0000
G01 X-0.9739Y27.9534
G00 X-0.9739Y27.9534
G01 Z-1.7500
G01 X-0.9646Y27.8582
G01 X-0.9460Y27.7643
G01 X-0.9184Y27.6727
G01 X-0.8819Y27.5843
G01 X-0.8369Y27.4998
G01 X-0.7838Y27.4202
G01 X-0.7232Y27.3462
G01 X-0.6557Y27.2784
G01 X-0.5818Y27.2176
G01 X-0.5023Y27.1644
G01 X-0.4180Y27.1192
G01 X-0.3296Y27.0824
G01 X-0.2381Y27.0545
G01 X-0.1443Y27.0358
G01 X-0.0491Y27.0263
G01 X0.0000Y27.0250
G01 X197.0000Y27.0250
G01 X197.0491Y27.0263
G01 X197.1418Y27.0354
G01 X197.2381Y27.0545
G01 X197.3296Y27.0824
G01 X197.4180Y27.1192
G01 X197.5002Y27.1631
G01 X197.5798Y27.2162
G01 X197.6538Y27.2768
G01 X197.7216Y27.3443
G01 X197.7824Y27.4182
G01 X197.8356Y27.4977
G01 X197.8808Y27.5820
G01 X197.9176Y27.6704
G01 X197.9460Y27.7643
G01 X197.9646Y27.8582
G01 X197.9739Y27.9534
G01 X197.9750Y28.0000
G01 X197.9750Y53.0000
G01 X197.9737Y53.0491
G01 X197.9646Y53.1418
G01 X197.9460Y53.2357
G01 X197.9184Y53.3273
G01 X197.8819Y53.4157
G01 X197.8369Y53.5002
G01 X197.7838Y53.5798
G01 X197.7232Y53.6538
G01 X197.6538Y53.7232
G01 X197.5798Y53.7838
G01 X197.5002Y53.8369
G01 X197.4180Y53.8808
G01 X197.3296Y53.9176
G01 X197.2381Y53.9455
G01 X197.1443Y53.9642
G01 X197.0491Y53.9737
G01 X197.0000Y53.9750
G01 X0.0000Y53.9750
G01 X-0.0491Y53.9737
G01 X-0.1418Y53.9646
G01 X-0.2381Y53.9455
G01 X-0.3296Y53.9176
G01 X-0.4180Y53.8808
G01 X-0.5002Y53.8369
G01 X-0.5798Y53.7838
G01 X-0.6538Y53.7232
G01 X-0.7216Y53.6557
G01 X-0.7824Y53.5818
G01 X-0.8356Y53.5023
G01 X-0.8808Y53.4180
G01 X-0.9176Y53.3296
G01 X-0.9460Y53.2357
G01 X-0.9646Y53.1418
G01 X-0.9739Y53.0466
G01 X-0.9750Y53.0000
G01 X-0.9750Y28.0000
G01 X-0.9739Y27.9534
G00 X-0.9739Y27.9534
G01 Z-2.0000
G01 X-0.9646Y27.8582
G01 X-0.9460Y27.7643
G01 X-0.9184Y27.6727
G01 X-0.8819Y27.5843
G01 X-0.8369Y27.4998
G01 X-0.7838Y27.4202
G01 X-0.7232Y27.3462
G01 X-0.6557Y27.2784
G01 X-0.5818Y27.2176
G01 X-0.5023Y27.1644
G01 X-0.4180Y27.1192
G01 X-0.3296Y27.0824
G01 X-0.2381Y27.0545
G01 X-0.1443Y27.0358
G01 X-0.0491Y27.0263
G01 X0.0000Y27.0250
G01 X197.0000Y27.0250
G01 X197.0491Y27.0263
G01 X197.1418Y27.0354
G01 X197.2381Y27.0545
G01 X197.3296Y27.0824
G01 X197.4180Y27.1192
G01 X197.5002Y27.1631
G01 X197.5798Y27.2162
G01 X197.6538Y27.2768
G01 X197.7216Y27.3443
G01 X197.7824Y27.4182
G01 X197.8356Y27.4977
G01 X197.8808Y27.5820
G01 X197.9176Y27.6704
G01 X197.9460Y27.7643
G01 X197.9646Y27.8582
G01 X197.9739Y27.9534
G01 X197.9750Y28.0000
G01 X197.9750Y53.0000
G01 X197.9737Y53.0491
G01 X197.9646Y53.1418
G01 X197.9460Y53.2357
G01 X197.9184Y53.3273
G01 X197.8819Y53.4157
G01 X197.8369Y53.5002
G01 X197.7838Y53.5798
G01 X197.7232Y53.6538
G01 X197.6538Y53.7232
G01 X197.5798Y53.7838
G01 X197.5002Y53.8369
G01 X197.4180Y53.8808
G01 X197.3296Y53.9176
G01 X197.2381Y53.9455
G01 X197.1443Y53.9642
G01 X197.0491Y53.9737
G01 X197.0000Y53.9750
G01 X0.0000Y53.9750
G01 X-0.0491Y53.9737
G01 X-0.1418Y53.9646
G01 X-0.2381Y53.9455
G01 X-0.3296Y53.9176
G01 X-0.4180Y53.8808
G01 X-0.5002Y53.8369
G01 X-0.5798Y53.7838
G01 X-0.6538Y53.7232
G01 X-0.7216Y53.6557
G01 X-0.7824Y53.5818
G01 X-0.8356Y53.5023
G01 X-0.8808Y53.4180
G01 X-0.9176Y53.3296
G01 X-0.9460Y53.2357
G01 X-0.9646Y53.1418
G01 X-0.9739Y53.0466
G01 X-0.9750Y53.0000
G01 X-0.9750Y28.0000
G01 X-0.9739Y27.9534
G00 Z3.0000
M05
G0 Z20
G0 X0 Y50